"isReserved","updateRes","OMSCHR","NAAM","vrijwillID","startDate","SugbyINBO","locID","restricties","Sampler","dataset","SystemType","GEBIED","provincie","gemeente","postcode","CATC","VHAG","WVLC","Beheerder","Bhrtel","Bhremail","Longitude","Latitude","OIDN","UIDN","TERRID","NISCODE","NAAM.1","DATPUBLBS","NUMAC","LENGTE","OPPERVL","GEMNAAM"
"TRUE","TRUE","Meeuwen; Broekkant","Bullenbeek","owvlmtzj","TBD","YES","I_3670_3",NA,NA,"VMM_Mtp","Lotisch",NA,"Limburg","Oudsbergen",3670,2,9594,NA,"Limburg",NA,"christel.bouchet@limburg.be",5.514206,51.0895971,310,745,364,72042,"Oudsbergen","2018-06-01",2018012105,582081,1163706502,"Oudsbergen"
"TRUE","TRUE",NA,"Watering De Vreenebeek","owvlmtzj","TBD","YES","I_3670_7",NA,NA,NA,NA,NA,"Limburg","Oudsbergen",3670,NA,NA,NA,NA,NA,NA,5.5157167,51.0899777,310,745,364,72042,"Oudsbergen","2018-06-01",2018012105,582081,1163706502,"Oudsbergen"
"TRUE","TRUE",NA,"Watering De Vreenebeek","mznkyti0","TBD","YES","I_3670_8",NA,NA,NA,NA,NA,"Limburg","Oudsbergen",3670,NA,NA,NA,NA,NA,NA,5.5232808,51.0762833,310,745,364,72042,"Oudsbergen","2018-06-01",2018012105,582081,1163706502,"Oudsbergen"
"TRUE","TRUE","Bellem, Eksterstraat","Fortloop","zgyxzdri","TBD","YES","I_9881_1",NA,NA,"VMM_Mtp","Lotisch",NA,"Oost-Vlaanderen","Aalter",9881,2,397,NA,"Oost-Vlaanderen",NA,"waterbeleid@oost-vlaanderen.be",3.5072512,51.1045717,313,748,367,44084,"Aalter","2018-06-01",2018012109,6156398,11985075639,"Aalter"
"TRUE","TRUE",NA,NA,"mdjjotdj","TBD","YES","I_9880_3",NA,NA,NA,NA,NA,"Oost-Vlaanderen","Aalter",9880,NA,NA,NA,NA,NA,NA,3.401001,51.110642,313,748,367,44084,"Aalter","2018-06-01",2018012109,6156398,11985075639,"Aalter"
"TRUE","TRUE",NA,NA,"zgyxzdri","TBD","NO","V_9880_5",NA,NA,NA,NA,NA,"Oost-Vlaanderen","Aalter",9880,NA,NA,NA,NA,NA,NA,3.4753949,51.104322,313,748,367,44084,"Aalter","2018-06-01",2018012109,6156398,11985075639,"Aalter"
"TRUE","TRUE","Bisdonkstraat, veldwegel thv bocht","Stokstormbeek","yzc4njmw","TBD","YES","I_9770_1",NA,NA,"VMM_Mtp","Lotisch",NA,"Oost-Vlaanderen","Kruisem",9770,2,4463,NA,"Oost-Vlaanderen",NA,"waterbeleid@oost-vlaanderen.be",3.5177699,50.9454238,314,749,366,45068,"Kruisem","2018-06-01",2018012104,5440716,7158974805,"Kruisem"
"TRUE","TRUE","Neereichemstraat afw brug","Stampkotbeek","yzc4njmw","TBD","YES","I_9770_3",NA,NA,"VMM_Mtp","Lotisch",NA,"Oost-Vlaanderen","Kruisem",9770,2,5274,NA,"Oost-Vlaanderen",NA,"waterbeleid@oost-vlaanderen.be",3.580549,50.9240558,314,749,366,45068,"Kruisem","2018-06-01",2018012104,5440716,7158974805,"Kruisem"
"TRUE","TRUE","Duffel; Beukendreef; 50m opw brug (aan dikke canadaboom)","Goorbosbeek","yjdjywix","TBD","YES","I_2860_3","bij voorkeur tussen 20/07 - 01/09",NA,"VMM_Mtp","Lotisch",NA,"Antwerpen","Sint-Katelijne-Waver",2860,2,9112,NA,"Antwerpen",NA,"hans.vanloy@provincieantwerpen.be",4.4834901,51.075153,2,752,169,12035,"Sint-Katelijne-Waver","1976-01-23",1975123003,3556452,3615607789,"Sint-Katelijne-Waver"
"TRUE","TRUE",NA,NA,"yjdjywix","TBD","YES","I_2860_4",NA,NA,"Scheers","Lentisch",NA,"Antwerpen","Sint-Katelijne-Waver",2860,NA,NA,NA,NA,NA,NA,4.5109872,51.0598583,2,752,169,12035,"Sint-Katelijne-Waver","1976-01-23",1975123003,3556452,3615607789,"Sint-Katelijne-Waver"
"TRUE","TRUE","Tongerlo; langs Groenstraat; begin traject achter huisnummer 20 aan brugje","Itterbeek","yzmyntdl","TBD","YES","I_3960_1",NA,NA,"VMM_Mtp","Lotisch",NA,"Limburg","Bree",3960,2,9522,NA,"Limburg",NA,"christel.bouchet@limburg.be",5.6663394,51.126908,65,786,14,72004,"Bree","1982-07-17",1982001074,4116786,6498307447,"Bree"
"TRUE","TRUE","Hechtel-Eksel; Weyerbrugstraat; 500m afw mtp 262600","Grote Nete","mdflzwm0",NA,"YES","I_3941_1",NA,NA,"VMM_Mtp","Lotisch",NA,"Limburg","Hechtel-Eksel",3941,2,8501,NA,"Limburg",NA,"christel.bouchet@limburg.be",5.3378964,51.1542373,68,787,15,72038,"Hechtel-Eksel","1976-01-23",1975123003,4458363,7667768579,"Hechtel-Eksel"
"TRUE","TRUE","Laakdal; Zammel; Blaardonk/Trichelhoek; opw brug mtp 324950","Grote Laak","otyymtfh","TBD","YES","I_2431_2",NA,NA,"VMM_Mtp","Lotisch",NA,"Antwerpen","Laakdal",2431,1,8503,NA,"VMM",NA,"d.slootmaekers@vmm.be",4.9557391,51.0870393,74,792,156,13053,"Laakdal","1976-01-23",1975123003,4293253,424305923,"Laakdal"
"TRUE","TRUE","Laakdal; Vorst; Rauwstraat; einde zandpad","Grote Laak","ztyxmjnj","TBD","YES","I_2431_3",NA,NA,"VMM_Mtp","Lotisch",NA,"Antwerpen","Laakdal",2431,1,8503,NA,"VMM",NA,"d.slootmaekers@vmm.be",5.0334369,51.0738039,74,792,156,13053,"Laakdal","1976-01-23",1975123003,4293253,424305923,"Laakdal"
"TRUE","TRUE","recreation area, recreatiedomein De Plas (ANB?)","De Plas","mtmzmge1","TBD","YES","I_3530_3",NA,NA,"Scheers","Lentisch",NA,"Limburg","Houthalen-Helchteren",3530,NA,NA,NA,"Thijs Koen",NA,"recreatie.lim.anb@vlaanderen.be",5.4219622,51.0330313,106,808,22,72039,"Houthalen-Helchteren","1976-01-23",1975123003,436867,7822865567,"Houthalen-Helchteren"
"TRUE","TRUE","Assebroek, Looweideweg","St. Trudoledeken","mdjjotdj","TBD","YES","I_8730_3","waterpeil te laag!",NA,"VMM_Mtp","Lotisch",NA,"West-Vlaanderen","Beernem",8730,2,2616,NA,"Oostkustpolder","050/333271","waterbeheer@oostkustpolder.be",3.2877933,51.1900815,133,822,116,31003,"Beernem","1982-12-29",1982001920,461606,7242322727,"Beernem"
"TRUE","TRUE","Prov. Domein Lippensgoed, Bulskampveld, eendeputten","Aanwijsputten","ndaxotdi",NA,"YES","I_8730_6",NA,NA,"ANB_Mtp","Lentisch",NA,"West-Vlaanderen","Beernem",8730,NA,NA,NA,"Meulebrouck Klaar",NA,"recreatie.wvl.anb@vlaanderen.be",3.3075512,51.1094265,133,822,116,31003,"Beernem","1982-12-29",1982001920,461606,7242322727,"Beernem"
"TRUE","TRUE","Prov. Domein Lippensgoed, Bulskampveld, eendeputten",NA,"ndaxotdi",NA,"YES","I_8730_7",NA,NA,"ANB_Mtp","Lentisch",NA,"West-Vlaanderen","Beernem",8730,NA,NA,NA,"Meulebrouck Klaar",NA,"recreatie.wvl.anb@vlaanderen.be",3.3079091,51.1100141,133,822,116,31003,"Beernem","1982-12-29",1982001920,461606,7242322727,"Beernem"
"TRUE","TRUE","Prov. Domein Lippensgoed, Bulskampveld, eendeputten",NA,"ndaxotdi",NA,"YES","I_8730_8",NA,NA,"ANB_Mtp","Lentisch",NA,"West-Vlaanderen","Beernem",8730,NA,NA,NA,"Meulebrouck Klaar",NA,"recreatie.wvl.anb@vlaanderen.be",3.3077474,51.1108487,133,822,116,31003,"Beernem","1982-12-29",1982001920,461606,7242322727,"Beernem"
"TRUE","TRUE",NA,NA,"ndaxotdi","TBD","YES","I_8730_10",NA,NA,NA,NA,NA,"West-Vlaanderen","Beernem",8730,NA,NA,NA,NA,NA,NA,3.2914765,51.1165137,133,822,116,31003,"Beernem","1982-12-29",1982001920,461606,7242322727,"Beernem"
"TRUE","TRUE","Melden,Meersbloem, Leupegem-Meersbloem, meest stroomafwaartse brugje","Maarkebeek","yjizogrj",NA,"YES","I_9700_4",NA,NA,"VMM_Mtp","Lotisch",NA,"Oost-Vlaanderen","Oudenaarde",9700,1,5003,NA,"VMM",NA,"d.slootmaekers@vmm.be",3.593942,50.8326149,144,828,258,45035,"Oudenaarde","1976-01-23",1975123003,571654,689202487,"Oudenaarde"
"TRUE","TRUE","Oude Schelde Heurne-Heuvel","Oude Schelde Heurne","ytqwyznm","TBD","YES","I_9700_9",NA,NA,"EcoWater","Lentisch",NA,"Oost-Vlaanderen","Oudenaarde",9700,NA,NA,NA,NA,NA,NA,3.6390284,50.8839607,144,828,258,45035,"Oudenaarde","1976-01-23",1975123003,571654,689202487,"Oudenaarde"
"TRUE","TRUE","Oude Schelde Nederename?","Oude Schelde Eine","ytqwyznm","TBD","YES","I_9700_10",NA,NA,"EcoWater","Lentisch",NA,"Oost-Vlaanderen","Oudenaarde",9700,NA,NA,NA,NA,NA,NA,3.6318545,50.8663305,144,828,258,45035,"Oudenaarde","1976-01-23",1975123003,571654,689202487,"Oudenaarde"
"TRUE","TRUE","Oude Schelde De Sterre","Oude Schelde Heurne","ytqwyznm","TBD","YES","I_9700_11",NA,NA,"EcoWater","Lentisch",NA,"Oost-Vlaanderen","Oudenaarde",9700,NA,NA,NA,NA,NA,NA,3.6279292,50.8797969,144,828,258,45035,"Oudenaarde","1976-01-23",1975123003,571654,689202487,"Oudenaarde"
"TRUE","TRUE","recreation area, Provincial dom. Donk, Oudenaarde","Donkmeer","yjizogrj","TBD","YES","I_9700_15",NA,NA,"Scheers","Lentisch",NA,"Oost-Vlaanderen","Oudenaarde",9700,NA,NA,NA,NA,NA,NA,3.5925151,50.8422786,144,828,258,45035,"Oudenaarde","1976-01-23",1975123003,571654,689202487,"Oudenaarde"
"TRUE","TRUE","Oostenieuwkerke","Mandel","yze3nzdi","TBD","YES","I_8840_5",NA,NA,"VMM_Mtp","Lotisch",NA,"West-Vlaanderen","Staden",8840,2,4203,NA,"West-Vlaanderen",NA,NA,3.0514924,50.93524,146,830,206,36019,"Staden","1982-12-29",1982001920,3552409,4681548093,"Staden"
"TRUE","TRUE",NA,"Zarrenbeek","owrjyju0","TBD","YES","I_8840_6",NA,NA,"VMM_Mtp","Lotisch",NA,"West-Vlaanderen","Staden",8840,2,1496,NA,"West-Vlaanderen",NA,NA,3.0112606,50.9938746,146,830,206,36019,"Staden","1982-12-29",1982001920,3552409,4681548093,"Staden"
"TRUE","TRUE","Kortenaken/Kersbeek-Miskom, Bauwelstr, 10m opw brug","Velpe","ngq0zmji","TBD","YES","I_3470_1",NA,NA,"VMM_Mtp","Lotisch",NA,"Vlaams-Brabant","Kortenaken",3470,1,7155,NA,"VMM",NA,"d.slootmaekers@vmm.be",5.0343933,50.8954866,159,842,39,24054,"Kortenaken","1976-01-23",1975123003,4226626,4943768838,"Kortenaken"
"TRUE","TRUE","Prioritair (melding van een rood gekleurde rivierkreeft)","Grootbroekloop","ztc4nmfl","TBD","YES","I_2830_2","bij voorkeur tussen 20/07 - 01/09",NA,NA,"Lotisch",NA,"Antwerpen","Willebroek",2830,2,0,NA,"Polder Willebroek","03/8996317","polderwillebroek@vvpw.be",4.3922546,51.0576496,164,844,172,12040,"Willebroek","1976-01-23",1975123003,310392,2736618675,"Willebroek"
"TRUE","TRUE","Het Broek, Blaasveld, Prioritair (melding van een rood gekleurde rivierkreeft)",NA,"ztc4nmfl",NA,"YES","I_2830_3",NA,NA,"EcoWater","Lentisch",NA,"Antwerpen","Willebroek",2830,NA,NA,NA,"Heyens Veerle",NA,"recreatie.ant.anb@vlaanderen.be",4.3844079,51.0590381,164,844,172,12040,"Willebroek","1976-01-23",1975123003,310392,2736618675,"Willebroek"
"TRUE","TRUE","Blaasveld, Broekweg, thv. restaurant Fonteyntje brug tss 2 vijvers, rechtervijver, Prioritair (melding van een rood gekleurde rivierkreeft)","Putten van Lacourt","ztc4nmfl",NA,"YES","I_2830_4",NA,NA,"ANB_Mtp","Lentisch",NA,"Antwerpen","Willebroek",2830,NA,NA,NA,"Heyens Veerle",NA,"recreatie.ant.anb@vlaanderen.be",4.3933008,51.0544065,164,844,172,12040,"Willebroek","1976-01-23",1975123003,310392,2736618675,"Willebroek"
"TRUE","TRUE","Eeklose Watergang","Eeklose watergang","mwyxzjc2","TBD","YES","I_9900_1",NA,NA,NA,NA,NA,"Oost-Vlaanderen","Eeklo",9900,NA,NA,NA,NA,NA,NA,3.5388169,51.2160525,169,849,109,43005,"Eeklo","1982-12-29",1982001920,2559369,304493745,"Eeklo"
"TRUE","TRUE",NA,"Eeklose Watergang","owu3yjdl","TBD","YES","I_9900_2",NA,NA,NA,NA,NA,"Oost-Vlaanderen","Eeklo",9900,NA,NA,NA,NA,NA,NA,3.586339,51.209412,169,849,109,43005,"Eeklo","1982-12-29",1982001920,2559369,304493745,"Eeklo"
"TRUE","TRUE","Vladslo, Einsdijkstraat, br. Eindsdijk-Esenbroek","Handzamevaart","mgeyodcw","TBD","YES","I_8600_3",NA,NA,"VMM_Mtp","Lotisch",NA,"West-Vlaanderen","Diksmuide",8600,1,1208,NA,"VMM",NA,"d.slootmaekers@vmm.be",2.9266385,51.0345673,185,856,153,32003,"Diksmuide","1976-01-23",1975123003,6380216,15073875943,"Diksmuide"
"TRUE","TRUE","Woumen, Noordbroekstraat, Rillebroek","Stenensluisvaart","nwm0ndcy","TBD","YES","I_8600_6",NA,NA,"VMM_Mtp","Lotisch",NA,"West-Vlaanderen","Diksmuide",8600,1,1379,NA,"VMM",NA,"d.slootmaekers@vmm.be",2.8351357,50.9949932,185,856,153,32003,"Diksmuide","1976-01-23",1975123003,6380216,15073875943,"Diksmuide"
"TRUE","TRUE","Woumen, Noordbroekstraat, Rillebroek","Noordkantvaart","nwm0ndcy","TBD","YES","I_8600_7",NA,NA,"VMM_Mtp","Lotisch",NA,"West-Vlaanderen","Diksmuide",8600,1,2083,NA,"VMM",NA,"d.slootmaekers@vmm.be",2.8462363,51.0004986,185,856,153,32003,"Diksmuide","1976-01-23",1975123003,6380216,15073875943,"Diksmuide"
"TRUE","TRUE",NA,"Ijzer","nwm0ndcy","TBD","YES","I_8600_8",NA,NA,NA,"Lotisch",NA,"West-Vlaanderen","Diksmuide",8600,NA,NA,NA,NA,NA,NA,2.8136319,50.9882039,185,856,153,32003,"Diksmuide","1976-01-23",1975123003,6380216,15073875943,"Diksmuide"
"TRUE","TRUE","Diksmuide",NA,"mgeyodcw","TBD","YES","I_8600_12",NA,NA,"Scheers","Lentisch",NA,"West-Vlaanderen","Diksmuide",8600,NA,NA,NA,NA,NA,NA,2.8680722,51.0347191,185,856,153,32003,"Diksmuide","1976-01-23",1975123003,6380216,15073875943,"Diksmuide"
"TRUE","TRUE",NA,"mgeyodcw",NA,"TBD","YES","I_8600_14",NA,NA,NA,NA,NA,"West-Vlaanderen","Diksmuide",8600,NA,NA,NA,NA,NA,NA,2.8734323,51.0566341,185,856,153,32003,"Diksmuide","1976-01-23",1975123003,6380216,15073875943,"Diksmuide"
"TRUE","TRUE","Elsegem, Scheldestraat,Het Anker","Oude Schelde Wortegem-Petegem","yjizogrj","TBD","YES","I_9790_3",NA,NA,"ANB_Mtp","Lentisch",NA,"Oost-Vlaanderen","Wortegem-Petegem",9790,0,NA,NA,"Coppens Xavier",NA,"recreatie.ovl.anb@vlaanderen.be",3.5575902,50.8217214,193,861,266,45061,"Wortegem-Petegem","1976-01-23",1975123003,4107106,4247251806,"Wortegem-Petegem"
"TRUE","TRUE","Budingen, Terweidenstr, afw limnigraaf en brug","Gete","ngq0zmji","TBD","YES","I_3440_4",NA,NA,"VMM_Mtp","Lotisch",NA,"Vlaams-Brabant","Zoutleeuw",3440,1,7162,NA,"VMM",NA,"d.slootmaekers@vmm.be",5.1072447,50.8639366,197,862,46,24130,"Zoutleeuw","1982-12-29",1982001920,4558438,4684508475,"Zoutleeuw"
"TRUE","TRUE","Zoutleeuw, Koepoortstr, begin traj opw mpl 443000","Dormaalbeek","ymi3mgez","TBD","YES","I_3440_7",NA,NA,"VMM_Mtp","Lotisch",NA,"Vlaams-Brabant","Zoutleeuw",3440,1,7160,NA,"VMM",NA,"d.slootmaekers@vmm.be",5.0962155,50.8250521,197,862,46,24130,"Zoutleeuw","1982-12-29",1982001920,4558438,4684508475,"Zoutleeuw"
"TRUE","TRUE","vijver het Vinne, Zoutleeuw, thv zuidwestelijke punt, via knuppelpad, links in open water, thv dode boom","Vinne","nwi2m2u2","TBD","YES","I_3440_8",NA,NA,"ANB_Mtp","Lentisch",NA,"Vlaams-Brabant","Zoutleeuw",3440,NA,NA,NA,NA,NA,NA,5.1189194,50.8353643,197,862,46,24130,"Zoutleeuw","1982-12-29",1982001920,4558438,4684508475,"Zoutleeuw"
"TRUE","TRUE",NA,"Watering De Kleine Gete","nwi2m2u2","TBD","NO","V_3440_9","waterpeil half juli te laag",NA,NA,NA,NA,"Vlaams-Brabant","Zoutleeuw",3440,NA,NA,NA,NA,NA,NA,5.1213607,50.8389004,197,862,46,24130,"Zoutleeuw","1982-12-29",1982001920,4558438,4684508475,"Zoutleeuw"
"TRUE","TRUE","Alken, Meerdegatstr, tss kruising met Expressweg Sint-Truiden en Jardinstr, opw weg","Kleine Herk","mdy2ngvi","TBD","YES","I_3570_1",NA,NA,"VMM_Mtp","Lotisch",NA,"Limburg","Alken",3570,1,7812,NA,"VMM",NA,"d.slootmaekers@vmm.be",5.3075097,50.8886293,203,866,42,73001,"Alken","1982-07-17",1982001074,2771288,2823549591,"Alken"
"TRUE","TRUE","Geetbets, Kasteellaan, opw brug","Gete","otyymtfh","TBD","YES","I_3450_1",NA,NA,"VMM_Mtp","Lotisch",NA,"Vlaams-Brabant","Geetbets",3450,9,7162,NA,NA,NA,NA,5.1276598,50.9000984,249,895,41,24028,"Geetbets","1976-01-23",1975123003,3210076,3551767078,"Geetbets"
"TRUE","TRUE","Geetbets, Dorpsstr, afw mpl 429000","Gete","ngq0zmji","TBD","YES","I_3450_3",NA,NA,"VMM_Mtp","Lotisch",NA,"Vlaams-Brabant","Geetbets",3450,1,7162,NA,"VMM",NA,"d.slootmaekers@vmm.be",5.1201843,50.8878124,249,895,41,24028,"Geetbets","1976-01-23",1975123003,3210076,3551767078,"Geetbets"
"TRUE","TRUE","33/1-2;Geetbets; einde traject op 10m afw brug aan MP 434000","Melsterbeek","otyymtfh","TBD","YES","I_3450_5",NA,NA,"VMM_Mtp","Lotisch",NA,"Vlaams-Brabant","Geetbets",3450,1,7154,NA,"VMM",NA,"d.slootmaekers@vmm.be",5.1332746,50.9000619,249,895,41,24028,"Geetbets","1976-01-23",1975123003,3210076,3551767078,"Geetbets"
"TRUE","TRUE","Ramsel; Ramselsestwg (zijstraat), opw brug","Raamdonksebeek","mtqwzgrl","TBD","YES","I_2230_1","bij voorkeur tussen 20/07 - 01/09",NA,"VMM_Mtp","Lotisch",NA,"Antwerpen","Herselt",2230,2,8657,NA,"Antwerpen",NA,"hans.vanloy@provincieantwerpen.be",4.8490454,51.0393323,253,897,168,13013,"Herselt","1976-01-23",1975123003,4647289,5237275447,"Herselt"
"TRUE","TRUE",NA,"Herseltseloop","zje5zwzm","TBD","YES","I_2230_2",NA,NA,NA,NA,NA,"Antwerpen","Herselt",2230,NA,NA,NA,NA,NA,NA,4.902965,51.027688,253,897,168,13013,"Herselt","1976-01-23",1975123003,4647289,5237275447,"Herselt"
"TRUE","TRUE","Oostvleteren, Stavelestraat, Evershamhoeve","Poperingevaart","mjc1zjc1 ","TBD","YES","I_8640_1",NA,NA,"VMM_Mtp","Lotisch",NA,"West-Vlaanderen","Vleteren",8640,1,1203,NA,"VMM",NA,"d.slootmaekers@vmm.be",2.716387,50.947319,259,901,225,33041,"Vleteren","1976-01-23",1975123003,3727193,385760301,"Vleteren"
"TRUE","TRUE","Wauberg, Meeuwerbaan (N719), grensbord Peer/Meeuwen, opw weg","Gielisbeek","owvlmtzj","TBD","YES","I_3990_2",NA,NA,"VMM_Mtp","Lotisch",NA,"Limburg","Peer",3990,2,9663,NA,"Limburg",NA,"christel.bouchet@limburg.be",5.4832172,51.0898192,279,913,13,72030,"Peer","1982-07-17",1982001074,4720193,8723599568,"Peer"
"TRUE","TRUE","Tessenderlo, zijstraat industrieweg, afw brug","Grotebeek","yzjkywm1","TBD","YES","I_3980_2",NA,NA,"VMM_Mtp","Lotisch",NA,"Limburg","Tessenderlo",3980,1,7751,NA,"VMM",NA,"d.slootmaekers@vmm.be",5.1209392,51.0442797,294,922,24,71057,"Tessenderlo","1849-06-23",NA,4735687,5164253454,"Tessenderlo"
"TRUE","TRUE","Laakdal; Vorst; Lindestraat; beginnen 10m opw brugje","Grote Laak","otyymtfh","TBD","YES","I_3980_3",NA,NA,"VMM_Mtp","Lotisch",NA,"Limburg","Tessenderlo",3980,1,8503,NA,"VMM",NA,"d.slootmaekers@vmm.be",5.0587994,51.0790464,294,922,24,71057,"Tessenderlo","1849-06-23",NA,4735687,5164253454,"Tessenderlo"
"TRUE","TRUE","Tessenderlo; Vorsterweg; mtp 326100 (130m afw brug)","Grote Laak","yzjkywm1","TBD","YES","I_3980_4",NA,NA,"VMM_Mtp","Lotisch",NA,"Limburg","Tessenderlo",3980,1,8503,NA,"VMM",NA,"d.slootmaekers@vmm.be",5.0939029,51.082602,294,922,24,71057,"Tessenderlo","1849-06-23",NA,4735687,5164253454,"Tessenderlo"
"TRUE","TRUE","Ham; Bergstraat; 120m afw straat beginnen (op scheiding maïsveld/bos)","Grote Laak","yzjkywm1","TBD","YES","I_3980_5",NA,NA,"VMM_Mtp","Lotisch",NA,"Limburg","Tessenderlo",3980,1,8503,NA,"VMM",NA,"d.slootmaekers@vmm.be",5.1448458,51.0795984,294,922,24,71057,"Tessenderlo","1849-06-23",NA,4735687,5164253454,"Tessenderlo"
"TRUE","TRUE","Hoeleden, Zuurbemdestw, 10m afw 425000","Velpe","ngq0zmji","TBD","YES","I_3471_1",NA,NA,"VMM_Mtp","Lotisch",NA,"Vlaams-Brabant","Glabbeek",3471,1,7155,NA,"VMM",NA,"d.slootmaekers@vmm.be",4.9827656,50.8704892,299,926,260,24137,"Glabbeek","1976-01-23",1975123003,3012163,2699167975,"Glabbeek"
"TRUE","TRUE",NA,NA,"zjm0zwm2","TBD","YES","I_8890_2",NA,NA,NA,NA,NA,"West-Vlaanderen","Moorslede",8890,NA,NA,NA,NA,NA,NA,3.0910547,50.8534766,306,930,246,36012,"Moorslede","1976-01-23",1975123003,3389135,3544784273,"Moorslede"
"TRUE","TRUE",NA,"Oude Veurnevaart - Langeleed","njhknmu0","TBD","YES","I_8670_1",NA,NA,"VMM_Mtp","Lotisch",NA,"West-Vlaanderen","Koksijde",8670,2,1212,NA,"Westkustpolder","058/314653","info@westkustpolder.be",2.6847605,51.1038088,7,931,139,38014,"Koksijde","1976-01-23",1975123003,3787729,503608041,"Koksijde"
"TRUE","TRUE",NA,"Oude Veurnevaart - Langeleed","zwyymtqz","TBD","YES","I_8670_2",NA,NA,"VMM_Mtp","Lotisch",NA,"West-Vlaanderen","Koksijde",8670,2,1212,NA,"Westkustpolder","058/314653","info@westkustpolder.be",2.6725266,51.0887082,7,931,139,38014,"Koksijde","1976-01-23",1975123003,3787729,503608041,"Koksijde"
"TRUE","TRUE","Ramskapelle, Violettestraat, Hve Rijkenhoek","Grote Beverdijkvaart","mjm4ndiy","TBD","YES","I_8620_2",NA,NA,"VMM_Mtp","Lotisch",NA,"West-Vlaanderen","Nieuwpoort",8620,1,1205,NA,"VMM",NA,"d.slootmaekers@vmm.be",2.771585,51.124462,101,933,127,38016,"Nieuwpoort","1976-01-23",1975123003,36451,3328401861,"Nieuwpoort"
"TRUE","TRUE","connected to Yser",NA,"mjm4ndiy","TBD","YES","I_8620_6",NA,NA,"Scheers","Lentisch",NA,"West-Vlaanderen","Nieuwpoort",8620,NA,NA,NA,NA,NA,NA,2.7890545,51.1307748,101,933,127,38016,"Nieuwpoort","1976-01-23",1975123003,36451,3328401861,"Nieuwpoort"
"TRUE","TRUE","Oplinter, Oude Getestr, RO thv kruising/splitsing met zijweg","Grote Gete","ymi3mgez","TBD","YES","I_3300_2",NA,NA,"VMM_Mtp","Lotisch",NA,"Vlaams-Brabant","Tienen",3300,1,7153,NA,"VMM",NA,"d.slootmaekers@vmm.be",4.9729105,50.8101467,6,939,278,24107,"Tienen","1976-01-23",1975123003,5295706,7277228799,"Tienen"
"TRUE","TRUE","Tienen",NA,"nzyyotg1","TBD","YES","I_3300_9",NA,NA,"Scheers","Lentisch",NA,"Vlaams-Brabant","Tienen",3300,NA,NA,NA,NA,NA,NA,4.9515788,50.8117904,6,939,278,24107,"Tienen","1976-01-23",1975123003,5295706,7277228799,"Tienen"
"TRUE","TRUE","Pezelhoekstraat, Reepje","Poperingevaart","m2jmywjk","TBD","YES","I_8970_2",NA,NA,"VMM_Mtp","Lotisch",NA,"West-Vlaanderen","Poperinge",8970,1,1203,NA,"VMM",NA,"d.slootmaekers@vmm.be",2.7446808,50.8662181,14,944,238,33021,"Poperinge","1976-01-23",1975123003,7424854,12037331235,"Poperinge"
"TRUE","TRUE","Vlamertinge","Kemmelbeek","njuwzjzm","TBD","YES","I_8970_4",NA,NA,"VMM_Mtp","Lotisch",NA,"West-Vlaanderen","Poperinge",8970,2,1204,NA,"West-Vlaanderen",NA,NA,2.7883174,50.8310814,14,944,238,33021,"Poperinge","1976-01-23",1975123003,7424854,12037331235,"Poperinge"
"TRUE","TRUE",NA,"Poperingevaart","njuwzjzm","TBD","YES","I_8970_6",NA,NA,"VMM_Mtp","Lotisch",NA,"West-Vlaanderen","Poperinge",8970,2,1203,NA,"West-Vlaanderen",NA,NA,2.7006916,50.832961,14,944,238,33021,"Poperinge","1976-01-23",1975123003,7424854,12037331235,"Poperinge"
"TRUE","TRUE",NA,"Heidebeek","njuwzjzm","TBD","YES","I_8972_1",NA,NA,"VMM_Mtp","Lotisch",NA,"West-Vlaanderen","Poperinge",8972,1,1217,NA,"VMM",NA,"d.slootmaekers@vmm.be",2.608243,50.8932498,14,944,238,33021,"Poperinge","1976-01-23",1975123003,7424854,12037331235,"Poperinge"
"TRUE","TRUE",NA,"Yser-IJzer","njuwzjzm","TBD","YES","I_8972_2",NA,NA,NA,"Lotisch",NA,"West-Vlaanderen","Poperinge",8972,0,0,NA,NA,NA,NA,2.6073795,50.9116887,14,944,238,33021,"Poperinge","1976-01-23",1975123003,7424854,12037331235,"Poperinge"
"TRUE","TRUE","Linter-Drieslinter, Molenstr, aan 'Geensmolen', 5m opw brug","Grote Gete","ymi3mgez","TBD","YES","I_3350_1",NA,NA,"VMM_Mtp","Lotisch",NA,"Vlaams-Brabant","Linter",3350,1,7153,NA,"VMM",NA,"d.slootmaekers@vmm.be",5.0466102,50.8398595,21,947,49,24133,"Linter","1976-01-23",1975123003,3928721,3687115191,"Linter"
"TRUE","TRUE","Rabattestraat","Zuidervaartje","m2u0nwi3","TBD","YES","I_8340_7",NA,NA,"VMM_Mtp","Lotisch",NA,"West-Vlaanderen","Damme",8340,1,2124,NA,"VMM",NA,"d.slootmaekers@vmm.be",3.2863563,51.2532994,29,949,83,31006,"Damme","1982-12-29",1982001920,5125441,9036361608,"Damme"
"TRUE","TRUE",NA,"Zwinnevaart","m2u0nwi3","TBD","YES","I_8340_8",NA,NA,"Scheers","Lotisch",NA,"West-Vlaanderen","Damme",8340,1,2230,NA,"VMM",NA,"d.slootmaekers@vmm.be",3.2831616,51.2782519,29,949,83,31006,"Damme","1982-12-29",1982001920,5125441,9036361608,"Damme"
"TRUE","TRUE",NA,NA,"zgzlztnm","TBD","YES","I_8340_11",NA,NA,NA,"Lotisch",NA,"West-Vlaanderen","Damme",8340,NA,NA,NA,NA,NA,NA,3.3950088,51.2430093,29,949,83,31006,"Damme","1982-12-29",1982001920,5125441,9036361608,"Damme"
"TRUE","TRUE",NA,"Broekgracht","njfjm2i0","TBD","YES","I_1800_1",NA,NA,"Scheers","Lotisch",NA,"Vlaams-Brabant","Vilvoorde",1800,2,6873,NA,"Vlaams-Brabant",NA,"ingrid.beuls@vlaamsbrabant.be",4.4610634,50.953136,39,954,313,23088,"Vilvoorde","1998-04-24",1998000040,329759,2157364058,"Vilvoorde"
"TRUE","TRUE","zijbeek Hamonterbeek, Hamont, Lozerweg 100, via hoofdingang Lo kasteel De L'Escaille, opw onverharde weg","Lobeek","mdflzwm0",NA,"YES","I_3930_1",NA,NA,"VMM_Mtp","Lotisch",NA,"Limburg","Hamont-Achel",3930,2,10201,NA,"Limburg",NA,"christel.bouchet@limburg.be",5.5574111,51.2091835,53,958,4,72037,"Hamont-Achel","1976-01-23",1975123003,3199003,4373005549,"Hamont-Achel"
"TRUE","TRUE","Hamont, Kluizerdijk, voor Achelse Kluis, 20m opw brug","Warmbeek","mdflzwm0",NA,"YES","I_3930_2",NA,NA,"VMM_Mtp","Lotisch",NA,"Limburg","Hamont-Achel",3930,1,9508,NA,"VMM",NA,"d.slootmaekers@vmm.be",5.4876442,51.2955648,53,958,4,72037,"Hamont-Achel","1976-01-23",1975123003,3199003,4373005549,"Hamont-Achel"
"TRUE","TRUE","Achel, Koebroekerweg, einde traj 80m afw brug, begin traj aan gewone es op RO","Warmbeek","mdflzwm0",NA,"YES","I_3930_3",NA,NA,"VMM_Mtp","Lotisch",NA,"Limburg","Hamont-Achel",3930,1,9508,NA,"VMM",NA,"d.slootmaekers@vmm.be",5.4958017,51.2687854,53,958,4,72037,"Hamont-Achel","1976-01-23",1975123003,3199003,4373005549,"Hamont-Achel"
"TRUE","TRUE","Aldeneik, Herenlaakweg, aan rotonde linker fietsweg, 1ste pad links naar beneden","Bosbeek","n2jjztbi ","TBD","YES","I_3680_1",NA,NA,"VMM_Mtp","Lotisch",NA,"Limburg","Maaseik",3680,1,10004,NA,"VMM",NA,"d.slootmaekers@vmm.be",5.809133,51.1040778,61,961,20,72021,"Maaseik","1982-07-17",1982001074,6098599,7718416843,"Maaseik"
"TRUE","TRUE",NA,"Herenlaak","n2jjztbi ","TBD","YES","I_3680_8",NA,NA,"Scheers","Lentisch",NA,"Limburg","Maaseik",3680,NA,NA,NA,NA,NA,NA,5.8069542,51.0978871,61,961,20,72021,"Maaseik","1982-07-17",1982001074,6098599,7718416843,"Maaseik"
"TRUE","TRUE","De Moeren, Chemin des limites, opw pompstation","Ringsloot","yzk3mme3","TBD","YES","I_8630_1",NA,NA,"VMM_Mtp","Lotisch",NA,"West-Vlaanderen","Veurne",8630,2,14983,NA,"Westkustpolder","058/314653","info@westkustpolder.be",2.5726848,51.0129774,75,966,161,38025,"Veurne","1976-01-23",1975123003,5710422,9720876481,"Veurne"
"TRUE","TRUE",NA,"Steengracht","zjdlogvk","TBD","YES","I_8630_2",NA,NA,"VMM_Mtp","Lotisch",NA,"West-Vlaanderen","Veurne",8630,2,1233,NA,"Westkustpolder","058/314653","info@westkustpolder.be",2.6608846,51.0431433,75,966,161,38025,"Veurne","1976-01-23",1975123003,5710422,9720876481,"Veurne"
"TRUE","TRUE",NA,"Steengracht","yzk3mme3","TBD","YES","I_8630_3",NA,NA,"VMM_Mtp","Lotisch",NA,"West-Vlaanderen","Veurne",8630,2,1233,NA,"Westkustpolder","058/314653","info@westkustpolder.be",2.6790698,51.0340455,75,966,161,38025,"Veurne","1976-01-23",1975123003,5710422,9720876481,"Veurne"
"TRUE","TRUE","Bulskamp, Moerhoek, Ringslotstraat",NA,"zjdlogvk","TBD","YES","I_8630_5",NA,NA,"VMM_Mtp","Lotisch",NA,"West-Vlaanderen","Veurne",8630,2,1295,NA,"Westkustpolder","058/314653","info@westkustpolder.be",2.6279905,51.0421043,75,966,161,38025,"Veurne","1976-01-23",1975123003,5710422,9720876481,"Veurne"
"TRUE","TRUE",NA,"Speievaart","zwyymtqz","TBD","YES","I_8630_7",NA,NA,NA,"Lotisch",NA,"West-Vlaanderen","Veurne",8630,2,0,NA,"Westkustpolder","058/314653","info@westkustpolder.be",2.6303675,51.0656525,75,966,161,38025,"Veurne","1976-01-23",1975123003,5710422,9720876481,"Veurne"
"TRUE","TRUE",NA,"Bergenvaart","njhknmu0","TBD","YES","I_8630_8",NA,NA,NA,"Lotisch",NA,"West-Vlaanderen","Veurne",8630,0,0,NA,NA,NA,NA,2.6482963,51.0615585,75,966,161,38025,"Veurne","1976-01-23",1975123003,5710422,9720876481,"Veurne"
"TRUE","TRUE",NA,"Lovaart","njhknmu0","TBD","YES","I_8630_9",NA,NA,NA,"Lotisch",NA,"West-Vlaanderen","Veurne",8630,0,0,NA,NA,NA,NA,2.6803944,51.0535273,75,966,161,38025,"Veurne","1976-01-23",1975123003,5710422,9720876481,"Veurne"
"TRUE","TRUE",NA,"Bergenvaart","yzk3mme3","TBD","YES","I_8630_11",NA,NA,NA,"Lotisch",NA,"West-Vlaanderen","Veurne",8630,0,0,NA,NA,NA,NA,2.618034,51.0225862,75,966,161,38025,"Veurne","1976-01-23",1975123003,5710422,9720876481,"Veurne"
"TRUE","TRUE",NA,NA,"zwyymtqz","TBD","YES","I_8630_14",NA,NA,NA,NA,NA,"West-Vlaanderen","Veurne",8630,NA,NA,NA,NA,NA,NA,2.664205,51.080795,75,966,161,38025,"Veurne","1976-01-23",1975123003,5710422,9720876481,"Veurne"
"TRUE","TRUE","Ophoven, aan kruising met Dalerstr, opw brug","Abeek","n2jjztbi ","TBD","YES","I_3640_1",NA,NA,"VMM_Mtp","Lotisch",NA,"Limburg","Kinrooi",3640,1,9505,NA,"VMM",NA,"d.slootmaekers@vmm.be",5.811887,51.125738,98,977,12,72018,"Kinrooi","1971-04-21",1971040901,4588423,5480378906,"Kinrooi"
"TRUE","TRUE",NA,"Abeek","yzmyntdl","TBD","YES","I_3640_8",NA,NA,NA,"Lotisch",NA,"Limburg","Kinrooi",3640,1,0,NA,"VMM",NA,"d.slootmaekers@vmm.be",5.7711533,51.133146,98,977,12,72018,"Kinrooi","1971-04-21",1971040901,4588423,5480378906,"Kinrooi"
"TRUE","TRUE","Hoegaarden, Stationstr, opw brug","Grote Gete","nzyyotg1","TBD","YES","I_3320_1",NA,NA,"VMM_Mtp","Lotisch",NA,"Vlaams-Brabant","Hoegaarden",3320,1,7153,NA,"VMM",NA,"d.slootmaekers@vmm.be",4.9000942,50.7759463,129,986,296,24041,"Hoegaarden","1976-01-23",1975123003,3873957,3412818322,"Hoegaarden"
"TRUE","TRUE","Maasmechelen, begin MF-traject 10m opw brug aan MP 139700","Kikbeek","n2jjztbi","TBD","YES","I_3630_1",NA,NA,"VMM_Mtp","Lotisch",NA,"Limburg","Maasmechelen",3630,2,9986,NA,"Limburg",NA,"christel.bouchet@limburg.be",5.7175686,50.9620957,136,989,31,73107,"Maasmechelen","1982-07-17",1982001074,556744,7684995908,"Maasmechelen"
"TRUE","TRUE",NA,"Vroegere scheepswerf Sint-Barbara","n2jjztbi","TBD","YES","I_3630_6",NA,NA,"Scheers","Lentisch",NA,"Limburg","Maasmechelen",3630,NA,NA,NA,NA,NA,NA,5.7057091,50.9845499,136,989,31,73107,"Maasmechelen","1982-07-17",1982001074,556744,7684995908,"Maasmechelen"
"TRUE","TRUE","Spiere,Oudenaardseweg","Zwarte Spiere","oti1mjew","TBD","YES","I_8587_2",NA,NA,"VMM_Mtp","Lotisch",NA,"West-Vlaanderen","Spiere-Helkijn",8587,1,5523,NA,"VMM",NA,"d.slootmaekers@vmm.be",3.3576975,50.7163939,171,995,58,34043,"Spiere-Helkijn","1976-01-23",1975123003,2005653,108152365,"Spiere-Helkijn"
"TRUE","TRUE","Spiere,Pijpestraat,opw kasteelhoeve,opw weg","Grote Spiere","oti1mjew","TBD","YES","I_8587_4",NA,NA,"VMM_Mtp","Lotisch",NA,"West-Vlaanderen","Spiere-Helkijn",8587,1,5039,NA,"VMM",NA,"d.slootmaekers@vmm.be",3.3465322,50.7280484,171,995,58,34043,"Spiere-Helkijn","1976-01-23",1975123003,2005653,108152365,"Spiere-Helkijn"
"TRUE","TRUE","Torrezeel,veldweg,afw","Beverbeek","mjkyzjq3","TBD","YES","I_1547_1",NA,NA,"VMM_Mtp","Lotisch",NA,"Vlaams-Brabant","Bever",1547,2,6347,NA,"Vlaams-Brabant",NA,"ingrid.beuls@vlaamsbrabant.be",3.9465587,50.707375,223,1015,60,23009,"Bever","1962-11-22",1962110803,2365542,1923623559,"Bever"
"TRUE","TRUE",NA,"Berkenbeek","ywyxmtey","TBD","YES","I_2990_10","bij voorkeur tussen 20/07 - 01/09",NA,"Scheers","Lotisch",NA,"Antwerpen","Wuustwezel",2990,2,9773,NA,"Antwerpen",NA,"hans.vanloy@provincieantwerpen.be",4.5432147,51.417124,234,1018,65,11053,"Wuustwezel","1982-12-29",1982001920,4456515,8941233479,"Wuustwezel"
"TRUE","TRUE","Oude Schelde Coupure Outrijve","Oude Schelde","nguxytjj","TBD","YES","I_8582_1","metershoge netels",NA,"EcoWat","Lotisch",NA,"West-Vlaanderen","Avelgem",8582,2,5258,NA,"West-Vlaanderen",NA,NA,3.4427363,50.760091,241,1021,294,34003,"Avelgem","1976-01-23",1975123003,3604674,2211884931,"Avelgem"
"TRUE","TRUE","Brecht; Overbroek; Overbroekstraat; 20m opw brug mtp 68000","Kleine Aa of Weerijsbeek","mdq4mmy1","TBD","YES","I_2960_3","bij voorkeur tussen 20/07 - 01/09",NA,"VMM_Mtp","Lotisch",NA,"Antwerpen","Brecht",2960,2,9503,NA,"Antwerpen",NA,"hans.vanloy@provincieantwerpen.be",4.614661,51.3482097,178,998,70,11009,"Brecht","1976-01-23",1975123003,4574824,9146587638,"Brecht"
"TRUE","TRUE",NA,"Grindplas Bichterweert","ngrkywmz","TBD","YES","I_3650_11","afstemmen met Jemp Peeters",NA,"Scheers","Lentisch",NA,"Limburg","Dilsen-Stokkem",3650,NA,NA,NA,NA,NA,NA,5.7698427,51.0559572,180,999,23,72041,"Dilsen-Stokkem","1971-04-21",1971040901,4826917,6588518623,"Dilsen-Stokkem"
"TRUE","TRUE","Herfelingen, Mollestr, 50 m van bord ""bebouwde kom"", opw weg + zijgrachtjes","Rasbeek","mjkyzjq3","TBD","YES","I_1540_1",NA,NA,"VMM_Mtp","Lotisch",NA,"Vlaams-Brabant","Herne",1540,9,6571,NA,NA,NA,NA,4.1030811,50.7461156,184,1001,57,23032,"Herne","1976-01-23",1975123003,3715243,4466259023,"Herne"
"TRUE","TRUE","Herfelingen,Raseveldstraat,opw monding in Waterblokbeek","Waterblokbeek","mjkyzjq3","TBD","YES","I_1540_2",NA,NA,"VMM_Mtp","Lotisch",NA,"Vlaams-Brabant","Herne",1540,2,6404,NA,"Vlaams-Brabant",NA,"ingrid.beuls@vlaamsbrabant.be",4.0576583,50.7520451,184,1001,57,23032,"Herne","1976-01-23",1975123003,3715243,4466259023,"Herne"
"TRUE","TRUE","St Pieters Kapelle, Roosbroekstraat, einde veldweg, achterzijde boerderij, 100m afwaarts 536000","Mark","mjkyzjq3","TBD","YES","I_1541_2",NA,NA,"VMM_Mtp","Lotisch",NA,"Vlaams-Brabant","Herne",1541,1,5952,NA,"VMM",NA,"d.slootmaekers@vmm.be",4.0144358,50.6993496,184,1001,57,23032,"Herne","1976-01-23",1975123003,3715243,4466259023,"Herne"
"TRUE","TRUE","Industrie Noord, Zandvoortstr, naast containerpark afw weg","Vrouwvliet","yjdjywix","TBD","YES","I_2800_1",NA,NA,"VMM_Mtp","Lotisch",NA,"Antwerpen","Mechelen",2800,1,6553,NA,"VMM",NA,"d.slootmaekers@vmm.be",4.4519654,51.0484016,188,1002,174,12025,"Mechelen","1982-12-29",1982001920,5515075,6578819311,"Mechelen"
"TRUE","TRUE","Muizen, Stwg Leuven-Mechelen, langs domein Planckendael, opw weg, to kapsalon ZEN","Barebeek","mmmyngrm","TBD","YES","I_2812_1",NA,NA,"VMM_Mtp","Lotisch",NA,"Antwerpen","Mechelen",2812,1,6560,NA,"VMM",NA,"d.slootmaekers@vmm.be",4.5187625,51.0044234,188,1002,174,12025,"Mechelen","1982-12-29",1982001920,5515075,6578819311,"Mechelen"
"TRUE","TRUE","Kleine vijver van Horst","Kleine Vijver","yjdjywix","TBD","YES","I_2800_3",NA,NA,"EcoWater","Lentisch",NA,"Antwerpen","Mechelen",2800,NA,NA,NA,"Heyens Veerle",NA,"recreatie.ant.anb@vlaanderen.be",4.4511176,51.0666831,188,1002,174,12025,"Mechelen","1982-12-29",1982001920,5515075,6578819311,"Mechelen"
"TRUE","TRUE",NA,"Broekloop","ywyxmtey","TBD","YES","I_2920_7","bij voorkeur tussen 20/07 - 01/09",NA,"Scheers","Lotisch",NA,"Antwerpen","Kalmthout",2920,2,9845,NA,"Antwerpen",NA,"hans.vanloy@provincieantwerpen.be",4.5316957,51.4240464,191,1004,64,11022,"Kalmthout","1982-12-29",1982001920,4399024,5941009754,"Kalmthout"
"TRUE","TRUE","prive, visvijver, medewerking eigenaar?",NA,"ywyxmtey","TBD","YES","I_2920_8",NA,NA,"Scheers","Lentisch",NA,"Antwerpen","Kalmthout",2920,NA,NA,NA,NA,NA,NA,4.5271094,51.4223627,191,1004,64,11022,"Kalmthout","1982-12-29",1982001920,4399024,5941009754,"Kalmthout"
"TRUE","TRUE","gestreepte Amerikaanse rivierkreeft aanwezig (sinds 2015?)",NA,"ywyxmtey","TBD","YES","I_2920_9",NA,NA,"Scheers","Lentisch",NA,"Antwerpen","Kalmthout",2920,NA,NA,NA,NA,NA,NA,4.5248433,51.428769,191,1004,64,11022,"Kalmthout","1982-12-29",1982001920,4399024,5941009754,"Kalmthout"
"TRUE","TRUE","Rokalseidestraat, voor mnd in Schipdonkk.","Ede","mwyxzjc2","TBD","YES","I_9990_1",NA,NA,"VMM_Mtp","Lotisch",NA,"Oost-Vlaanderen","Maldegem",9990,2,620,NA,"Polder van Maldegem","0473/350437","info@poldervanmaldegem.be",3.4417055,51.2339883,248,1023,93,43010,"Maldegem","1982-12-29",1982001920,5296586,9562698665,"Maldegem"
"TRUE","TRUE","Moerhuizestraat","Noordbroekwatergang","mwyxzjc2","TBD","YES","I_9990_2",NA,NA,"VMM_Mtp","Lotisch",NA,"Oost-Vlaanderen","Maldegem",9990,2,2143,NA,"Polder van Maldegem","0473/350437","info@poldervanmaldegem.be",3.4422566,51.2339686,248,1023,93,43010,"Maldegem","1982-12-29",1982001920,5296586,9562698665,"Maldegem"
"TRUE","TRUE","Koningin Astridlaan, spoorweg","Ede","zgzlztnm","TBD","YES","I_9990_3",NA,NA,"VMM_Mtp","Lotisch",NA,"Oost-Vlaanderen","Maldegem",9990,2,620,NA,"Oost-Vlaanderen",NA,"waterbeleid@oost-vlaanderen.be",3.4438141,51.2074162,248,1023,93,43010,"Maldegem","1982-12-29",1982001920,5296586,9562698665,"Maldegem"
"TRUE","TRUE","Kleine Burkel, Goebilkstraat - zijweg","Leegakkerbeek","zgzlztnm","TBD","YES","I_9990_5",NA,NA,"VMM_Mtp","Lotisch",NA,"Oost-Vlaanderen","Maldegem",9990,2,874,NA,"Oost-Vlaanderen",NA,"waterbeleid@oost-vlaanderen.be",3.4076922,51.1744313,248,1023,93,43010,"Maldegem","1982-12-29",1982001920,5296586,9562698665,"Maldegem"
"TRUE","TRUE","Adegem, Akker","Watergang van de grote leegte","owu3yjdl","TBD","YES","I_9991_1","kleine gracht, amper bemonsterbaar",NA,"VMM_Mtp","Lotisch",NA,"Oost-Vlaanderen","Maldegem",9991,2,79,NA,"Oost-Vlaanderen",NA,"waterbeleid@oost-vlaanderen.be",3.5327697,51.1748654,248,1023,93,43010,"Maldegem","1982-12-29",1982001920,5296586,9562698665,"Maldegem"
"TRUE","TRUE",NA,NA,"owu3yjdl","TBD","YES","I_9991_3",NA,NA,NA,NA,NA,"Oost-Vlaanderen","Maldegem",9991,NA,NA,NA,NA,NA,NA,3.5264608,51.1920773,248,1023,93,43010,"Maldegem","1982-12-29",1982001920,5296586,9562698665,"Maldegem"
"TRUE","TRUE","Overijse, Fr. Verbeekstr, opw brugje thv huisnr 124","Ijse","owm3nzbk","TBD","YES","I_3090_1",NA,NA,"VMM_Mtp","Lotisch",NA,"Vlaams-Brabant","Overijse",3090,2,6556,NA,"Vlaams-Brabant",NA,"ingrid.beuls@vlaamsbrabant.be",4.5096449,50.7688133,266,1027,299,23062,"Overijse","1982-12-29",1982001920,5275713,4498824842,"Overijse"
"TRUE","TRUE","Overijse","Grote Mariavijver","owm3nzbk","TBD","YES","I_3090_7",NA,NA,"Scheers","Lentisch",NA,"Vlaams-Brabant","Overijse",3090,NA,NA,NA,NA,NA,NA,4.5388971,50.7708377,266,1027,299,23062,"Overijse","1982-12-29",1982001920,5275713,4498824842,"Overijse"
"TRUE","TRUE",NA,"Ijsebroeken","owm3nzbk","TBD","YES","I_3090_8",NA,NA,"Scheers","Lentisch",NA,"Vlaams-Brabant","Overijse",3090,NA,NA,NA,NA,NA,NA,4.5545423,50.7793222,266,1027,299,23062,"Overijse","1982-12-29",1982001920,5275713,4498824842,"Overijse"
"TRUE","TRUE",NA,"IJzer","mjc1zjc1 ","TBD","YES","I_8691_5",NA,NA,NA,"Lotisch",NA,"West-Vlaanderen","Alveringem",8691,NA,NA,NA,NA,NA,NA,2.6783356,50.9452887,269,1029,182,38002,"Alveringem","1976-01-23",1975123003,6490182,8070918883,"Alveringem"
"TRUE","TRUE","Zijbeek, Tangebeek, Eppegem, Dorentstraat, afw weg, opw houten dam","Beek","njfjm2i0","TBD","YES","I_1980_2",NA,NA,"VMM_Mtp","Lotisch",NA,"Vlaams-Brabant","Zemst",1980,2,6996,NA,"Heyens Veerle",NA,"recreatie.vbr.anb@vlaanderen.be",4.4420612,50.9535553,270,1030,310,23096,"Zemst","1998-04-24",1998000040,4572609,4322926564,"Zemst"
"TRUE","TRUE","Hofstade, onverharde zijweg v Bordekensstr langs spoorwegbrug, afw brugje","Barebeek","mmmyngrm","TBD","YES","I_1981_2",NA,NA,"VMM_Mtp","Lotisch",NA,"Vlaams-Brabant","Zemst",1981,1,6560,NA,"VMM",NA,"d.slootmaekers@vmm.be",4.4905038,50.9863328,270,1030,310,23096,"Zemst","1998-04-24",1998000040,4572609,4322926564,"Zemst"
"TRUE","TRUE",NA,"Watering der Barebeek","ymjlzthm","TBD","YES","I_1982_5",NA,NA,"Scheers","Lotisch",NA,"Vlaams-Brabant","Zemst",1982,2,16593,NA,"Vlaams-Brabant",NA,"ingrid.beuls@vlaamsbrabant.be",4.4781625,50.9609651,270,1030,310,23096,"Zemst","1998-04-24",1998000040,4572609,4322926564,"Zemst"
"TRUE","TRUE",NA,"Barebeek","ymjlzthm","TBD","YES","I_1982_7",NA,NA,"Scheers","Lotisch",NA,"Vlaams-Brabant","Zemst",1982,2,6560,NA,"Vlaams-Brabant",NA,"ingrid.beuls@vlaamsbrabant.be",4.4903475,50.9606829,270,1030,310,23096,"Zemst","1998-04-24",1998000040,4572609,4322926564,"Zemst"
"TRUE","TRUE","Zenne 1","Zenne","ymjlzthm","TBD","YES","I_1980_3",NA,NA,"EcoWat","Lotisch",NA,"Vlaams-Brabant","Zemst",1980,0,6552,NA,NA,NA,NA,4.4707173,50.9655389,270,1030,310,23096,"Zemst","1998-04-24",1998000040,4572609,4322926564,"Zemst"
"TRUE","TRUE","recreation area, toestemming vragen bij Sport Vlaanderen, P. clarkii & F. limosus",NA,"odcxnmmx",NA,"YES","I_1981_3",NA,NA,"Scheers","Lentisch",NA,"Vlaams-Brabant","Zemst",1981,NA,NA,NA,NA,NA,NA,4.505414,50.9876254,270,1030,310,23096,"Zemst","1998-04-24",1998000040,4572609,4322926564,"Zemst"
"TRUE","TRUE","Vlamertinge","Kemmelbeek","m2jmywjk","TBD","YES","I_8908_1",NA,NA,"VMM_Mtp","Lotisch",NA,"West-Vlaanderen","Ieper",8908,2,1204,NA,"West-Vlaanderen",NA,NA,2.8165985,50.8493583,272,1031,239,33011,"Ieper","1982-12-29",1982001920,7403652,13145753208,"Ieper"
"TRUE","TRUE","Ieper","Kasteelgracht","m2jmywjk","TBD","YES","I_8900_5",NA,NA,"Scheers","Lentisch",NA,"West-Vlaanderen","Ieper",8900,1,NA,NA,"VMM",NA,"d.slootmaekers@vmm.be",2.8913607,50.843565,272,1031,239,33011,"Ieper","1982-12-29",1982001920,7403652,13145753208,"Ieper"
"TRUE","TRUE",NA,NA,"m2jmywjk","TBD","NO","V_8902_3","Aanvraag indienen en mail naar Tom Desodt",NA,NA,NA,NA,"West-Vlaanderen","Ieper",8902,NA,NA,NA,NA,NA,NA,2.9314844,50.8124192,272,1031,239,33011,"Ieper","1982-12-29",1982001920,7403652,13145753208,"Ieper"
"TRUE","TRUE","Kaulille, 5m opw brug en 102500","Warmbeek","mdflzwm0",NA,"YES","I_3950_6",NA,NA,"VMM_Mtp","Lotisch",NA,"Limburg","Bocholt",3950,2,9508,NA,"Limburg",NA,"christel.bouchet@limburg.be",5.4954027,51.1967998,293,1038,10,72003,"Bocholt","1982-07-17",1982001074,4224609,5928891846,"Bocholt"
"TRUE","TRUE","Kaulille; verlengde Molenstraat; einde traject 5m afw brug","Warmbeek","mdflzwm0",NA,"YES","I_3950_7","NIET GEBRUIKEN, net elektrisch afgevist",NA,"VMM_Mtp","Lotisch",NA,"Limburg","Bocholt",3950,2,9508,NA,"Limburg",NA,"christel.bouchet@limburg.be",5.5012483,51.1835538,293,1038,10,72003,"Bocholt","1982-07-17",1982001074,4224609,5928891846,"Bocholt"
"TRUE","TRUE",NA,NA,"yzk3mme3","TBD","YES","I_8660_1",NA,NA,NA,"Lotisch",NA,"West-Vlaanderen","De Panne",8660,NA,NA,NA,NA,NA,NA,2.5675574,51.0711046,303,1041,152,38008,"De Panne","1976-01-23",1975123003,2409396,2662822666,"De Panne"
"TRUE","TRUE",NA,"Seinemolenvaart","yzk3mme3","TBD","YES","I_8630_15",NA,NA,NA,NA,NA,"West-Vlaanderen",NA,8630,NA,NA,NA,NA,NA,NA,2.581487,51.0361849,NA,NA,NA,NA,NA,NA,NA,NA,NA,NA
"TRUE","TRUE",NA,"Ringsloot","yzk3mme3","TBD","YES","I_8630_16",NA,NA,NA,NA,NA,"West-Vlaanderen",NA,8630,NA,NA,NA,NA,NA,NA,2.6039507,51.0568907,NA,NA,NA,NA,NA,NA,NA,NA,NA,NA
"TRUE","TRUE",NA,"Zwalmbeek","ytrlzjy0","1/5/25","YES","I_9700_18",NA,NA,NA,NA,NA,"Oost-Vlaanderen",NA,9700,NA,NA,NA,NA,NA,NA,3.6773243,50.888798,NA,NA,NA,NA,NA,NA,NA,NA,NA,NA
"TRUE","TRUE",NA,NA,"nguxytjj","TBD","YES","I_8552_2",NA,NA,NA,NA,NA,"West-Vlaanderen",NA,8552,NA,NA,NA,NA,NA,NA,3.3788003,50.7791727,NA,NA,NA,NA,NA,NA,NA,NA,NA,NA
"TRUE","TRUE",NA,"Grote Nete","ztyxmjnj","TBD","YES","I_2440_1",NA,NA,NA,NA,NA,"Antwerpen",NA,2440,NA,NA,NA,NA,NA,NA,4.9847864,51.1032353,NA,NA,NA,NA,NA,NA,NA,NA,NA,NA
"TRUE","TRUE",NA,"Gemeentelijke Visvijver","nzzlmmvm","TBD","YES","I_3665_1",NA,NA,NA,NA,NA,"Limburg",NA,3665,NA,NA,NA,NA,NA,NA,5.5768903,51.0202376,NA,NA,NA,NA,NA,NA,NA,NA,NA,NA
"TRUE","TRUE",NA,"Grote Nete","ztyxmjnj","TBD","YES","I_2450_1",NA,NA,NA,NA,NA,"Antwerpen",NA,2450,NA,NA,NA,NA,NA,NA,5.0916118,51.13643,NA,NA,NA,NA,NA,NA,NA,NA,NA,NA
"TRUE","TRUE",NA,"Schipdonkkanaal","ytbmntfk","TBD","YES","I_9930_1",NA,NA,NA,NA,NA,"Oost-Vlaanderen",NA,9930,NA,NA,NA,NA,NA,NA,3.5697321,51.0609579,NA,NA,NA,NA,NA,NA,NA,NA,NA,NA
"TRUE","TRUE",NA,"Maas","ngrkywmz","TBD","YES","I_3650_16",NA,NA,NA,NA,NA,"Limburg",NA,3650,NA,NA,NA,NA,NA,NA,5.7729366,51.0622554,NA,NA,NA,NA,NA,NA,NA,NA,NA,NA
"TRUE","TRUE",NA,NA,"yjm4mmm2","TBD","YES","I_9190_1",NA,NA,NA,NA,NA,"Oost-Vlaanderen",NA,9190,NA,NA,NA,NA,NA,NA,4.0527382,51.2007713,NA,NA,NA,NA,NA,NA,NA,NA,NA,NA
"TRUE","TRUE",NA,"Kanaal van Stekene","yjm4mmm2","TBD","YES","I_9190_2",NA,NA,NA,NA,NA,"Oost-Vlaanderen",NA,9190,NA,NA,NA,NA,NA,NA,4.0575324,51.2308292,NA,NA,NA,NA,NA,NA,NA,NA,NA,NA
"TRUE","TRUE",NA,"Sint-Trudoledeken","mdjjotdj","TBD","YES","I_8310_1",NA,NA,NA,NA,NA,"West-Vlaanderen",NA,8310,NA,NA,NA,NA,NA,NA,3.25214,51.18385,NA,NA,NA,NA,NA,NA,NA,NA,NA,NA
"TRUE","TRUE",NA,"Zuunbeek","ndvhowez","TBD","YES","I_1600_1",NA,NA,NA,NA,NA,"Vlaams-Brabant",NA,1600,NA,NA,NA,NA,NA,NA,4.21213,50.77818,NA,NA,NA,NA,NA,NA,NA,NA,NA,NA
"TRUE","TRUE",NA,"Kromme Vijver","ndvhowez","TBD","YES","I_1750_1",NA,NA,NA,NA,NA,"Vlaams-Brabant",NA,1750,NA,NA,NA,"Heyens Veerle",NA,"recreatie.vbr.anb@vlaanderen.be",4.19683,50.79551,NA,NA,NA,NA,NA,NA,NA,NA,NA,NA
"TRUE","TRUE",NA,"Molenbeek","ndvhowez","TBD","YES","I_1701_1",NA,NA,NA,NA,NA,"Vlaams-Brabant",NA,1701,NA,NA,NA,NA,NA,NA,4.22646,50.82973,NA,NA,NA,NA,NA,NA,NA,NA,NA,NA
"TRUE","TRUE",NA,"Echelbeek","mtmzmge1","TBD","YES","I_3530_4",NA,NA,NA,NA,NA,"Limburg",NA,3530,NA,NA,NA,NA,NA,NA,5.3564118,51.0387988,NA,NA,NA,NA,NA,NA,NA,NA,NA,NA
"TRUE","TRUE",NA,"Roosterbeek","zjiyngyx","TBD","YES","I_3520_1",NA,NA,NA,NA,NA,"Limburg",NA,3520,NA,NA,NA,NA,NA,NA,5.3872974,50.991651,NA,NA,NA,NA,NA,NA,NA,NA,NA,NA
"TRUE","TRUE",NA,"Vogelzangbeek","y2ewymrj","TBD","YES","I_1600_2",NA,NA,NA,NA,NA,"Vlaams-Brabant",NA,1600,NA,NA,NA,NA,NA,NA,4.29266,50.80864,NA,NA,NA,NA,NA,NA,NA,NA,NA,NA
"TRUE","TRUE",NA,"Kreek van Nieuwendamme","mjm4ndiy","TBD","YES","I_8433_1",NA,NA,NA,NA,NA,"West-Vlaanderen",NA,8433,NA,NA,NA,NA,NA,NA,2.796742,51.145493,NA,NA,NA,NA,NA,NA,NA,NA,NA,NA
"TRUE","TRUE",NA,NA,"ywm4njlk","TBD","YES","I_8830_1",NA,NA,NA,NA,NA,"West-Vlaanderen",NA,8830,NA,NA,NA,NA,NA,NA,3.0645691,50.9858551,NA,NA,NA,NA,NA,NA,NA,NA,NA,NA
"TRUE","TRUE","melding via Johan Auwerx dat hier veel kreeften zouden zitten",NA,"owm3nzbk","TBD","YES","I_3040_13",NA,NA,NA,NA,NA,"Vlaams-Brabant",NA,3040,NA,NA,NA,NA,NA,NA,4.6305187,50.8055279,NA,NA,NA,NA,NA,NA,NA,NA,NA,NA
"TRUE","TRUE",NA,NA,"zjdlogvk","TBD","NO","V_8630_17",NA,NA,NA,NA,NA,"West-Vlaanderen",NA,8630,NA,NA,NA,NA,NA,NA,2.67575,51.015806,NA,NA,NA,NA,NA,NA,NA,NA,NA,NA
"TRUE","TRUE",NA,NA,"njfjm2i0",NA,"YES","I_1980_9",NA,NA,NA,NA,NA,"Vlaams-Brabant",NA,1980,NA,NA,NA,NA,NA,NA,4.455003,50.9530568,NA,NA,NA,NA,NA,NA,NA,NA,NA,NA
"TRUE","TRUE",NA,"Maatbeek","nwmzmtg3",NA,"YES","I_9960_1",NA,NA,NA,NA,NA,"Oost-Vlaanderen",NA,9960,NA,NA,NA,NA,NA,NA,3.73395,51.21716,NA,NA,NA,NA,NA,NA,NA,NA,NA,NA
"TRUE","TRUE",NA,NA,"nwmzmtg3",NA,"YES","I_9968_1",NA,NA,NA,NA,NA,"Oost-Vlaanderen",NA,9968,NA,NA,NA,NA,NA,NA,3.70594,51.21781,NA,NA,NA,NA,NA,NA,NA,NA,NA,NA
"TRUE","TRUE",NA,"Isabellawatering","nwmzmtg3",NA,"YES","I_9961_1",NA,NA,NA,NA,NA,"Oost-Vlaanderen",NA,9961,NA,NA,NA,NA,NA,NA,3.7022,51.24924,NA,NA,NA,NA,NA,NA,NA,NA,NA,NA
"TRUE","TRUE",NA,"Watering De Herk","mdy2ngvi","TBD","YES","I_3512_1",NA,NA,NA,NA,NA,"Limburg",NA,3512,NA,NA,NA,NA,NA,NA,5.2421134,50.9197078,NA,NA,NA,NA,NA,NA,NA,NA,NA,NA
"TRUE","TRUE",NA,NA,"mdflzwm0",NA,"NO","V_3920_1",NA,NA,NA,NA,NA,"Limburg",NA,3920,NA,NA,NA,NA,NA,NA,5.386785,51.238427,NA,NA,NA,NA,NA,NA,NA,NA,NA,NA
"TRUE","TRUE",NA,"Sloot Groeneweg","mdflzwm0",NA,"NO","V_3910_1",NA,NA,NA,NA,NA,"Limburg",NA,3910,NA,NA,NA,NA,NA,NA,5.465145,51.231474,NA,NA,NA,NA,NA,NA,NA,NA,NA,NA
"TRUE","TRUE",NA,NA,"mdflzwm0",NA,"NO","V_3920_2",NA,NA,NA,NA,NA,"Limburg",NA,3920,NA,NA,NA,NA,NA,NA,5.386569,51.238453,NA,NA,NA,NA,NA,NA,NA,NA,NA,NA
"TRUE","TRUE",NA,"Watering de Burggravenstroom","owu3yjdl",NA,"NO","V_9940_1",NA,NA,NA,NA,NA,"Oost-Vlaanderen",NA,9940,NA,NA,NA,NA,NA,NA,3.6979296,51.1511301,NA,NA,NA,NA,NA,NA,NA,NA,NA,NA
"TRUE","TRUE",NA,"Watering de Burggravenstroom","owu3yjdl",NA,"NO","V_9940_2",NA,NA,NA,NA,NA,"Oost-Vlaanderen",NA,9940,NA,NA,NA,NA,NA,NA,3.6984454,51.1501778,NA,NA,NA,NA,NA,NA,NA,NA,NA,NA
