"isReserved","updateRes","OMSCHR","NAAM","vrijwillID","startDate","SugbyINBO","locID","restricties","Sampler","dataset","SystemType","GEBIED","provincie","gemeente","postcode","CATC","VHAG","WVLC","Latitude","Longitude","Beheerder","Bhrtel","Bhremail"
TRUE,TRUE,"Lossing-Emissaire, Molenbeersel, Vlasbrei, Uffelseweg, grenspaal 145, opw brug","Lossing","ztnhyzk1","TBD","YES","I_3640_11",NA,NA,"VMM_Mtp","Lotisch",NA,"Limburg","Kinrooi",3640,1,9967,NA,51.1717186,5.7795737,"VMM",NA,"d.slootmaekers@vmm.be"
TRUE,TRUE,"'s Gravenwezel, Noorderlaan","Antitankkanaal","nmvkndjl",NA,"YES","I_2970_1",NA,NA,"VMM_Mtp","Lotisch",NA,"Antwerpen","Schilde",2970,1,17603,NA,51.2630475,4.5877525,"VMM",NA,"d.slootmaekers@vmm.be"
TRUE,TRUE,"Verrebroek; Bemalingsstation thv expressweg","Noordzuid Verbinding","y2uzntq0",NA,"YES","I_9130_1",NA,NA,"VMM_Mtp","Lotisch",NA,"Oost-Vlaanderen","Beveren",9130,1,3111,NA,51.252614,4.201021,"VMM",NA,"d.slootmaekers@vmm.be"
TRUE,TRUE,"Ruisbroek; einde Donkstr - Vlietdijk opw. brug thv pompstation","Grote Molenbeek","zwuxmwy1","09/07/2024","YES","I_2870_1",NA,NA,"VMM_Mtp","Lotisch",NA,"Antwerpen","Puurs-Sint-Amands",2870,1,6,NA,51.095037,4.3174525,"VMM",NA,"d.slootmaekers@vmm.be"
TRUE,TRUE,"Kobbegem; Sint-Goriksstraat, afw Torenhof","Grote Molenbeek","ownlnda3","TBD","YES","I_1730_1",NA,NA,"VMM_Mtp","Lotisch",NA,"Vlaams-Brabant","Asse",1730,2,6,NA,50.9065872,4.2510468,"Vlaams-Brabant",NA,"ingrid.beuls@vlaamsbrabant.be"
TRUE,TRUE,"Mansteen","Stambeek","ndzmm2ex","25/8/24","YES","I_1745_1",NA,NA,"VMM_Mtp","Lotisch",NA,"Vlaams-Brabant","Opwijk",1745,2,615,NA,50.960996,4.212466,"Vlaams-Brabant",NA,"ingrid.beuls@vlaamsbrabant.be"
TRUE,TRUE,"Ruisbroek, St. Katharinastr., afw Moerloop","Birrebeek","zwuxmwy1","09/07/2024","YES","I_2870_2",NA,NA,"VMM_Mtp","Lotisch",NA,"Antwerpen","Puurs-Sint-Amands",2870,1,3106,NA,51.0746396,4.338863,"VMM",NA,"d.slootmaekers@vmm.be"
TRUE,TRUE,"Mechelsesteenweg, opw brug en monding Babelse beek","Lachenebeek","zgi0mju3","09/24","YES","I_2500_1","bij voorkeur tussen 20/07 - 01/09",NA,"VMM_Mtp","Lotisch",NA,"Antwerpen","Lier",2500,2,8839,NA,51.1348,4.518105,"Antwerpen",NA,"hans.vanloy@provincieantwerpen.be"
TRUE,TRUE,"Ten Aard, grens Lichtaart (Bobbejaanland), opw. Lichtaartseweg/Olenstw.","Kleine Nete","owm5ndk2","10/8/2024","YES","I_2460_2",NA,NA,"VMM_Mtp","Lotisch",NA,"Antwerpen","Kasterlee",2460,1,8502,NA,51.1987613,4.9030521,"VMM",NA,"d.slootmaekers@vmm.be"
TRUE,TRUE,"Emblem; afw. Netekanaal","Molenbeek","mmmwzmrh","02/09/24","YES","I_2520_1",NA,NA,"VMM_Mtp","Lotisch",NA,"Antwerpen","Ranst",2520,1,8505,NA,51.1712784,4.6298545,"VMM",NA,"d.slootmaekers@vmm.be"
TRUE,TRUE,"St Corneliusstraat, opw brug","Laakbeek","otuwnjq5","21/07/24","YES","I_2340_1","bij voorkeur tussen 20/07 - 01/09",NA,"VMM_Mtp","Lotisch",NA,"Antwerpen","Beerse",2340,2,8572,NA,51.3128148,4.8376736,"Antwerpen",NA,"hans.vanloy@provincieantwerpen.be"
TRUE,TRUE,"Roest, zijweg Poederstr, opwaarts weg en baangrachten","De Wamp","zwy2zjg3","11/8/24","YES","I_2370_1","bij voorkeur tussen 20/07 - 01/09",NA,"VMM_Mtp","Lotisch",NA,"Antwerpen","Arendonk",2370,2,8508,NA,51.3343984,5.1183225,"Antwerpen",NA,"hans.vanloy@provincieantwerpen.be"
TRUE,TRUE,"Rooiveld, afw brug","Wimp","ztfhota2","2/9/24","YES","I_2260_1",NA,NA,"VMM_Mtp","Lotisch",NA,"Antwerpen","Westerlo",2260,1,8507,NA,51.1021604,4.8324878,"VMM",NA,"d.slootmaekers@vmm.be"
TRUE,TRUE,"Houtvenne, Linieweg, afw brugje","Steenkensbeek","yjbjnzi1","TBD","YES","I_2235_1","bij voorkeur tussen 20/07 - 01/09",NA,"VMM_Mtp","Lotisch",NA,"Antwerpen","Hulshout",2235,2,8518,NA,51.0619956,4.8023325,"Antwerpen",NA,"hans.vanloy@provincieantwerpen.be"
TRUE,TRUE,"Ginderbroek, Borgerhoutsendijk, opw brug","Molse Nete","ztu0mthk","08/07/2024","YES","I_2400_2",NA,NA,"VMM_Mtp","Lotisch",NA,"Antwerpen","Mol",2400,1,8506,NA,51.1790866,5.1125897,"VMM",NA,"d.slootmaekers@vmm.be"
TRUE,TRUE,"Lembeek, Heldenstr/Gasthuisstr, afw brug","Zenne","yjq4y2nh",NA,"YES","I_1502_1",NA,NA,"VMM_Mtp","Lotisch",NA,"Vlaams-Brabant","Halle",1502,1,6552,NA,50.7120313,4.2257134,"VMM",NA,"d.slootmaekers@vmm.be"
TRUE,TRUE,"Negenmanneken, Klein-Bijgaardenstr, afw weg en overstort","Zuunbeek","mziwognl","15/08/24","YES","I_1600_4",NA,NA,"VMM_Mtp","Lotisch",NA,"Vlaams-Brabant","Sint-Pieters-Leeuw",1600,1,6554,NA,50.7984079,4.2827493,"VMM",NA,"d.slootmaekers@vmm.be"
TRUE,TRUE,"Dworp/Essenbeek, Winkelaar/Kapittel, 5 m opw weg (voorbij zijgrachtje)","Steenputbeek","yjq4y2nh",NA,"YES","I_1653_1",NA,NA,"VMM_Mtp","Lotisch",NA,"Vlaams-Brabant","Beersel",1653,9,7068,NA,50.7268228,4.2879533,NA,NA,NA
TRUE,TRUE,"Boortmeerbeek, Molenbeekstr, afw weg","Weesbeek","ymuxmjez","TBD","YES","I_3190_1",NA,NA,"VMM_Mtp","Lotisch",NA,"Vlaams-Brabant","Boortmeerbeek",3190,2,6559,NA,50.9861762,4.5701582,"Vlaams-Brabant",NA,"ingrid.beuls@vlaamsbrabant.be"
TRUE,TRUE,"Godsheide, Kiezelstr, aan golfterrein vr verval, afw brug","Demer","mdcxmmmy","08/07/24","YES","I_3500_1",NA,NA,"VMM_Mtp","Lotisch",NA,"Limburg","Hasselt",3500,1,7151,NA,50.9296105,5.3774713,"VMM",NA,"d.slootmaekers@vmm.be"
TRUE,TRUE,"Testelt, verlengde Wijngaardstr, weg langs Demer, opw brug","De Hulpe","otyymtfh",NA,"YES","I_3271_1",NA,NA,"VMM_Mtp","Lotisch",NA,"Vlaams-Brabant","Scherpenheuvel-Zichem",3271,1,7360,NA,51.0071698,4.9664636,"VMM",NA,"d.slootmaekers@vmm.be"
TRUE,TRUE,"Stal West, zijweg Molendijk richting RWZI, juist voorbij de bocht, voor RWZI","Kleine Beek","mzc5yzc3","eind aug / begin sept","YES","I_3582_1",NA,NA,"VMM_Mtp","Lotisch",NA,"Limburg","Beringen",3582,2,7455,NA,51.0596175,5.2371641,"Limburg",NA,"christel.bouchet@limburg.be"
TRUE,TRUE,"Viversel, Zwembadstr, opw weg","Laambeek","zmvizjk1","5/8/24","YES","I_3550_2",NA,NA,"VMM_Mtp","Lotisch",NA,"Limburg","Heusden-Zolder",3550,2,7623,NA,50.9991189,5.2597765,"Limburg",NA,"christel.bouchet@limburg.be"
TRUE,TRUE,"Genk, Platte Weierstraat, opw weg","Stiemer","yzayn2iy","01/07/2024","YES","I_3600_1",NA,NA,"VMM_Mtp","Lotisch",NA,"Limburg","Genk",3600,2,8038,NA,50.9582301,5.4719828,"Limburg",NA,"christel.bouchet@limburg.be"
TRUE,TRUE,"Bilzen, Munsterbilzen, Zangerheistraat, 5 meter afw weg, opw zijgracht en verval","Munsterbeek","zji2zgyw",NA,"YES","I_3746_1",NA,NA,"VMM_Mtp","Lotisch",NA,"Limburg","Bilzen",3746,2,7642,NA,50.8932569,5.5486044,"Limburg",NA,"christel.bouchet@limburg.be"
TRUE,TRUE,"Klein-Antwerpenstraat,opw weg","Nijverseelbeek","ngnlmjhi",NA,"YES","I_9280_1",NA,NA,"VMM_Mtp","Lotisch",NA,"Oost-Vlaanderen","Lebbeke",9280,2,6438,NA,50.991649,4.1497334,"Oost-Vlaanderen",NA,"waterbeleid@oost-vlaanderen.be"
TRUE,TRUE,"Eksaarde,einde Reepstraat,veldweg","Zuidlede","njgyytiw","TBD","YES","I_9160_3",NA,NA,"VMM_Mtp","Lotisch",NA,"Oost-Vlaanderen","Lokeren",9160,1,26,NA,51.1372354,3.9701579,"VMM",NA,"d.slootmaekers@vmm.be"
TRUE,TRUE,"Affligemsestraat-Driesstraat,afw weg,thv handelszaak","Bellebeek","yjmznwm3","27/09/2024","YES","I_1770_1",NA,NA,"VMM_Mtp","Lotisch",NA,"Vlaams-Brabant","Liedekerke",1770,1,5956,NA,50.8854042,4.0965682,"VMM",NA,"d.slootmaekers@vmm.be"
TRUE,TRUE,"Steenvoordestraat,veldweg,afw Steenvoordemolen","Steenvoordbeek","yjmznwm3","27/09/2024","YES","I_1740_1",NA,NA,"VMM_Mtp","Lotisch",NA,"Vlaams-Brabant","Ternat",1740,1,6140,NA,50.8812453,4.1546679,"Heyens Veerle",NA,"recreatie.vbr.anb@vlaanderen.be"
TRUE,TRUE,"Meerbeke,Tenbergkets,veldweg,opw","Wolfputbeek","otgzymmz","11/08/24","YES","I_9402_1",NA,NA,"VMM_Mtp","Lotisch",NA,"Oost-Vlaanderen","Ninove",9402,2,6412,NA,50.8188441,4.0545905,"Oost-Vlaanderen",NA,"waterbeleid@oost-vlaanderen.be"
TRUE,TRUE,"Schendelbeke,Astridlaan,opw weg","Dammersbeek","yjqzngy4","08/24","YES","I_9506_2","TE ONDIEP!",NA,"VMM_Mtp","Lotisch",NA,"Oost-Vlaanderen","Geraardsbergen",9506,2,6196,NA,50.7897655,3.8817519,"Oost-Vlaanderen",NA,"waterbeleid@oost-vlaanderen.be"
TRUE,TRUE,"Sint-Amandsberg,Maalgaver","Lede","ytljnzlj","26/08/2024","YES","I_9070_1",NA,NA,"VMM_Mtp","Lotisch",NA,"Oost-Vlaanderen","Destelbergen",9070,1,3105,NA,51.0757468,3.8138212,"VMM",NA,"d.slootmaekers@vmm.be"
TRUE,TRUE,"Ramskapelle, Heistlaan, Heulebrug","Isabellavaart","ntvlndrm","26/08/24","YES","I_8301_1",NA,NA,"VMM_Mtp","Lotisch",NA,"West-Vlaanderen","Knokke-Heist",8301,1,2125,NA,51.3276998,3.237953,"VMM",NA,"d.slootmaekers@vmm.be"
TRUE,TRUE,"Sint-Denijsstraat, Kreupel, afw","Slijpbeek","zguxztnj","18/07/24","YES","I_8550_1","Waterstand te laag?",NA,"VMM_Mtp","Lotisch",NA,"West-Vlaanderen","Zwevegem",8550,2,18815,NA,50.7950431,3.340028,"West-Vlaanderen",NA,NA
TRUE,TRUE,"Loenhout; Vloeiweg, afw watermolenbrug","Kleine Aa of Weerijsbeek","zgjjotcy",NA,"YES","I_2990_1",NA,NA,"VMM_Mtp","Lotisch",NA,"Antwerpen","Wuustwezel",2990,1,9503,NA,51.4211058,4.6411677,"VMM",NA,"d.slootmaekers@vmm.be"
TRUE,TRUE,"Westende-Bad, Kousestraat","Ieperleed","odzkzdmz","18/08/24","YES","I_8430_1",NA,NA,"VMM_Mtp","Lotisch",NA,"West-Vlaanderen","Middelkerke",8430,2,1213,NA,51.1669848,2.8007589,"Middenkustpolder","059/278477","info@middenkustpolder.be"
TRUE,TRUE,"Nederbrakel, Heyveld, opw",NA,"nwyxntuy","15/07/2024","YES","I_9660_1",NA,NA,"VMM_Mtp","Lotisch",NA,"Oost-Vlaanderen","Brakel",9660,2,5224,NA,50.8116182,3.7803241,"Oost-Vlaanderen",NA,"waterbeleid@oost-vlaanderen.be"
TRUE,TRUE,"Nederbrakel,Roensveldstraat,veldweg,afwaarts","Verrebeek","nwyxntuy","15/07/2024","YES","I_9660_2",NA,NA,"VMM_Mtp","Lotisch",NA,"Oost-Vlaanderen","Brakel",9660,2,5025,NA,50.791781,3.7598643,"Oost-Vlaanderen",NA,"waterbeleid@oost-vlaanderen.be"
TRUE,TRUE,"Meer; Hoogstraat/Looi, BIO en FC afwaarts brug","Mark","zgjjotcy",NA,"YES","I_2321_1",NA,NA,"VMM_Mtp","Lotisch",NA,"Antwerpen","Hoogstraten",2321,1,9502,NA,51.4452341,4.7472234,"VMM",NA,"d.slootmaekers@vmm.be"
TRUE,TRUE,"IJsmolenstraat,opw weg","Molenbeek","mdyxywvm","TBD","YES","I_9600_3",NA,NA,"VMM_Mtp","Lotisch",NA,"Oost-Vlaanderen","Ronse",9600,2,5188,NA,50.7577098,3.6495391,"Oost-Vlaanderen",NA,"waterbeleid@oost-vlaanderen.be"
TRUE,TRUE,"opw. voetpadje na Vondelweg","Mark","njixzjg3","TBD","YES","I_2330_1","bij voorkeur tussen 20/07 - 01/09",NA,"VMM_Mtp","Lotisch",NA,"Antwerpen","Merksplas",2330,2,9502,NA,51.3673697,4.8755144,"Antwerpen",NA,"hans.vanloy@provincieantwerpen.be"
TRUE,TRUE,"Zondereigen; Ginhoven, Stw op Weelde, afw dreef","Noordermark","njixzjg3","25/09/24","YES","I_2387_3","bij voorkeur tussen 20/07 - 01/09",NA,"VMM_Mtp","Lotisch",NA,"Antwerpen","Baarle-Hertog",2387,2,9670,NA,51.3986486,4.8996106,"Antwerpen",NA,"hans.vanloy@provincieantwerpen.be"
TRUE,TRUE,"Abtsdreef, afw brug, afw Fort Stabroek","Antitankkanaal","nzi4mtm4","27/8/24","YES","I_2940_1",NA,NA,"VMM_Mtp","Lotisch",NA,"Antwerpen","Stabroek",2940,1,113,NA,51.3412834,4.3502764,"VMM",NA,"d.slootmaekers@vmm.be"
TRUE,TRUE,"Leffinge, Vaartdijk Noord, opw pompgemaal","Puidenbroekgeleed","odcxnmmx","15/10/24","YES","I_8431_1",NA,NA,"VMM_Mtp","Lotisch",NA,"West-Vlaanderen","Middelkerke",8431,2,130,NA,51.1749033,2.8552918,"Middenkustpolder","059/278477","info@middenkustpolder.be"
TRUE,TRUE,"Uitkerke, Scharebrugstraat, Scharebrug","Blankenbergsevaart","m2m0odgy",NA,"YES","I_8370_1",NA,NA,"VMM_Mtp","Lotisch",NA,"West-Vlaanderen","Blankenberge",8370,1,2123,NA,51.2771978,3.1260221,"VMM",NA,"d.slootmaekers@vmm.be"
TRUE,TRUE,"Koolskamp, Jostraat, Noordhoek","Jobeek","mjywyjqx","22/07/2024","YES","I_8750_2",NA,NA,"VMM_Mtp","Lotisch",NA,"West-Vlaanderen","Wingene",8750,2,318,NA,51.0213582,3.2125623,"West-Vlaanderen",NA,NA
TRUE,TRUE,"Neerpelt, Volmolenstr, opw weg","Dommel","mdflzwm0","TBD","YES","I_3910_2",NA,NA,"VMM_Mtp","Lotisch",NA,"Limburg","Pelt",3910,1,9512,NA,51.2358368,5.4214858,"VMM",NA,"d.slootmaekers@vmm.be"
TRUE,TRUE,"Krekebekestraat, afw Kortemark","Handzamevaart","mdywmjc1","28/06/2024","YES","I_8610_1",NA,NA,"VMM_Mtp","Lotisch",NA,"West-Vlaanderen","Kortemark",8610,1,1208,NA,51.0260091,3.0239868,"VMM",NA,"d.slootmaekers@vmm.be"
TRUE,TRUE,"Ieperse Heerweg, opw. zijbeek","Koebeek","mjywyjqx",NA,"YES","I_8820_3",NA,NA,"VMM_Mtp","Lotisch",NA,"West-Vlaanderen","Torhout",8820,2,1443,NA,51.0565537,3.095591,"West-Vlaanderen",NA,NA
TRUE,TRUE,"Overpelt, Dommellaan, 10 m opw Wedelsemolen, opw houten brugje","Dommel","mdflzwm0","31/08/24","YES","I_3900_1",NA,NA,"VMM_Mtp","Lotisch",NA,"Limburg","Pelt",3900,1,9512,NA,51.186019,5.436245,"VMM",NA,"d.slootmaekers@vmm.be"
TRUE,TRUE,"Kleine-Brogel,opw brug aan woning (galerie Daelhoxent)","Dommel","mdflzwm0","TBD","YES","I_3900_2",NA,NA,"VMM_Mtp","Lotisch",NA,"Limburg","Pelt",3900,1,9512,NA,51.173648,5.436339,"VMM",NA,"d.slootmaekers@vmm.be"
TRUE,TRUE,"Molenbeersel, Bekerstr, 20m opw brug","Lossing","mznknjaw",NA,"YES","I_3640_3",NA,NA,"VMM_Mtp","Lotisch",NA,"Limburg","Kinrooi",3640,1,9967,NA,51.169877,5.7699146,"VMM",NA,"d.slootmaekers@vmm.be"
TRUE,TRUE,"Molenbeersel, Weertersteenweg, onverhard pad natuurreservaat, 30m opw brug","Lossing","ztnhyzk1","TBD","YES","I_3640_4",NA,NA,"VMM_Mtp","Lotisch",NA,"Limburg","Kinrooi",3640,1,9967,NA,51.1645167,5.7399779,"VMM",NA,"d.slootmaekers@vmm.be"
TRUE,TRUE,"Kessenich, Manestr, 10 m afw brug","Itterbeek","ztnhyzk1","TBD","YES","I_3640_6",NA,NA,"VMM_Mtp","Lotisch",NA,"Limburg","Kinrooi",3640,1,9522,NA,51.1508565,5.7754728,"VMM",NA,"d.slootmaekers@vmm.be"
TRUE,TRUE,"begin traject 100m opw molen","Abeek","mznkyti0","15/07/2024","YES","I_3670_6",NA,NA,"VMM_Mtp","Lotisch",NA,"Limburg","Oudsbergen",3670,2,9505,NA,51.1244491,5.5150079,"Limburg",NA,"christel.bouchet@limburg.be"
TRUE,TRUE,"Rode Weel, thv bunker aan brug over verlegde schijns","Hoofdgracht","zjyxyjrl","10/08/24","YES","I_2030_4",NA,NA,"VMM_Mtp","Lotisch",NA,"Antwerpen","Antwerpen",2030,1,3104,NA,51.3013959,4.3723865,"VMM",NA,"d.slootmaekers@vmm.be"
TRUE,TRUE,"Deurne; Parkweg, Ter Rivierenhof; brugje speelweide voor Sterckshof","Groot Schijn","owmxyjiw","TBD","YES","I_2100_2",NA,NA,"VMM_Mtp","Lotisch",NA,"Antwerpen","Antwerpen",2100,1,3103,NA,51.2157209,4.4590502,"VMM",NA,"d.slootmaekers@vmm.be"
TRUE,TRUE,"Schelle; via Capucienendreef; begin aan houten hekje/hoek weide/einde verharde weg","Grote Struisbeek","mgexnjex","09/09/24","YES","I_2620_1",NA,NA,"VMM_Mtp","Lotisch",NA,"Antwerpen","Schelle",2620,1,3108,NA,51.1325115,4.3494272,"VMM",NA,"d.slootmaekers@vmm.be"
TRUE,TRUE,"Werchter, afw 216000, voorbij bocht","Dijle","odi5ngi0","TBD","YES","I_3118_1",NA,NA,"VMM_Mtp","Lotisch",NA,"Vlaams-Brabant","Rotselaar",3118,1,6551,NA,50.96651,4.6946368,"VMM",NA,"d.slootmaekers@vmm.be"
TRUE,TRUE,"Puurs; Achterheide; beginnen aan fietsbrugje","Grote Molenbeek","njm2yzlk","TBD","YES","I_2890_1",NA,NA,"VMM_Mtp","Lotisch",NA,"Antwerpen","Puurs-Sint-Amands",2890,1,6,NA,51.0541728,4.2621447,"VMM",NA,"d.slootmaekers@vmm.be"
TRUE,TRUE,"Steenhuffel; Robbroek; opw brug Marselaarmolen","Grote Molenbeek","nty4mmqw","TBD","YES","I_1840_3",NA,NA,"VMM_Mtp","Lotisch",NA,"Vlaams-Brabant","Londerzeel",1840,1,6,NA,50.9808973,4.2640039,"VMM",NA,"d.slootmaekers@vmm.be"
TRUE,TRUE,"Westkapelle, Hazegrasstraat","Zwinnevaart","ntvlndrm","TBD","YES","I_8300_3",NA,NA,"VMM_Mtp","Lotisch",NA,"West-Vlaanderen","Knokke-Heist",8300,1,2230,NA,51.327339,3.3394706,"VMM",NA,"d.slootmaekers@vmm.be"
TRUE,TRUE,"Zandweg naast Broekstraat 61 in; 110 m afw brug (knooppunt 17 Antwerpse Kempen) beginnen","Kleine Nete","zgu4nzuz","TBD","YES","I_2480_2","bij voorkeur tussen 20/07 - 01/09",NA,"VMM_Mtp","Lotisch",NA,"Antwerpen","Dessel",2480,2,8502,NA,51.233302,5.1045285,"Antwerpen",NA,"hans.vanloy@provincieantwerpen.be"
TRUE,TRUE,"Poederlee; Groesaard; +/- 120m opw brug beginnen (einde canadabomen)","De Aa","njdknmu2","TBD","YES","I_2275_1",NA,NA,"VMM_Mtp","Lotisch",NA,"Antwerpen","Lille",2275,1,8504,NA,51.225805,4.8581553,"VMM",NA,"d.slootmaekers@vmm.be"
TRUE,TRUE,"Tielen; Walravens; opwaarts brug","De Aa","njdknmu2","TBD","YES","I_2460_7",NA,NA,"VMM_Mtp","Lotisch",NA,"Antwerpen","Kasterlee",2460,1,8504,NA,51.2432886,4.8728888,"VMM",NA,"d.slootmaekers@vmm.be"
TRUE,TRUE,"Gierle; Middelveld; wegje naar fietsroute 74 volgen; traject in bocht naast weg","De Aa","yjq0ntkw","26/8/24","YES","I_2275_2",NA,NA,"VMM_Mtp","Lotisch",NA,"Antwerpen","Lille",2275,1,8504,NA,51.2668617,4.8841623,"VMM",NA,"d.slootmaekers@vmm.be"
TRUE,TRUE,"Oud-Turnhout; Eigen; opw mtp 292000","De Aa","mzk5yjmz","TBD","YES","I_2360_3","bij voorkeur tussen 20/07 - 01/09",NA,"VMM_Mtp","Lotisch",NA,"Antwerpen","Oud-Turnhout",2360,2,8504,NA,51.3193559,4.9769205,"Antwerpen",NA,"hans.vanloy@provincieantwerpen.be"
TRUE,TRUE,"Lille; Rolleken; opw Rollekensbrug","Laakbeek","yjq0ntkw","26/8/24","YES","I_2275_3","bij voorkeur tussen 20/07 - 01/09",NA,"VMM_Mtp","Lotisch",NA,"Antwerpen","Lille",2275,2,8572,NA,51.2679451,4.8376797,"Antwerpen",NA,"hans.vanloy@provincieantwerpen.be"
TRUE,TRUE,"Herenthout; Itegemsestwg; 120m afw brug beginnen","Wimp","mmm4mzq3","TBD","YES","I_2270_3",NA,NA,"VMM_Mtp","Lotisch",NA,"Antwerpen","Herenthout",2270,1,8507,NA,51.1259324,4.7591022,"VMM",NA,"d.slootmaekers@vmm.be"
TRUE,TRUE,"Heist o/d Berg; Heistseweg; einde zandweg naast huisnr 133","Bergebeek","mmm4mzq3","TBD","YES","I_2221_1","bij voorkeur tussen 20/07 - 01/09",NA,"VMM_Mtp","Lotisch",NA,"Antwerpen","Heist-op-den-Berg",2221,2,8620,NA,51.0701906,4.7628236,"Antwerpen",NA,"hans.vanloy@provincieantwerpen.be"
TRUE,TRUE,"Heist o/d Berg; Booischot; Peerdsdonkendreef; einde asfaltbaan","Herseltseloop","ztfhota2","26/8/24","YES","I_2221_2","bij voorkeur tussen 20/07 - 01/09",NA,"VMM_Mtp","Lotisch",NA,"Antwerpen","Heist-op-den-Berg",2221,2,8956,NA,51.0486977,4.7832279,"Antwerpen",NA,"hans.vanloy@provincieantwerpen.be"
TRUE,TRUE,"Rijmenam/Boortmeerbeek, Rijmenamsebn, opw 387950 en opw brug","Leibeek","ymuxmjez","TBD","YES","I_3190_4","bij voorkeur tussen 20/07 - 01/09",NA,"VMM_Mtp","Lotisch",NA,"Antwerpen","Bonheiden",3190,2,6558,NA,50.9908156,4.5816733,"Antwerpen",NA,"hans.vanloy@provincieantwerpen.be"
TRUE,TRUE,"Kuringen, Zolderse Kiezel, opw 398000","Tuilterdemer Visnevengeul","zwexnwe1","19/07/2024","YES","I_3511_2",NA,NA,"VMM_Mtp","Lotisch",NA,"Limburg","Hasselt",3511,1,7151,NA,50.9595413,5.2706883,"VMM",NA,"d.slootmaekers@vmm.be"
TRUE,TRUE,"Bilzen, Rentfortstr, opw 401000","Demer","zji2zgyw",NA,"YES","I_3740_4",NA,NA,"VMM_Mtp","Lotisch",NA,"Limburg","Bilzen",3740,1,7151,NA,50.8898258,5.5063873,"VMM",NA,"d.slootmaekers@vmm.be"
TRUE,TRUE,"24/3-4; Zichem; begin traject 30m opw MP 410600","De Hulpe","otyymtfh",NA,"YES","I_3271_4",NA,NA,"VMM_Mtp","Lotisch",NA,"Vlaams-Brabant","Scherpenheuvel-Zichem",3271,1,7360,NA,51.0085692,4.9912887,"VMM",NA,"d.slootmaekers@vmm.be"
TRUE,TRUE,"Tessenderlo/Schaffen, Lapseheide/Nieuwe Dijkstr, 411500 is afw brug maar begin traj MF OPW brug","Grotebeek","nwnizjfi","26/8","YES","I_3290_5",NA,NA,"VMM_Mtp","Lotisch",NA,"Vlaams-Brabant","Diest",3290,2,7751,NA,51.03249,5.11059,"Vlaams-Brabant",NA,"ingrid.beuls@vlaamsbrabant.be"
TRUE,TRUE,"Koersel, via Stalse Schansstr, tot op einde, dan rechts, ongeveer 200m doorrijden tot populierenbos.","Zwarte Beek","m2i4yzvl","TBD","YES","I_3582_3","beheerder zegt ok",NA,"VMM_Mtp","Lotisch",NA,"Limburg","Beringen",3582,2,7157,NA,51.0690631,5.2555738,"Limburg",NA,"christel.bouchet@limburg.be"
TRUE,TRUE,"aan 430000, opw oude stenen brugje","Kleine Gete","nwi2m2u2","11/07/24","YES","I_3440_5",NA,NA,"VMM_Mtp","Lotisch",NA,"Vlaams-Brabant","Zoutleeuw",3440,2,7161,NA,50.8466138,5.1113885,"Vlaams-Brabant",NA,"ingrid.beuls@vlaamsbrabant.be"
TRUE,TRUE,"Leeuwerweg, thv kruispunt met landweg, vanaf 2de betonnen brugje","Vloedgracht","nwi2m2u2","11/07/24","YES","I_3440_6",NA,NA,"VMM_Mtp","Lotisch",NA,"Vlaams-Brabant","Zoutleeuw",3440,1,7957,NA,50.8409316,5.1014734,"VMM",NA,"d.slootmaekers@vmm.be"
TRUE,TRUE,"Neerwinden-Ezemaal, 30m opw 433000","Kleine Gete","yji2zte1","TBD","YES","I_3400_4",NA,NA,"VMM_Mtp","Lotisch",NA,"Vlaams-Brabant","Landen",3400,1,7161,NA,50.7749738,5.0026014,"VMM",NA,"d.slootmaekers@vmm.be"
TRUE,TRUE,"Akkerstraat,Katelijnebrug","Langelede","y2fhytux",NA,"YES","I_9185_1",NA,NA,"VMM_Mtp","Lotisch",NA,"Oost-Vlaanderen","Wachtebeke",9185,2,763,NA,51.195462,3.858899,"Polder Moervaart en Zuidlede","09/3573231","info@moervaart.be"
TRUE,TRUE,"Schalbroekstraat, wegje tss huis nr. 125 en 127 (afw Stationstraat), begin traject 105 m afw brug","Mangelbeek","zmvizjk1","12/8/24","YES","I_3560_8",NA,NA,"VMM_Mtp","Lotisch",NA,"Limburg","Lummen",3560,1,7196,NA,50.9738454,5.1729945,"VMM",NA,"d.slootmaekers@vmm.be"
TRUE,TRUE,"Heverlee, Tervuursevest, opw 478000","Voer","nwi1ntu1","6/9/24","YES","I_3001_4",NA,NA,"VMM_Mtp","Lotisch",NA,"Vlaams-Brabant","Leuven",3001,1,6919,NA,50.8715217,4.6903964,"VMM",NA,"d.slootmaekers@vmm.be"
TRUE,TRUE,"Heverlee, Kapeldreef, laatste bocht voor Heverleebos","Voer","y2nhotdk",NA,"YES","I_3001_5",NA,NA,"VMM_Mtp","Lotisch",NA,"Vlaams-Brabant","Leuven",3001,1,6919,NA,50.8633361,4.6721017,"VMM",NA,"d.slootmaekers@vmm.be"
TRUE,TRUE,"Leefdaal, Dorpstr, 5m opw brug nr huizen en wandelweg langs waterwinningsgebied, 200m opw mpl 479000","Voer","zja3zjyx","15/07/2024","YES","I_3061_1",NA,NA,"VMM_Mtp","Lotisch",NA,"Vlaams-Brabant","Bertem",3061,2,6919,NA,50.8565096,4.6076213,"Vlaams-Brabant",NA,"ingrid.beuls@vlaamsbrabant.be"
TRUE,TRUE,"IJzeren Brugje, Oaseln, 20m afw 482000","Molenbeek","yjdkn2u5","25/9/24","YES","I_3000_3",NA,NA,"VMM_Mtp","Lotisch",NA,"Vlaams-Brabant","Leuven",3000,2,6557,NA,50.860611,4.736806,"Vlaams-Brabant",NA,"ingrid.beuls@vlaamsbrabant.be"
TRUE,TRUE,"Beervelde, Beerveldsebaan, afwaarts weg","Lede","ytljnzlj","26/08/24","YES","I_9080_2",NA,NA,"VMM_Mtp","Lotisch",NA,"Oost-Vlaanderen","Lochristi",9080,1,3105,NA,51.0903407,3.8791977,"VMM",NA,"d.slootmaekers@vmm.be"
TRUE,TRUE,"Stenenbrug,veldweg langs Zuidlede","Zuidlede","nweyoti0","TBD","YES","I_9180_5",NA,NA,"VMM_Mtp","Lotisch",NA,"Oost-Vlaanderen","Moerbeke",9180,1,26,NA,51.1478349,3.9110453,"VMM",NA,"d.slootmaekers@vmm.be"
TRUE,TRUE,"Oostakker,Mendonk,Mendonkdorp-Oostdonkstraat","Zuidlede","nwe4m2ex",NA,"YES","I_9042_2",NA,NA,"VMM_Mtp","Lotisch",NA,"Oost-Vlaanderen","Gent",9042,1,26,NA,51.1483519,3.8290506,"VMM",NA,"d.slootmaekers@vmm.be"
TRUE,TRUE,"Teralfene,Stationsstraat,afw Bellemolen, thv 524000","Bellebeek","yjmznwm3","27/09/24","YES","I_1790_1",NA,NA,"VMM_Mtp","Lotisch",NA,"Vlaams-Brabant","Affligem",1790,1,5956,NA,50.8880448,4.1156538,"VMM",NA,"d.slootmaekers@vmm.be"
TRUE,TRUE,"Gotestraat-Kroonstraat","Papenmeersbeek","otgzymmz","11/08/24","YES","I_1755_4",NA,NA,"VMM_Mtp","Lotisch",NA,"Vlaams-Brabant","Gooik",1755,2,6044,NA,50.8004074,4.0705318,"Vlaams-Brabant",NA,"ingrid.beuls@vlaamsbrabant.be"
TRUE,TRUE,"Zandbergen,Voordeweg","Molenbeek","otgzymmz","11/08/24","YES","I_9506_3",NA,NA,"VMM_Mtp","Lotisch",NA,"Oost-Vlaanderen","Geraardsbergen",9506,1,5954,NA,50.808006,3.9529944,"VMM",NA,"d.slootmaekers@vmm.be"
TRUE,TRUE,"Smeerebbe-Vloerzegem","Molenbeek","yjqzngy4","08/24","YES","I_9506_4",NA,NA,"VMM_Mtp","Lotisch",NA,"Oost-Vlaanderen","Geraardsbergen",9506,1,5954,NA,50.8146069,3.9218745,"VMM",NA,"d.slootmaekers@vmm.be"
TRUE,TRUE,"Hemelveerdegem, N42 Zottegem Geraardsbergen","Ophasseltbeek","yjqzngy4","08/24","YES","I_9571_1",NA,NA,"VMM_Mtp","Lotisch",NA,"Oost-Vlaanderen","Lierde",9571,2,6095,NA,50.8165835,3.8932376,"Oost-Vlaanderen",NA,"waterbeleid@oost-vlaanderen.be"
TRUE,TRUE,"St. Baafs-Vijve, Vijvestraat, Hooie","Mandel","njmzowyw","19/8/24","YES","I_8720_2",NA,NA,"VMM_Mtp","Lotisch",NA,"West-Vlaanderen","Dentergem",8720,1,4203,NA,50.9205784,3.4150208,"VMM",NA,"d.slootmaekers@vmm.be"
TRUE,TRUE,"Emelgem, Emelgems plein, petanqueclub 3","Mandel","zgqwyjrm","05/08/24","YES","I_8870_2",NA,NA,"VMM_Mtp","Lotisch",NA,"West-Vlaanderen","Izegem",8870,1,4203,NA,50.9208318,3.2322052,"VMM",NA,"d.slootmaekers@vmm.be"
TRUE,TRUE,"Kachtem, Rumbeeksestraat","Mandel","nzi3zgyy","08/07/24","YES","I_8870_3",NA,NA,"VMM_Mtp","Lotisch",NA,"West-Vlaanderen","Izegem",8870,1,4203,NA,50.9368577,3.1745023,"VMM",NA,"d.slootmaekers@vmm.be"
TRUE,TRUE,"Oostpoort","Gaverbeek","njmzowyw","TBD","YES","I_8793_1",NA,NA,"VMM_Mtp","Lotisch",NA,"West-Vlaanderen","Waregem",8793,1,4202,NA,50.905814,3.4124769,"VMM",NA,"d.slootmaekers@vmm.be"
TRUE,TRUE,"Zandvoorde, Zandvoordestraat, saf 695000","Gauweloze kreek","n2qzyzhm","24/09/2024","YES","I_8400_2",NA,NA,"VMM_Mtp","Lotisch",NA,"West-Vlaanderen","Oostende",8400,1,14884,NA,51.2151213,2.9451622,"VMM",NA,"d.slootmaekers@vmm.be"
TRUE,TRUE,"Pontweg, opw weg","Melsenbeek","yzq0m2yw",NA,"YES","I_9820_3",NA,NA,"VMM_Mtp","Lotisch",NA,"Oost-Vlaanderen","Merelbeke",9820,2,5088,NA,50.9938635,3.7348564,"Oost-Vlaanderen",NA,"waterbeleid@oost-vlaanderen.be"
TRUE,TRUE,"Strijpen,Rijkestraat-Zottegemsesteenweg","Zwalmbeek","zwuzztfl","04/09/24","YES","I_9620_2",NA,NA,"VMM_Mtp","Lotisch",NA,"Oost-Vlaanderen","Zottegem",9620,1,5000,NA,50.8638979,3.7651385,"VMM",NA,"d.slootmaekers@vmm.be"
TRUE,TRUE,"Molendam-Molenslag,Molenbrug,opw weg","Oude Kale","ytbmntfk",NA,"YES","I_9920_3",NA,NA,"VMM_Mtp","Lotisch",NA,"Oost-Vlaanderen","Lievegem",9920,1,72,NA,51.0832226,3.6207069,"VMM",NA,"d.slootmaekers@vmm.be"
TRUE,TRUE,"Landegem,Brouwerijstraat,afw weg","Oude Kale","ytbmntfk",NA,"YES","I_9850_4",NA,NA,"VMM_Mtp","Lotisch",NA,"Oost-Vlaanderen","Deinze",9850,1,72,NA,51.0578843,3.5717004,"VMM",NA,"d.slootmaekers@vmm.be"
TRUE,TRUE,"Graaf van Hoornestraat,afw weg","Poekebeek","mmy4ywm3","19/07/2024","YES","I_9850_6",NA,NA,"VMM_Mtp","Lotisch",NA,"Oost-Vlaanderen","Deinze",9850,1,27,NA,51.0333774,3.5453287,"VMM",NA,"d.slootmaekers@vmm.be"
TRUE,TRUE,"Vinderhoute,jaagpad,opw Bemalingsstation","Nieuwe Kale","mzu1ode0",NA,"YES","I_9921_1",NA,NA,"VMM_Mtp","Lotisch",NA,"Oost-Vlaanderen","Lievegem",9921,1,625,NA,51.087422,3.656217,"VMM",NA,"d.slootmaekers@vmm.be"
TRUE,TRUE,"Stabroek; Danckerse weg; opw brug mtp 834610","Antitankkanaal","zjyxyjrl","08/07/24","YES","I_2940_2",NA,NA,"VMM_Mtp","Lotisch",NA,"Antwerpen","Stabroek",2940,1,113,NA,51.3429651,4.3775854,"VMM",NA,"d.slootmaekers@vmm.be"
TRUE,TRUE,"Vaartstraat, Wittebrug","Moerdijkvaart","otm1mzuw","TBD","YES","I_8470_1",NA,NA,"VMM_Mtp","Lotisch",NA,"West-Vlaanderen","Gistel",8470,1,1209,NA,51.1700324,2.9620238,"VMM",NA,"d.slootmaekers@vmm.be"
TRUE,TRUE,NA,"Moerdijkvaart","odjlnmu5","TBD","YES","I_8460_1",NA,NA,"VMM_Mtp","Lotisch",NA,"West-Vlaanderen","Oudenburg",8460,1,1209,NA,51.1704978428547,2.96531269098783,"VMM",NA,"d.slootmaekers@vmm.be"
TRUE,TRUE,"Sint-Michiels, Rijselstraat, Stokvelde","Kerkebeek","ymu3ntm1","TBD","YES","I_8200_2",NA,NA,"VMM_Mtp","Lotisch",NA,"West-Vlaanderen","Brugge",8200,1,54716,NA,51.1744665,3.208793,"VMM",NA,"d.slootmaekers@vmm.be"
TRUE,TRUE,"Kampveldstraat","Hertsbergebeek","odcxnmmx",NA,"YES","I_8020_6",NA,NA,"VMM_Mtp","Lotisch",NA,"West-Vlaanderen","Oostkamp",8020,1,845,NA,51.13214,3.25372,"VMM",NA,"d.slootmaekers@vmm.be"
TRUE,TRUE,"MP91000; afw brug; RO; te voet door wei tot aan grote zomereik","Dommel","mdflzwm0",NA,"YES","I_3910_6",NA,NA,"VMM_Mtp","Lotisch",NA,"Limburg","Pelt",3910,1,9512,NA,51.2679807,5.4284195,"VMM",NA,"d.slootmaekers@vmm.be"
TRUE,TRUE,"Einde traject 10m afw brug aan MP 99500","Bollisenbeek","mwnhmtq1","TBD","YES","I_3990_5",NA,NA,"VMM_Mtp","Lotisch",NA,"Limburg","Peer",3990,2,9702,NA,51.1165486,5.3916738,"Limburg",NA,"christel.bouchet@limburg.be"
TRUE,TRUE,NA,"Marijneloop","yjqxzmiz","12/8/24","YES","I_2920_4","bij voorkeur tussen 20/07 - 01/09",NA,"Scheers","Lotisch",NA,"Antwerpen","Kalmthout",2920,2,9918,NA,51.4264226,4.5103658,"Antwerpen",NA,"hans.vanloy@provincieantwerpen.be"
TRUE,TRUE,NA,"Noordzuid Verbinding","zjhjnznm","17/9/24","YES","I_9170_6",NA,NA,"Scheers","Lotisch",NA,"Oost-Vlaanderen","Sint-Gillis-Waas",9170,2,3111,NA,51.2550019,4.1230489,"Polder van het Land van Waas","03/7732526","info@polderlandvanwaas.be"
TRUE,TRUE,NA,"Noordzuid Verbinding","zjhjnznm","6/9/24","YES","I_9170_8",NA,NA,"Scheers","Lotisch",NA,"Oost-Vlaanderen","Sint-Gillis-Waas",9170,2,3111,NA,51.2496585,4.1061847,"Polder van het Land van Waas","03/7732526","info@polderlandvanwaas.be"
TRUE,TRUE,NA,"Zuidelijke Watergang","zjhjnznm","12/9/24","YES","I_9170_9",NA,NA,"Scheers","Lotisch",NA,"Oost-Vlaanderen","Sint-Gillis-Waas",9170,2,47902,NA,51.2367593,4.1195405,"Polder van het Land van Waas","03/7732526","info@polderlandvanwaas.be"
TRUE,TRUE,NA,"Waterloop van de hoge landen","y2uzntq0","TBD","YES","I_9120_3",NA,NA,"Scheers","Lotisch",NA,"Oost-Vlaanderen","Beveren",9120,1,3110,NA,51.2389791,4.2039857,"VMM",NA,"d.slootmaekers@vmm.be"
TRUE,TRUE,"Rode Amerikaanse rivierkreeft in 2022 en 2023","Kanaal van Stekene","odcxnmmx",NA,"YES","I_9190_6",NA,NA,"Scheers","Lotisch",NA,"Oost-Vlaanderen","Stekene",9190,1,123,NA,51.1965,4.0372,"VMM",NA,"d.slootmaekers@vmm.be"
TRUE,TRUE,"Rode Amerikaanse rivierkreeft in 2022","Molenbeek","ogzjnjqz","30/9/24","YES","I_9111_1",NA,NA,"Scheers","Lotisch",NA,"Oost-Vlaanderen","Sint-Niklaas",9111,2,555,NA,51.1895246,4.0385329,"Polder Sinaai-Daknam","03/7783283","info@poldersinaaidaknam.be"
TRUE,TRUE,"rode Amerikaanse rivierkreeft in 2022","Ransbeek","nzjkzdez",NA,"YES","I_9112_2",NA,NA,"Scheers","Lotisch",NA,"Oost-Vlaanderen","Sint-Niklaas",9112,2,871,NA,51.1799993,4.0557512,"Polder Sinaai-Daknam","03/7783283","info@poldersinaaidaknam.be"
TRUE,TRUE,"Rode Amerikaanse rivierkreeft in 2022","Kanaal van Stekene","nzjkzdez","26/8/24","YES","I_9112_4",NA,NA,"Scheers","Lotisch",NA,"Oost-Vlaanderen","Stekene",9112,1,123,NA,51.1742492,4.0028625,"VMM",NA,"d.slootmaekers@vmm.be"
TRUE,TRUE,"Moervaart, Rode Amerikaanse rivierkreeft in 2022","Bovendurme","ogvkytdi","TBD","YES","I_9160_8",NA,NA,"Scheers","Lotisch",NA,"Oost-Vlaanderen","Lokeren",9160,0,15074,NA,51.1294864,3.978681,NA,NA,NA
TRUE,TRUE,"geen rivierkreeften in 2022","Mariabeek","njgyytiw","TBD","YES","I_9160_9",NA,NA,"Scheers","Lotisch",NA,"Oost-Vlaanderen","Lokeren",9160,2,633,NA,51.1296614,3.9762858,"Polder Moervaart en Zuidlede","09/3573231","info@moervaart.be"
TRUE,TRUE,"Leopoldskanaal","Zwartesluisbeek","otm1owi1","19/07/24","YES","I_9961_5",NA,NA,"Scheers","Lotisch",NA,"Oost-Vlaanderen","Assenede",9961,1,2802,NA,51.2684694,3.7179872,"VMM",NA,"d.slootmaekers@vmm.be"
TRUE,TRUE,"Major polder waterway","Isabellawatering","nwmzmtg3","TBD","YES","I_9961_6",NA,NA,"Scheers","Lotisch",NA,"Oost-Vlaanderen","Assenede",9961,1,2826,NA,51.2657738,3.6871856,"VMM",NA,"d.slootmaekers@vmm.be"
TRUE,TRUE,"Gent","Noordelijke Leie","mjvjmjq4","27/8/24","YES","I_9000_1",NA,NA,"Scheers","Lotisch",NA,"Oost-Vlaanderen","Gent",9000,0,799,NA,51.0576926,3.6869626,NA,NA,NA
TRUE,TRUE,"Geen kreeften in 2022","Fondatiebeek","ogzjnjqz","23/9/24","YES","I_9112_8",NA,NA,"Scheers","Lotisch",NA,"Oost-Vlaanderen","Sint-Niklaas",9112,2,933,NA,51.18373,4.0281555,"Polder Sinaai-Daknam","03/7783283","info@poldersinaaidaknam.be"
TRUE,TRUE,NA,"Molenvaardeken","mze2mza3","08/07/2024","YES","I_9940_13",NA,NA,"Scheers","Lotisch",NA,"Oost-Vlaanderen","Evergem",9940,1,604,NA,51.1501201,3.7349684,"VMM",NA,"d.slootmaekers@vmm.be"
TRUE,TRUE,"Demer 4","Demer","otyymtfh",NA,"YES","I_3272_2",NA,NA,"EcoWat","Lotisch",NA,"Vlaams-Brabant","Scherpenheuvel-Zichem",3272,0,7151,NA,51.002933,4.9333761,NA,NA,NA
TRUE,TRUE,"Antitankgracht","Antitankkanaal","nmvkndjl","TBD","YES","I_2970_2",NA,NA,"EcoWat","Lotisch",NA,"Antwerpen","Schilde",2970,1,17603,NA,51.2483174,4.5985564,"VMM",NA,"d.slootmaekers@vmm.be"
TRUE,TRUE,NA,"Jabbeekse Beek","odcxnmmx",NA,"YES","I_8490_4",NA,NA,NA,"Lotisch",NA,"West-Vlaanderen","Jabbeke",8490,2,0,NA,51.1923079,3.0897709,"Nieuwe Polder van Blankenberge","050/321790","info@polderblankenberge.be"
TRUE,TRUE,NA,"Grote Watergang","odc4ztrj",NA,"YES","I_8370_4",NA,NA,NA,"Lotisch",NA,"West-Vlaanderen","Blankenberge",8370,2,0,NA,51.2885633,3.1555969,"Nieuwe Polder van Blankenberge","050/321790","info@polderblankenberge.be"
TRUE,TRUE,NA,"Bommelzwin","m2m0odgy","19/08/2024","YES","I_8370_5",NA,NA,NA,"Lotisch",NA,"West-Vlaanderen","Blankenberge",8370,2,0,NA,51.3039487,3.1244784,"Nieuwe Polder van Blankenberge","050/321790","info@polderblankenberge.be"
TRUE,TRUE,NA,"Bommelzwin","m2m0odgy","19/08/2024","YES","I_8420_2",NA,NA,NA,"Lotisch",NA,"West-Vlaanderen","De Haan",8420,2,0,NA,51.2990122,3.105183,"Nieuwe Polder van Blankenberge","050/321790","info@polderblankenberge.be"
TRUE,TRUE,NA,"Roosterbeek","zjiyngyx","26/8/24","YES","I_3520_4",NA,NA,NA,"Lotisch",NA,"Limburg","Zonhoven",3520,2,0,NA,50.9869595,5.3508929,"Limburg",NA,"christel.bouchet@limburg.be"
TRUE,TRUE,NA,"Watering Het Schulensbroek","m2i4yzvl","TBD","YES","I_3580_1",NA,NA,NA,"Lotisch",NA,"Limburg","Beringen",3580,2,0,NA,51.0419336,5.2287682,"Limburg",NA,"christel.bouchet@limburg.be"
TRUE,TRUE,NA,"Moervaart","nzjknjqy",NA,"YES","I_9180_8",NA,NA,NA,"Lotisch",NA,"Oost-Vlaanderen","Moerbeke",9180,NA,NA,NA,51.173329,3.958132,NA,NA,NA
TRUE,TRUE,NA,"Watering de Burggravenstroom","mze2mza3","08/07/2024","YES","I_9940_15",NA,NA,NA,"Lotisch",NA,"Oost-Vlaanderen","Evergem",9940,2,0,NA,51.1420387,3.7497799,"Oost-Vlaanderen",NA,"waterbeleid@oost-vlaanderen.be"
TRUE,TRUE,NA,"Brugse Vaart","mzu1ode0",NA,"YES","I_9000_2",NA,NA,NA,"Lotisch",NA,"Oost-Vlaanderen","Gent",9000,NA,NA,NA,51.0691866,3.6949296,NA,NA,NA
TRUE,TRUE,NA,"Leie","otnkzgi3","01/08/24","YES","I_9031_3",NA,NA,NA,"Lotisch",NA,"Oost-Vlaanderen","Gent",9031,NA,NA,NA,51.021739,3.6405768,NA,NA,NA
TRUE,TRUE,NA,"Isabellavaart","nzlkmtvh","vanaf 15/9","YES","I_8300_7",NA,NA,NA,"Lotisch",NA,"West-Vlaanderen","Knokke-Heist",8300,1,0,NA,51.3319846,3.2988945,"VMM",NA,"d.slootmaekers@vmm.be"
TRUE,TRUE,NA,"Oude Leie","yzc4njmw","15/08/24","YES","I_9800_11",NA,NA,NA,"Lotisch",NA,"Oost-Vlaanderen","Deinze",9800,NA,NA,NA,50.992269,3.570453,NA,NA,NA
TRUE,TRUE,"Oude Leie Sint-Baafs-Vijve",NA,"njmzowyw","TBD","YES","I_8710_1",NA,NA,"EcoWater","Lentisch",NA,"West-Vlaanderen","Wielsbeke",8710,NA,NA,NA,50.9084883,3.3901706,NA,NA,NA
TRUE,TRUE,"Oude Leie Wevelgem Leiebos",NA,"zguxztnj","12/07/24","YES","I_8560_4",NA,NA,"EcoWater","Lentisch",NA,"West-Vlaanderen","Wevelgem",8560,NA,NA,NA,50.8066401,3.2026969,"Coppens Xavier",NA,"recreatie.wvl.anb@vlaanderen.be"
TRUE,TRUE,"Oude Schelde Kriephoek","Kriephoek","ytvimtiz","14/8/24","YES","I_9890_5",NA,NA,"EcoWater","Lentisch",NA,"Oost-Vlaanderen","Gavere",9890,0,0,NA,50.9555853,3.6628358,"Coppens Xavier",NA,"recreatie.ovl.anb@vlaanderen.be"
TRUE,TRUE,"Het Leen","Watering de Burggravenstroom","zta3nzm0","TBD","YES","I_9931_1",NA,NA,"EcoWater","Lentisch",NA,"Oost-Vlaanderen","Lievegem",9931,NA,NA,NA,51.1638532,3.5656502,NA,NA,NA
TRUE,TRUE,"Groot en Klein Wachtbekken Zuunbeek","Klein Wachtbekken van de Zuunbeek","otyyyjk1",NA,"YES","I_1600_8",NA,NA,"EcoWater","Lentisch",NA,"Vlaams-Brabant","Sint-Pieters-Leeuw",1600,NA,NA,NA,50.7935364,4.2699178,NA,NA,NA
TRUE,TRUE,"Hoge Dijken in Oudenburg","Roksemput","njvknjc4","TBD","YES","I_8460_3",NA,NA,"EcoWater","Lentisch",NA,"West-Vlaanderen","Oudenburg",8460,NA,NA,NA,51.1779863,3.0417659,"Dewulf Evy",NA,"recreatie.wvl.anb@vlaanderen.be"
TRUE,TRUE,"Koolhofput in Nieuwpoort","Spaarbekken Koolhofvaart","mwu5ntqy",NA,"YES","I_8620_5",NA,NA,"EcoWater","Lentisch",NA,"West-Vlaanderen","Nieuwpoort",8620,NA,NA,NA,51.12336,2.7564168,NA,NA,NA
TRUE,TRUE,"Vossemvijver, Park Tervuren, Vossem, Kleine Vaartdreef, aan uitlaat","Vossemvijver","zthmztvh","24/07/2024","YES","I_3080_2",NA,NA,"ANB_Mtp","Lentisch",NA,"Vlaams-Brabant","Tervuren",3080,NA,NA,NA,50.8310642,4.5445525,"Huvenne Patrick",NA,"recreatie.vbr.anb@vlaanderen.be"
TRUE,TRUE,NA,"Gavermeer","mwu5ntqy",NA,"YES","I_8530_12",NA,NA,"ANB_Mtp","Lentisch",NA,"West-Vlaanderen","Harelbeke",8530,1,NA,NA,50.8400718,3.3144738,"VMM",NA,"d.slootmaekers@vmm.be"
TRUE,TRUE,NA,"Gavermeer","mwu5ntqy",NA,"YES","I_8540_4",NA,NA,"ANB_Mtp","Lentisch",NA,"West-Vlaanderen","Deerlijk",8540,1,0,NA,50.8457795,3.326138,"VMM",NA,"d.slootmaekers@vmm.be"
TRUE,TRUE,"Desselgem, Leembosstraat, oostelijk eind","Oude Leiearm Bavikhove","ymmznwu5","9/9/24","YES","I_8710_3",NA,NA,"ANB_Mtp","Lentisch",NA,"West-Vlaanderen","Wielsbeke",8710,NA,NA,NA,50.8820174,3.3340173,NA,NA,NA
TRUE,TRUE,"Moorseelsesteenweg, Sterrebosvijver",NA,"nzi3zgyy","TBD","YES","I_8800_3","Aanvraag indienen en mail naar Tom Desodt",NA,"ANB_Mtp","Lentisch",NA,"West-Vlaanderen","Roeselare",8800,NA,NA,NA,50.9268186,3.1374045,NA,NA,NA
TRUE,TRUE,"Oeselgem, Zultse Meers",NA,"njmzowyw","19/8/24","YES","I_9870_2",NA,NA,"ANB_Mtp","Lentisch",NA,"Oost-Vlaanderen","Zulte",9870,9,0,NA,50.9332243,3.4314092,"Coppens Xavier",NA,"recreatie.ovl.anb@vlaanderen.be"
TRUE,TRUE,"Melsen,Scheldekaai","Teerlinckput","ytvimtiz","21/8/24","YES","I_9820_5",NA,NA,"ANB_Mtp","Lentisch",NA,"Oost-Vlaanderen","Merelbeke",9820,NA,NA,NA,50.9566251,3.6860056,"Coppens Xavier",NA,"recreatie.ovl.anb@vlaanderen.be"
TRUE,TRUE,"Machelen, Brugstraat","Machelenput","ztjjntcx","9/9","YES","I_9800_14",NA,NA,"ANB_Mtp","Lentisch",NA,"Oost-Vlaanderen","Deinze",9800,NA,NA,NA,50.9575438,3.4783938,"Coppens Xavier",NA,"recreatie.ovl.anb@vlaanderen.be"
TRUE,TRUE,"Gottem, thv Leie, oostelijk eind",NA,"ztjjntcx","29/9","YES","I_9870_3",NA,NA,"ANB_Mtp","Lentisch",NA,"Oost-Vlaanderen","Zulte",9870,NA,NA,NA,50.959398,3.4664016,"Coppens Xavier",NA,"recreatie.ovl.anb@vlaanderen.be"
TRUE,TRUE,"Provinciaal Domein 't Veld; Vijver op Veldbeek","Ardooievijver","zgqwyjrm","26/07/24","YES","I_8850_4",NA,NA,"ANB_Mtp","Lentisch",NA,"West-Vlaanderen","Ardooie",8850,NA,NA,NA,50.9601016,3.2312679,NA,NA,NA
TRUE,TRUE,"Koersel, Gemeentelijk Zwembad 't Fonteintje, ter hoogte van de poort","Plonsvijver","mzc5yzc3","eind aug / begin sept","YES","I_3582_5","beheerder zegt ok",NA,"ANB_Mtp","Lentisch",NA,"Limburg","Beringen",3582,NA,NA,NA,51.0807552,5.32604,NA,NA,NA
TRUE,TRUE,"Breevendreef, t.h.v. de cafetaria v/h zwembad",NA,"zge1otbm",NA,"YES","I_2880_1",NA,NA,"ANB_Mtp","Lentisch",NA,"Antwerpen","Bornem",2880,NA,NA,NA,51.0913189,4.2391514,NA,NA,NA
TRUE,TRUE,"Prov. Domein Lippensgoed-Bulskampveld, perceel 25Y",NA,"mdixota5","22/07/24","YES","I_8730_5",NA,NA,"ANB_Mtp","Lentisch",NA,"West-Vlaanderen","Beernem",8730,NA,NA,NA,51.1090414,3.2902429,"Meulebrouck Klaar",NA,"recreatie.wvl.anb@vlaanderen.be"
TRUE,TRUE,"Zaffelare,Giesmeersbos,Bosdam,veldweg",NA,"nweyoti0","TBD","YES","I_9080_4",NA,NA,"ANB_Mtp","Lentisch",NA,"Oost-Vlaanderen","Lochristi",9080,NA,NA,NA,51.1429647,3.8800557,NA,NA,NA
TRUE,TRUE,"Provinciaal Domein Het Leen","Watering de Burggravenstroom","zta3nzm0","TBD","YES","I_9950_4",NA,NA,"ANB_Mtp","Lentisch",NA,"Oost-Vlaanderen","Lievegem",9950,NA,NA,NA,51.1651471,3.5788206,NA,NA,NA
TRUE,TRUE,"Provinciaal Domein Het Leen","Watering de Burggravenstroom","zta3nzm0","TBD","YES","I_9950_5",NA,NA,"ANB_Mtp","Lentisch",NA,"Oost-Vlaanderen","Lievegem",9950,NA,NA,NA,51.1662117,3.5753712,NA,NA,NA
TRUE,TRUE,"Waggelwater, Grote vijver van Kasteel Norenburg","Waggelwater","ymu3ntm1","TBD","YES","I_8200_4",NA,NA,"ANB_Mtp","Lentisch",NA,"West-Vlaanderen","Brugge",8200,NA,NA,NA,51.2167651,3.1911161,"Meulebrouck Klaar",NA,"recreatie.wvl.anb@vlaanderen.be"
TRUE,TRUE,NA,NA,"ywqxzdy4","TBD","YES","I_9130_16",NA,NA,"Scheers","Lentisch",NA,"Oost-Vlaanderen","Beveren",9130,NA,NA,NA,51.2581946,4.1944395,NA,NA,NA
TRUE,TRUE,"Geen kreeften in 2021-2022","Grote Saleghemgeul","ywqxzdy4","TBD","YES","I_9170_13",NA,NA,"Scheers","Lentisch",NA,"Oost-Vlaanderen","Sint-Gillis-Waas",9170,NA,NA,NA,51.244686,4.1271735,NA,NA,NA
TRUE,TRUE,"geen kreeften in 2021-2022","Grote Geule","ywqxzdy4","TBD","YES","I_9170_14",NA,NA,"Scheers","Lentisch",NA,"Oost-Vlaanderen","Sint-Gillis-Waas",9170,2,0,NA,51.2793651,4.15747,"Polder van het Land van Waas","03/7732526","info@polderlandvanwaas.be"
TRUE,TRUE,NA,"Sint Elooiskreek","y2fhytux",NA,"YES","I_9185_5",NA,NA,"Scheers","Lentisch",NA,"Oost-Vlaanderen","Wachtebeke",9185,NA,NA,NA,51.2116666,3.8622935,NA,NA,NA
TRUE,TRUE,"Oostpolderkreek","Oostpolderkreek","nju4nzzh",NA,"YES","I_9982_5",NA,NA,"Scheers","Lentisch",NA,"Oost-Vlaanderen","Sint-Laureins",9982,NA,NA,NA,51.2611327,3.5820292,NA,NA,NA
TRUE,TRUE,"Boerekreek","Boerenkreek","nju4nzzh",NA,"YES","I_9982_6",NA,NA,"Scheers","Lentisch",NA,"Oost-Vlaanderen","Sint-Laureins",9982,NA,NA,NA,51.2657601,3.577096,NA,NA,NA
TRUE,TRUE,NA,"Grote Geul","nwmzmtg3","TBD","YES","I_9960_7",NA,NA,"Scheers","Lentisch",NA,"Oost-Vlaanderen","Assenede",9960,99,0,NA,51.2464656,3.749102,NA,NA,NA
TRUE,TRUE,NA,"Kleine Geul","otm1owi1, zwu5mgjj","19/07/24","YES","I_9960_9",NA,NA,"Scheers","Lentisch",NA,"Oost-Vlaanderen","Assenede",9960,99,0,NA,51.2365444,3.7562741,NA,NA,NA
TRUE,TRUE,"Mazurekreek","Mazurekreek","nju4nzzh",NA,"YES","I_9982_8",NA,NA,"Scheers","Lentisch",NA,"Oost-Vlaanderen","Sint-Laureins",9982,NA,NA,NA,51.2596778,3.5634546,NA,NA,NA
TRUE,TRUE,NA,"Kragenwiel","zge1otbm",NA,"YES","I_2880_2",NA,NA,"Scheers","Lentisch",NA,"Antwerpen","Bornem",2880,NA,NA,NA,51.1092937,4.2478199,NA,NA,NA
TRUE,TRUE,"fort",NA,"zdvjmdzk",NA,"YES","I_2600_2",NA,NA,"Scheers","Lentisch",NA,"Antwerpen","Antwerpen",2600,NA,NA,NA,51.1905352,4.4293877,NA,NA,NA
TRUE,TRUE,"fort",NA,"zgjhngvm","27/8/24","YES","I_2640_1",NA,NA,"Scheers","Lentisch",NA,"Antwerpen","Mortsel",2640,NA,NA,NA,51.1718562,4.4609497,NA,NA,NA
TRUE,TRUE,"fort",NA,"zgjhngvm","02/09/24","YES","I_2610_1",NA,NA,"Scheers","Lentisch",NA,"Antwerpen","Antwerpen",2610,NA,NA,NA,51.1634236,4.4021273,NA,NA,NA
TRUE,TRUE,"fort",NA,"ymjlzwe4","TBD","YES","I_2610_2",NA,NA,"Scheers","Lentisch",NA,"Antwerpen","Antwerpen",2610,NA,NA,NA,51.1636463,4.3741224,NA,NA,NA
TRUE,TRUE,"Marmerkreeft in 2020-2021",NA,"ymjlzwe4","TBD","YES","I_2610_3",NA,NA,"Scheers","Lentisch",NA,"Antwerpen","Antwerpen",2610,NA,NA,NA,51.1653519,4.3666873,NA,NA,NA
TRUE,TRUE,"Rivierenhof (toestemming vragen)","Visvijver","owmxyjiw","TBD","YES","I_2100_4",NA,NA,"Scheers","Lentisch",NA,"Antwerpen","Antwerpen",2100,NA,NA,NA,51.2129726,4.4713983,NA,NA,NA
TRUE,TRUE,NA,NA,"nmvkndjl","15/09/24","YES","I_2900_1",NA,NA,"Scheers","Lentisch",NA,"Antwerpen","Schoten",2900,NA,NA,NA,51.2871379,4.5257715,NA,NA,NA
TRUE,TRUE,NA,"Antitankgracht","nzi4mtm4","4/9/24","YES","I_2950_2",NA,NA,"Scheers","Lentisch",NA,"Antwerpen","Kapellen",2950,1,NA,NA,51.3463916,4.4291238,"VMM",NA,"d.slootmaekers@vmm.be"
TRUE,TRUE,NA,"E10-plas","nmvkndjl","TBD","YES","I_2930_6",NA,NA,"Scheers","Lentisch",NA,"Antwerpen","Brasschaat",2930,NA,NA,NA,51.3022217,4.5369521,NA,NA,NA
TRUE,TRUE,"recreation area (provincial dom. Bergelen Put)","Bergelenput","mwu5ntqy","TBD","YES","I_8560_6",NA,NA,"Scheers","Lentisch",NA,"West-Vlaanderen","Wevelgem",8560,NA,NA,NA,50.8388989,3.1838946,NA,NA,NA
TRUE,TRUE,"Damvalleimeer","Damvalleimeer","ytljnzlj","26/08/2024","YES","I_9070_2",NA,NA,"Scheers","Lentisch",NA,"Oost-Vlaanderen","Destelbergen",9070,NA,NA,NA,51.0549668,3.808909,NA,NA,NA
TRUE,TRUE,"watersportbaan, Gent","Watersportbaan","ownlnda3","TBD","YES","I_9000_4",NA,NA,"Scheers","Lentisch",NA,"Oost-Vlaanderen","Gent",9000,NA,NA,NA,51.0517868,3.6788923,NA,NA,NA
TRUE,TRUE,"Citadelpark",NA,"mjcymgi5","TBD","YES","I_9000_5",NA,NA,"Scheers","Lentisch",NA,"Oost-Vlaanderen","Gent",9000,NA,NA,NA,51.0355132,3.7201661,NA,NA,NA
TRUE,TRUE,"recreation area, Overmeers","Schoonmeersvijver","nzkzyzvh","TBD","YES","I_9000_6",NA,NA,"Scheers","Lentisch",NA,"Oost-Vlaanderen","Gent",9000,NA,NA,NA,51.0339201,3.6972447,NA,NA,NA
TRUE,TRUE,"Recreation area, Provincial Dom. De Roomacker","Roomackerput","njbjymrl","08/07/24","YES","I_9140_4",NA,NA,"Scheers","Lentisch",NA,"Oost-Vlaanderen","Temse",9140,NA,NA,NA,51.1178571,4.171653,NA,NA,NA
TRUE,TRUE,"recreation area, Provincial dom. Kessel-Lo",NA,"nzq2nzbh","29/07/2024","YES","I_3010_4",NA,NA,"Scheers","Lentisch",NA,"Vlaams-Brabant","Leuven",3010,NA,NA,NA,50.8943306,4.7227575,NA,NA,NA
TRUE,TRUE,"recreation area, Provincial dom. Kessel-Lo",NA,"nzq2nzbh","29/07/2024","YES","I_3010_5",NA,NA,"Scheers","Lentisch",NA,"Vlaams-Brabant","Leuven",3010,NA,NA,NA,50.8921988,4.7205903,NA,NA,NA
TRUE,TRUE,"recreation area, Provincial dom. Kessel-Lo",NA,"nzq2nzbh","29/07/2024","YES","I_3010_6",NA,NA,"Scheers","Lentisch",NA,"Vlaams-Brabant","Leuven",3010,NA,NA,NA,50.8926286,4.7253163,NA,NA,NA
TRUE,TRUE,NA,"Bellefroid vijver","mzqxyjhi",NA,"YES","I_3012_8",NA,NA,"Scheers","Lentisch",NA,"Vlaams-Brabant","Leuven",3012,NA,NA,NA,50.9056413,4.7035974,NA,NA,NA
TRUE,TRUE,"toestemming vragen Abdij van Park",NA,"y2nhotdk","26/9/24","YES","I_3001_7",NA,NA,"Scheers","Lentisch",NA,"Vlaams-Brabant","Leuven",3001,NA,NA,NA,50.8637529,4.7141723,NA,NA,NA
TRUE,TRUE,"Not free (ask permission?) Meer van Rotselaar","Rotselaar Meer","odi5ngi0","TBD","YES","I_3110_7",NA,NA,"Scheers","Lentisch",NA,"Vlaams-Brabant","Rotselaar",3110,NA,NA,NA,50.9597795,4.7292443,"Saey Frank",NA,"recreatie.vbr.anb@vlaanderen.be"
TRUE,TRUE,"ANB","Aspermansvijver","odcxnmmx",NA,"YES","I_3621_3",NA,NA,"Scheers","Lentisch",NA,"Limburg","Lanaken",3621,NA,NA,NA,50.93616,5.66344,"Jacobs Karen",NA,"recreatie.lim.anb@vlaanderen.be"
TRUE,TRUE,"Turnhout",NA,"mzk5yjmz","TBD","YES","I_2300_4",NA,NA,"Scheers","Lentisch",NA,"Antwerpen","Turnhout",2300,NA,NA,NA,51.3101635,4.9474125,NA,NA,NA
TRUE,TRUE,"Put van de Cloedt","Put van de Cloedt","nzlkmtvh","vanaf 15/9","YES","I_8300_9",NA,NA,"Scheers","Lentisch",NA,"West-Vlaanderen","Knokke-Heist",8300,NA,NA,NA,51.335653,3.2774769,NA,NA,NA
TRUE,TRUE,"Menen",NA,"zwjmmzmx","08/07/24","YES","I_8930_4",NA,NA,"Scheers","Lentisch",NA,"West-Vlaanderen","Menen",8930,NA,NA,NA,50.7971767,3.1236889,NA,NA,NA
TRUE,TRUE,"recreation area","Stationput","mdywmjc1","19/8/24","YES","I_8610_6","Veel vissers, niet ideaal",NA,"Scheers","Lentisch",NA,"West-Vlaanderen","Kortemark",8610,NA,NA,NA,51.0265682,3.0521241,NA,NA,NA
TRUE,TRUE,"Brakel",NA,"nwyxntuy","22/07/2024","YES","I_9660_4",NA,NA,"Scheers","Lentisch",NA,"Oost-Vlaanderen","Brakel",9660,NA,NA,NA,50.8033955,3.7572155,NA,NA,NA
TRUE,TRUE,"Dendermonde",NA,"zdexmmex","TBD","YES","I_9200_7",NA,NA,"Scheers","Lentisch",NA,"Oost-Vlaanderen","Dendermonde",9200,NA,NA,NA,51.0281661,4.1077832,NA,NA,NA
TRUE,TRUE,"Dendermonde",NA,"zdexmmex","TBD","YES","I_9200_8",NA,NA,"Scheers","Lentisch",NA,"Oost-Vlaanderen","Dendermonde",9200,NA,NA,NA,51.0255951,4.1035452,NA,NA,NA
TRUE,TRUE,NA,"Molenvijver","yjq4y2nh",NA,"YES","I_1640_2",NA,NA,"Scheers","Lentisch",NA,"Vlaams-Brabant","Sint-Genesius-Rode",1640,9,0,NA,50.7220474,4.3281399,"Huvenne Patrick",NA,"recreatie.vbr.anb@vlaanderen.be"
TRUE,TRUE,"Kortenberg",NA,"zja3zjyx","15/07/2024","YES","I_3070_1",NA,NA,"Scheers","Lentisch",NA,"Vlaams-Brabant","Kortenberg",3070,9,0,NA,50.8846604,4.5507054,NA,NA,NA
TRUE,TRUE,"Bilzen",NA,"zji2zgyw",NA,"YES","I_3740_6",NA,NA,"Scheers","Lentisch",NA,"Limburg","Bilzen",3740,NA,NA,NA,50.8633251,5.5139927,NA,NA,NA
TRUE,TRUE,"Izegem",NA,"zgqwyjrm","31/07/24","YES","I_8870_6",NA,NA,"Scheers","Lentisch",NA,"West-Vlaanderen","Izegem",8870,NA,NA,NA,50.9194813,3.2229803,"Dewulf Evy",NA,"recreatie.wvl.anb@vlaanderen.be"
TRUE,TRUE,"citadelpark",NA,"ownlnda3","TBD","YES","I_9000_8",NA,NA,"Scheers","Lentisch",NA,"Oost-Vlaanderen","Gent",9000,NA,NA,NA,51.0389914,3.7233503,NA,NA,NA
TRUE,TRUE,"recreation area, Provincial dom. Puyenbroeck",NA,"nweyoti0","TBD","YES","I_9185_8",NA,NA,"Scheers","Lentisch",NA,"Oost-Vlaanderen","Wachtebeke",9185,NA,NA,NA,51.1495342,3.8824034,NA,NA,NA
TRUE,TRUE,"Roeselarekreek","Roeselarekreek","nju4nzzh",NA,"YES","I_9982_11",NA,NA,"Scheers","Lentisch",NA,"Oost-Vlaanderen","Sint-Laureins",9982,NA,NA,NA,51.2691229,3.5608716,NA,NA,NA
TRUE,TRUE,"Kontich",NA,"otjhmjg3","TBD","YES","I_2550_2",NA,NA,"Scheers","Lentisch",NA,"Antwerpen","Kontich",2550,NA,NA,NA,51.1391208,4.4500527,NA,NA,NA
TRUE,TRUE,"Lint",NA,"zgi0mju3","09/24","YES","I_2547_1",NA,NA,"Scheers","Lentisch",NA,"Antwerpen","Lint",2547,NA,NA,NA,51.1273567,4.4924606,NA,NA,NA
TRUE,TRUE,"ANB F. limosus","Grote Vijver","zmvizjk1","5/8/24","YES","I_3520_8",NA,NA,"Scheers","Lentisch",NA,"Limburg","Zonhoven",3520,NA,NA,NA,50.9864473,5.3163818,"Saey Frank",NA,"recreatie.lim.anb@vlaanderen.be"
TRUE,TRUE,"wijnegem",NA,"nwqymjk4",NA,"YES","I_2110_1",NA,NA,"Scheers","Lentisch",NA,"Antwerpen","Wijnegem",2110,NA,NA,NA,51.2245608,4.5268978,NA,NA,NA
TRUE,TRUE,"ANB","Kanaalmeer","mwnhmtq1","14/10/2024","YES","I_2400_6",NA,NA,"Scheers","Lentisch",NA,"Antwerpen","Mol",2400,NA,NA,NA,51.230458,5.1813304,NA,NA,NA
TRUE,TRUE,NA,NA,"owe0mzg2","TBD","YES","I_9220_3",NA,NA,"Scheers","Lentisch",NA,"Oost-Vlaanderen","Hamme",9220,NA,NA,NA,51.0670983,4.1824636,NA,NA,NA
TRUE,TRUE,NA,NA,"zwjmmzmx","08/07/24","YES","I_8930_7",NA,NA,"Scheers","Lentisch",NA,"West-Vlaanderen","Menen",8930,NA,NA,NA,50.7945484,3.1120459,NA,NA,NA
TRUE,TRUE,NA,"Magdalenakreek","odjlnmu5",NA,"YES","I_8400_6",NA,NA,"Scheers","Lentisch",NA,"West-Vlaanderen","Oostende",8400,1,0,NA,51.1922989,2.9470413,"VMM",NA,"d.slootmaekers@vmm.be"
TRUE,TRUE,NA,NA,"odc4ztrj",NA,"YES","I_8377_1",NA,NA,"Scheers","Lentisch",NA,"West-Vlaanderen","Zuienkerke",8377,NA,NA,NA,51.258039,3.1818424,NA,NA,NA
TRUE,TRUE,NA,"Polderwind","odc4ztrj",NA,"YES","I_8377_2",NA,NA,"Scheers","Lentisch",NA,"West-Vlaanderen","Zuienkerke",8377,NA,NA,NA,51.2609007,3.1796315,NA,NA,NA
TRUE,TRUE,NA,NA,"ywyxmtey",NA,"YES","I_2920_10",NA,NA,"Scheers","Lentisch",NA,"Antwerpen","Kalmthout",2920,NA,NA,NA,51.3687658,4.4933663,NA,NA,NA
TRUE,TRUE,"Watermolen op de Winge","Winge","zjbmngyy","TBD","YES","V_3111_2",NA,NA,NA,"Lotisch",NA,"Vlaams-Brabant","Rotselaar",3111,1,0,NA,50.9370799,4.7730101,"VMM",NA,"d.slootmaekers@vmm.be"
TRUE,TRUE,NA,"Watering De Molenbeek","zjbmngyy","TBD","YES","I_3220_2",NA,NA,NA,NA,NA,"Vlaams-Brabant","Holsbeek",3220,NA,NA,NA,50.9343435,4.8303267,"Saey Frank",NA,"recreatie.vbr.anb@vlaanderen.be"
TRUE,TRUE,NA,NA,"nmvkndjl",NA,"YES","I_2900_3",NA,NA,NA,NA,NA,"Antwerpen","Schoten",2900,NA,NA,NA,51.2927059,4.5470864,NA,NA,NA
TRUE,TRUE,"Stationsstraat, Gruuthuyse kasteel","Rivierbeek",NA,"15/07/2024","YES","I_8020_1",NA,NA,"VMM_Mtp","Lotisch",NA,"West-Vlaanderen","Oostkamp",8020,1,28,NA,51.1530017,3.2531877,"VMM",NA,"d.slootmaekers@vmm.be"
TRUE,TRUE,NA,NA,"odzkzdmz","18/08/24","YES","I_8430_3",NA,NA,NA,NA,NA,"West-Vlaanderen","Middelkerke",8430,NA,NA,NA,51.1864522,2.8355339,NA,NA,NA
TRUE,TRUE,NA,"Brakeleiken ","mze2mza3","08/07/2024","NO","V_9940_17",NA,NA,NA,NA,NA,"Oost-Vlaanderen","Evergem",9940,NA,NA,NA,51.1449082,3.7079786,NA,NA,NA
TRUE,TRUE,"Den Dotter","Ter Erpenbeek","mjkyzjq3","24-07-2024","NO","V_9420_6",NA,NA,NA,NA,NA,"Oost-Vlaanderen","Erpe-Mere",9420,NA,NA,NA,50.9014834,3.9630626,NA,NA,NA
TRUE,TRUE,"Ter Eppenbeek","Ter Erpenbeek","mjkyzjq3","24-06-2024","NO","V_9450_2",NA,NA,NA,NA,NA,"Oost-Vlaanderen","Haaltert",9450,NA,NA,NA,50.88894,3.95116,NA,NA,NA
TRUE,TRUE,"Molenbeek",NA,"mjkyzjq3","24-06-2024","NO","V_9450_3",NA,NA,NA,NA,NA,"Oost-Vlaanderen","Haaltert",9450,NA,NA,NA,50.893729,4.02133,NA,NA,NA
TRUE,TRUE,"Molenbeek","Molenbeek","mjkyzjq3","24-06-2024","NO","V_9450_4",NA,NA,NA,NA,NA,"Oost-Vlaanderen","Haaltert",9450,NA,NA,NA,50.89703,4.03072,NA,NA,NA
TRUE,TRUE,"Hertsberg, Sterredreef","Blauwhuisbeek","ymzlmda2","TBD","YES","I_8020_3",NA,NA,"VMM_Mtp","Lotisch",NA,"West-Vlaanderen","Oostkamp",8020,1,927,NA,51.1025832,3.2575029,"VMM",NA,"d.slootmaekers@vmm.be"
TRUE,TRUE,NA,NA,"njbjymrl","08/07/24","NO","V_9140_5",NA,NA,NA,NA,NA,"Oost-Vlaanderen","Temse",9140,NA,NA,NA,51.1365283,4.1670574,NA,NA,NA
TRUE,TRUE,NA,"Spanjaardbeek","mdywmjc1",NA,"NO","V_8610_8",NA,NA,NA,NA,NA,"West-Vlaanderen","Kortemark",8610,NA,NA,NA,51.0286484,3.0580516,NA,NA,NA
TRUE,TRUE,NA,"Antitankgracht","odi3zti0","15/08/2024","NO","V_2930_7",NA,NA,NA,NA,NA,"Antwerpen","Brasschaat",2930,NA,NA,NA,51.3109534,4.525374,NA,NA,NA
TRUE,TRUE,NA,NA,"odi3zti0","15/08/2024","NO","V_2930_8",NA,NA,NA,NA,NA,"Antwerpen","Brasschaat",2930,NA,NA,NA,51.3142677,4.5322723,NA,NA,NA
TRUE,TRUE,"extra punt Kevin",NA,"ngi0ytux","TBD","YES","I_9200_13",NA,NA,NA,NA,NA,"Oost-Vlaanderen","Dendermonde",9200,NA,NA,NA,51.0517948,4.1226199,NA,NA,NA
TRUE,TRUE,NA,NA,"ntq0otk2","26/08/24","YES","I_9050_1",NA,NA,NA,NA,NA,"Oost-Vlaanderen","Gent",9050,NA,NA,NA,51.0351294,3.7511217,NA,NA,NA
TRUE,TRUE,NA,NA,"ntq0otk2","26/08/24","YES","I_9050_2",NA,NA,NA,NA,NA,"Oost-Vlaanderen","Gent",9050,NA,NA,NA,51.0375743,3.7602421,NA,NA,NA
TRUE,TRUE,"visvijver?",NA,"ngm2y2mw",NA,"YES","I_9000_9",NA,NA,NA,NA,NA,"Oost-Vlaanderen","Gent",9000,NA,NA,NA,51.0787438,3.719324,NA,NA,NA
TRUE,TRUE,"vijver speeltuin Ter Durmenpark",NA,"ngm2y2mw",NA,"YES","I_9032_1",NA,NA,NA,NA,NA,"Oost-Vlaanderen","Gent",9032,NA,NA,NA,51.0929578,3.702029,NA,NA,NA
TRUE,TRUE,"extra punt Kevin","Nieuwe Kale","ngm2y2mw",NA,"YES","I_9940_18",NA,NA,NA,NA,NA,"Oost-Vlaanderen","Evergem",9940,NA,NA,NA,51.1034925,3.6992643,NA,NA,NA
TRUE,TRUE,"Provinciedomein Kessel Lo",NA,"nzq2nzbh","29/07/2024","YES","I_3010_8",NA,NA,NA,NA,NA,"Vlaams-Brabant","Leuven",3010,NA,NA,NA,50.8931725,4.7201455,NA,NA,NA
TRUE,TRUE,"Provinciedomein Kessel Lo",NA,"nzq2nzbh","29/07/2024","YES","I_3010_9",NA,NA,NA,NA,NA,"Vlaams-Brabant","Leuven",3010,NA,NA,NA,50.8927698,4.7214705,NA,NA,NA
TRUE,TRUE,NA,"Provinciedomein Kessel Lo","nzq2nzbh","29/07/2024","YES","I_3010_10",NA,NA,NA,NA,NA,"Vlaams-Brabant","Leuven",3010,NA,NA,NA,50.8935525,4.7281685,NA,NA,NA
TRUE,TRUE,NA,NA,"zja3zjyx",NA,"NO","V_3078_1",NA,NA,NA,NA,NA,"Vlaams-Brabant","Kortenberg",3078,NA,NA,NA,50.8845868,4.5636599,NA,NA,NA
TRUE,TRUE,NA,"De Broeken","ngrkywmz",NA,"NO","V_3650_14","danny.klingeleers verwittigen",NA,NA,NA,NA,"Limburg","Dilsen-Stokkem",3650,NA,NA,NA,51.0681912,5.7355404,NA,NA,NA
TRUE,TRUE,"Zanderbeek","Zanderbeek","ngrkywmz","tbd","NO","V_3650_15",NA,NA,NA,NA,NA,"Limburg","Dilsen-Stokkem",3650,NA,NA,NA,51.076597,5.7354075,NA,NA,NA
TRUE,TRUE,NA,NA,"mmm4mzq3","TBD","NO","V_2222_4",NA,NA,NA,NA,NA,"Antwerpen","Heist-op-den-Berg",2222,NA,NA,NA,51.1215562,4.7002459,NA,NA,NA
TRUE,TRUE,"Poel dierenweide",NA,"nzq2nzbh","29/07/2024","NO","V_3010_11",NA,NA,NA,NA,NA,"Vlaams-Brabant","Leuven",3010,NA,NA,NA,50.8925625,4.7234119,NA,NA,NA
TRUE,TRUE,"Poel reservaat Lovenarenbroek",NA,"nzq2nzbh","29/07/2024","NO","V_3010_12",NA,NA,NA,NA,NA,"Vlaams-Brabant","Leuven",3010,NA,NA,NA,50.8935322,4.7215236,NA,NA,NA
TRUE,TRUE,"Bronbeek Provinciedomein",NA,"nzq2nzbh","29/07/2024","NO","V_3010_13",NA,NA,NA,NA,NA,"Vlaams-Brabant","Leuven",3010,NA,NA,NA,50.8938153,4.7201073,NA,NA,NA
TRUE,TRUE,"Tijdelijke plas parking Eénmeilaan",NA,"nzq2nzbh","29/07/2024","NO","V_3010_14",NA,NA,NA,NA,NA,"Vlaams-Brabant","Leuven",3010,NA,NA,NA,50.8964641,4.7177397,NA,NA,NA
TRUE,TRUE,NA,"Zelgaas","ztu0mthk","08/07/2024","NO","V_2440_11",NA,NA,NA,NA,NA,"Antwerpen","Geel",2440,NA,NA,NA,51.1724522,5.0423275,NA,NA,NA
TRUE,TRUE,NA,"Kanaal Dessel-Schoten","mzk5yjmz","TBD","NO","V_2300_6",NA,NA,NA,NA,NA,"Antwerpen","Turnhout",2300,NA,NA,NA,51.3274215,4.9160958,NA,NA,NA
TRUE,TRUE,NA,"Warmbeek","nthlmzez","TBD","NO","V_3910_11",NA,NA,NA,NA,NA,"Limburg","Pelt",3910,NA,NA,NA,51.2251145,5.492385,NA,NA,NA
TRUE,TRUE,"Kanaal van Beverlo",NA,"mwnhmtq1","TBD","NO","V_2490_3",NA,NA,NA,NA,NA,"Antwerpen","Balen",2490,NA,NA,NA,51.1533249,5.2511977,NA,NA,NA
TRUE,TRUE,"Vinderhoute,Bulken,Langendam","Merebeek","mzu1ode0",NA,"YES","I_9031_2",NA,NA,"VMM_Mtp","Lotisch",NA,"Oost-Vlaanderen","Gent",9031,1,402,NA,51.0822354,3.6543178,"VMM",NA,"d.slootmaekers@vmm.be"
TRUE,TRUE,NA,"Hof ter Zielbeek","zwuxmwy1","09/07/2024","NO","V_2870_7",NA,NA,NA,NA,NA,"Antwerpen","Puurs-Sint-Amands",2870,NA,NA,NA,51.0753132,4.3381038,NA,NA,NA
TRUE,TRUE,NA,"Watering De Herk","zwexnwe1","05/08/2024","YES","I_3511_4",NA,NA,NA,"Lotisch",NA,"Limburg","Hasselt",3511,2,0,NA,50.9652475,5.2918906,"Limburg",NA,"christel.bouchet@limburg.be"
TRUE,TRUE,NA,"Bruulbeek","mdrmnwjm",NA,"NO","V_3360_2","Privé, vrijwilliger heeft toestemming van eigenaar",NA,NA,NA,NA,"Vlaams-Brabant","Bierbeek",3360,NA,NA,NA,50.8488965,4.7973268,NA,NA,NA
TRUE,TRUE,NA,"Kleine Reigersbeek","zgvjogiw","TBD","NO","V_9800_18",NA,NA,NA,NA,NA,"Oost-Vlaanderen","Deinze",9800,NA,NA,NA,51.0160398,3.5349938,NA,NA,NA
TRUE,TRUE,NA,"Driesesloot","ytq0zwrk","TBD","NO","V_9260_3",NA,NA,NA,NA,NA,"Oost-Vlaanderen","Wichelen",9260,NA,NA,NA,51.023506,3.9293331,NA,NA,NA
TRUE,TRUE,"Griesbroek",NA,"nzzmzdm3","07/07/2024","NO","V_2490_5",NA,NA,NA,NA,NA,"Antwerpen","Balen",2490,NA,NA,NA,51.1516418,5.137815,NA,NA,NA
TRUE,TRUE,"Griesbroek visvijver",NA,"nzzmzdm3","07/07/2024","NO","V_2490_6",NA,NA,NA,NA,NA,"Antwerpen","Balen",2490,NA,NA,NA,51.1482402,5.1346492,NA,NA,NA
TRUE,TRUE,NA,NA,"otuwnjq5","21/07/24","YES","I_2340_2",NA,NA,NA,NA,NA,"Antwerpen","Beerse",2340,NA,NA,NA,51.3348974,4.8674389,NA,NA,NA
TRUE,TRUE,NA,NA,"ymjinme3","TBD","NO","V_3920_5",NA,NA,NA,NA,NA,"Limburg","Lommel",3920,NA,NA,NA,51.2654471,5.3623945,NA,NA,NA
TRUE,TRUE,NA,"Grote Nete","nzzmzdm3",NA,"NO","V_2491_1",NA,NA,NA,NA,NA,"Antwerpen","Balen",2491,NA,NA,NA,51.1470732,5.1343553,NA,NA,NA
TRUE,TRUE,NA,NA,"nzzmzdm3",NA,"NO","V_2491_2",NA,NA,NA,NA,NA,"Antwerpen","Balen",2491,NA,NA,NA,51.1460064,5.1341025,NA,NA,NA
TRUE,TRUE,NA,"Meersbeek","otnkzgi3","01/08/24","NO","V_9830_1",NA,NA,NA,NA,NA,"Oost-Vlaanderen","Sint-Martens-Latem",9830,NA,NA,NA,51.0271353,3.6291464,NA,NA,NA
TRUE,TRUE,NA,"Hooglatembeek","otnkzgi3","01/08/24","NO","V_9830_2",NA,NA,NA,NA,NA,"Oost-Vlaanderen","Sint-Martens-Latem",9830,NA,NA,NA,51.0083204,3.6397151,NA,NA,NA
TRUE,TRUE,NA,"Oude Netearm","ntvinwe1","09/09/24","YES","I_2840_4",NA,NA,NA,NA,NA,"Antwerpen","Rumst",2840,NA,NA,NA,51.0779516,4.4314065,NA,NA,NA
TRUE,TRUE,NA,"De Ham","nwixndkz","9/8/24","YES","I_9840_4",NA,NA,NA,NA,NA,"Oost-Vlaanderen","De Pinte",9840,NA,NA,NA,50.9789334,3.7041863,NA,NA,NA
TRUE,TRUE,NA,"Karpelput","nwixndkz","16/8/24","YES","I_9052_1","Karel Schoonvaere vraagt toestemming aan opzichter",NA,NA,NA,NA,"Oost-Vlaanderen","Gent",9052,NA,NA,NA,50.9874059,3.7175079,NA,NA,NA
TRUE,TRUE,NA,"Schelderodeput","mdu1yja5","16/08/24","YES","I_9820_8",NA,NA,NA,NA,NA,"Oost-Vlaanderen","Merelbeke",9820,NA,NA,NA,50.977823,3.7128887,NA,NA,NA
TRUE,TRUE,NA,"Kanaal Dessel-Schoten","mdq4mmy1","8/9/24","YES","I_2960_4",NA,NA,NA,NA,NA,"Antwerpen","Brecht",2960,NA,NA,NA,51.3360393,4.6535706,NA,NA,NA
TRUE,TRUE,NA,"Kanaal Gent-Brugge","otg3mza0",NA,"NO","V_8730_11",NA,NA,NA,NA,NA,"West-Vlaanderen","Beernem",8730,NA,NA,NA,51.1376902,3.3306563,NA,NA,NA
TRUE,TRUE,NA,"Ronselarebeek","zmrhymrm",NA,"NO","V_8000_6",NA,NA,NA,NA,NA,"West-Vlaanderen","Brugge",8000,NA,NA,NA,51.257102,3.252708,NA,NA,NA
TRUE,TRUE,NA,"Wallemotte","nzi3zgyy","31/07/2024","NO","V_8870_7",NA,NA,NA,NA,NA,"West-Vlaanderen","Izegem",8870,NA,NA,NA,50.9080607,3.1911835,NA,NA,NA
TRUE,TRUE,NA,"Abeek","ztnhyzk1","TBD","NO","V_3640_15",NA,NA,NA,NA,NA,"Limburg","Kinrooi",3640,NA,NA,NA,51.162806,5.741083,NA,NA,NA
TRUE,TRUE,NA,NA,"nzzmzdm3",NA,"NO","V_2491_3",NA,NA,NA,NA,NA,"Antwerpen","Balen",2491,NA,NA,NA,51.1461648,5.1410524,NA,NA,NA
TRUE,TRUE,NA,NA,"nzzmzdm3",NA,"NO","V_2491_4",NA,NA,NA,NA,NA,"Antwerpen","Balen",2491,NA,NA,NA,51.1458209,5.1421366,NA,NA,NA
TRUE,TRUE,NA,"Vogelzang","zdvjmdzk",NA,"YES","I_2020_1",NA,NA,NA,NA,NA,"Antwerpen","Antwerpen",2020,NA,NA,NA,51.18664,4.40863,NA,NA,NA
TRUE,TRUE,"gracht rond Middelheimmuseum",NA,"zdvjmdzk",NA,"YES","I_2020_2",NA,NA,NA,NA,NA,"Antwerpen","Antwerpen",2020,NA,NA,NA,51.17985,4.4122,NA,NA,NA
TRUE,TRUE,NA,"Hollebeek","ymjlzwe4",NA,"NO","V_2610_4",NA,NA,NA,NA,NA,"Antwerpen","Antwerpen",2610,NA,NA,NA,51.181113,4.3731417,NA,NA,NA
TRUE,TRUE,NA,NA,"nzzmzdm3",NA,"NO","V_2491_5",NA,NA,NA,NA,NA,"Antwerpen","Balen",2491,NA,NA,NA,51.1448134,5.1286907,"Quintens Hildegarde",NA,"recreatie.ant.anb@vlaanderen.be"
TRUE,TRUE,NA,NA,"nzzmzdm3",NA,"NO","V_2491_6",NA,NA,NA,NA,NA,"Antwerpen","Balen",2491,NA,NA,NA,51.1436651,5.1272898,"Quintens Hildegarde",NA,"recreatie.ant.anb@vlaanderen.be"
TRUE,TRUE,NA,"Grote Calie","yjq0ntkw","26/8/24","YES","I_2460_10",NA,NA,NA,NA,NA,"Antwerpen","Kasterlee",2460,NA,NA,NA,51.2440713,4.9130423,NA,NA,NA
TRUE,TRUE,NA,"Halfwegloop","ztyxmjnj","10/8/24","NO","V_2450_2",NA,NA,NA,NA,NA,"Antwerpen","Meerhout",2450,NA,NA,NA,51.1141588,5.0649552,NA,NA,NA
TRUE,TRUE,NA,"Krommenhoek","nwixndkz","23/8/24","NO","V_9840_5",NA,NA,NA,NA,NA,"Oost-Vlaanderen","De Pinte",9840,NA,NA,NA,50.973235,3.700994,NA,NA,NA
TRUE,TRUE,NA,"Meersbloemvijver ","yzq0m2yw","TBD","YES","I_9052_2","beheer NP (zie Karel Schoonvaere)",NA,NA,NA,NA,"Oost-Vlaanderen","Gent",9052,NA,NA,NA,50.985202,3.716197,NA,NA,NA
TRUE,TRUE,NA,"De Spanjaard","yzq0m2yw","TBD","YES","I_9840_6","beheer NP, check met Karel Schoonvaere",NA,NA,NA,NA,"Oost-Vlaanderen","De Pinte",9840,NA,NA,NA,50.980918,3.707763,NA,NA,NA
TRUE,TRUE,"Bezoekerscentrum De Wulp",NA,"mdflzwm0",NA,"YES","I_3910_13",NA,NA,NA,NA,NA,"Limburg","Pelt",3910,NA,NA,NA,51.248411,5.41703,NA,NA,NA
TRUE,TRUE,NA,"Melsenbeek ","mdu1yja5","16/08/24","NO","V_9820_9",NA,NA,NA,NA,NA,"Oost-Vlaanderen","Merelbeke",9820,NA,NA,NA,50.972361,3.711361,NA,NA,NA
TRUE,TRUE,"Kleine Hoofdgracht","Kleine Hoofdgracht","nzzmzdm3","2/8/24","NO","V_2490_7",NA,NA,NA,NA,NA,"Antwerpen","Balen",2490,NA,NA,NA,51.172775,5.243459,"Quintens Hildegarde",NA,"recreatie.ant.anb@vlaanderen.be"
TRUE,TRUE,NA,NA,"nzzmzdm3","2/8/24","NO","V_2490_8",NA,NA,NA,NA,NA,"Antwerpen","Balen",2490,NA,NA,NA,51.17374,5.244323,"Quintens Hildegarde",NA,"recreatie.ant.anb@vlaanderen.be"
TRUE,TRUE,NA,"Middelbeek","nwnizjfi","26/8","NO","V_3290_13",NA,NA,NA,NA,NA,"Vlaams-Brabant","Diest",3290,NA,NA,NA,51.031589,5.112287,NA,NA,NA
TRUE,TRUE,NA,"Steengote","mtm4ytcx","TBD","NO","V_9240_5",NA,NA,NA,NA,NA,"Oost-Vlaanderen","Zele",9240,NA,NA,NA,51.062782,4.081158,NA,NA,NA
TRUE,TRUE,NA,"Watering Oude Kale en Meirebeek","ytbmntfk",NA,"YES","I_9920_5",NA,NA,NA,NA,NA,"Oost-Vlaanderen","Lievegem",9920,NA,NA,NA,51.088417,3.620158,NA,NA,NA
TRUE,TRUE,NA,NA,"owe0mzg2","TBD","YES","I_9220_9",NA,NA,NA,NA,NA,"Oost-Vlaanderen","Hamme",9220,NA,NA,NA,51.0588728,4.1719219,NA,NA,NA
TRUE,TRUE,NA,NA,"y2y0zdvk","30/08/24","YES","I_2400_8",NA,NA,NA,NA,NA,"Antwerpen","Mol",2400,NA,NA,NA,51.2138313,5.0524223,NA,NA,NA
TRUE,TRUE,NA,"Hazebeek","ymmznwu5","16/9/24","YES","I_8531_3",NA,NA,NA,NA,NA,"West-Vlaanderen","Harelbeke",8531,NA,NA,NA,50.8782849,3.3224979,"Coppens Xavier",NA,"recreatie.wvl.anb@vlaanderen.be"
TRUE,TRUE,NA,NA,"mdflzwm0",NA,"NO","V_3910_14",NA,NA,NA,NA,NA,"Limburg","Pelt",3910,NA,NA,NA,51.249836,5.416268,NA,NA,NA
TRUE,TRUE,NA,NA,"nzzmzdm3",NA,"NO","V_2490_9",NA,NA,NA,NA,NA,"Antwerpen","Balen",2490,NA,NA,NA,51.1735,5.2527,"Quintens Hildegarde",NA,"recreatie.ant.anb@vlaanderen.be"
TRUE,TRUE,NA,NA,"nzzmzdm3",NA,"NO","V_2490_10",NA,NA,NA,NA,NA,"Antwerpen","Balen",2490,NA,NA,NA,51.1731,5.2541,"Quintens Hildegarde",NA,"recreatie.ant.anb@vlaanderen.be"
TRUE,TRUE,NA,"Abeek","mznknjaw","28/08/24","YES","I_3640_16",NA,NA,NA,NA,NA,"Limburg","Kinrooi",3640,NA,NA,NA,51.15276,5.75201,NA,NA,NA
TRUE,TRUE,NA,"Abeek","mznknjaw","TBD","YES","I_3640_17",NA,NA,NA,NA,NA,"Limburg","Kinrooi",3640,NA,NA,NA,51.158444,5.705841,NA,NA,NA
TRUE,TRUE,NA,"Zenne","mzc3ytq4",NA,"YES","I_1501_1",NA,NA,NA,NA,NA,"Vlaams-Brabant","Halle",1501,NA,NA,NA,50.744739,4.25021,NA,NA,NA
TRUE,TRUE,NA,"Molenbeek","mzc3ytq4",NA,"YES","I_1654_2",NA,NA,NA,NA,NA,"Vlaams-Brabant","Beersel",1654,NA,NA,NA,50.7562888,4.2657595,NA,NA,NA
TRUE,TRUE,NA,"Mollebeek","mzc3ytq4",NA,"YES","I_1502_4",NA,NA,NA,NA,NA,"Vlaams-Brabant","Halle",1502,NA,NA,NA,50.7128,4.233401,"Huvenne Patrick",NA,"recreatie.vbr.anb@vlaanderen.be"
TRUE,TRUE,NA,"Mark","yjbhmzzi","1-14/09","NO","V_1570_2",NA,NA,NA,NA,NA,"Vlaams-Brabant","Galmaarden",1570,NA,NA,NA,50.749083,3.995619,NA,NA,NA
TRUE,TRUE,NA,"Scheibeek","yjbhmzzi","1-14/09","YES","I_1570_3",NA,NA,NA,NA,NA,"Vlaams-Brabant","Galmaarden",1570,NA,NA,NA,50.739314,4.024344,NA,NA,NA
TRUE,TRUE,NA,NA,"y2zhzmy3",NA,"NO","V_9220_10",NA,NA,NA,NA,NA,"Oost-Vlaanderen","Hamme",9220,NA,NA,NA,51.074298,4.175564,NA,NA,NA
TRUE,TRUE,NA,"Volkaardebeek","mdm5y2i4",NA,"NO","V_9200_16","land v Bert Verbist",NA,NA,NA,NA,"Oost-Vlaanderen","Dendermonde",9200,NA,NA,NA,51.045801,4.114733,NA,NA,NA
TRUE,TRUE,NA,"Watering Het Grootbroek","n2jjztbi","16/9/24","NO","V_3680_9",NA,NA,NA,NA,NA,"Limburg","Maaseik",3680,NA,NA,NA,51.1079436,5.7416987,NA,NA,NA
TRUE,TRUE,NA,"Witbeek","n2jjztbi","16/9/24","YES","I_3680_10",NA,NA,NA,NA,NA,"Limburg","Maaseik",3680,NA,NA,NA,51.091363,5.713723,NA,NA,NA
TRUE,TRUE,NA,NA,"ngi0ytux","TBD","NO","V_9200_19",NA,NA,NA,NA,NA,"Oost-Vlaanderen","Dendermonde",9200,NA,NA,NA,51.026945,4.042212,"Coppens Xavier",NA,"recreatie.ovl.anb@vlaanderen.be"
TRUE,TRUE,NA,"Vlassenbroekse polder","ngi0ytux","TBD","NO","V_9200_20",NA,NA,NA,NA,NA,"Oost-Vlaanderen","Dendermonde",9200,NA,NA,NA,51.055074,4.13485,NA,NA,NA
TRUE,TRUE,NA,"Kanaal Dessel-Schoten","zde4odbk","eind aug","YES","I_2380_1",NA,NA,NA,NA,NA,"Antwerpen","Ravels",2380,NA,NA,NA,51.359158,4.997395,NA,NA,NA
TRUE,TRUE,NA,"Durme","mjqzogvi","TBD","YES","I_9160_12",NA,NA,NA,NA,NA,"Oost-Vlaanderen","Lokeren",9160,NA,NA,NA,51.108478,3.99197,NA,NA,NA
TRUE,TRUE,NA,"Isabellavaart","ntvlndrm","30/9","YES","I_8301_3",NA,NA,NA,NA,NA,"West-Vlaanderen","Knokke-Heist",8301,NA,NA,NA,51.328525,3.262212,NA,NA,NA
TRUE,TRUE,NA,NA,"ntvlndrm","09/09/24","YES","I_8380_2",NA,NA,NA,NA,NA,"West-Vlaanderen","Brugge",8380,NA,NA,NA,51.2917,3.246988,NA,NA,NA
TRUE,TRUE,NA,"Lisseweegs Vaartje","ntvlndrm","TBD","YES","I_8380_3",NA,NA,NA,NA,NA,"West-Vlaanderen","Brugge",8380,NA,NA,NA,51.267951,3.195695,NA,NA,NA
TRUE,TRUE,NA,"Grote Nete","nzzmzdm3",NA,"NO","V_2490_11",NA,NA,NA,NA,NA,"Antwerpen","Balen",2490,NA,NA,NA,51.152,5.182,"Quintens Hildegarde",NA,"recreatie.ant.anb@vlaanderen.be"
TRUE,TRUE,NA,NA,"nzzmzdm3",NA,"NO","V_2490_12",NA,NA,NA,NA,NA,"Antwerpen","Balen",2490,NA,NA,NA,51.154,5.178,"Quintens Hildegarde",NA,"recreatie.ant.anb@vlaanderen.be"
TRUE,TRUE,NA,"Westledebeek","nwe4m2ex","02/09/2024","YES","I_9080_5",NA,NA,NA,NA,NA,"Oost-Vlaanderen","Lochristi",9080,NA,NA,NA,51.10588,3.82476,NA,NA,NA
TRUE,TRUE,NA,"Meander Hoolstmolen","ymfmywyx","01/09/24","YES","I_2491_7",NA,NA,NA,NA,NA,"Antwerpen","Balen",2491,NA,NA,NA,51.150198,5.151801,NA,NA,NA
TRUE,TRUE,NA,"Vliet","mthjnmy5","09/09/24","YES","I_2880_12",NA,NA,NA,NA,NA,"Antwerpen","Bornem",2880,NA,NA,NA,51.092545,4.3127155,NA,NA,NA
TRUE,TRUE,NA,"Antitankgracht","zjkwzmrj","TBD","YES","I_2520_8",NA,NA,NA,NA,NA,"Antwerpen","Ranst",2520,NA,NA,NA,51.210439,4.615385,NA,NA,NA
TRUE,TRUE,NA,NA,"njixzjg3","12/09/24","NO","V_2330_4",NA,NA,NA,NA,NA,"Antwerpen","Merksplas",2330,NA,NA,NA,51.3792635,4.8833541,NA,NA,NA
TRUE,TRUE,NA,NA,"njixzjg3","12/09/24","NO","V_2381_7",NA,NA,NA,NA,NA,"Antwerpen","Ravels",2381,NA,NA,NA,51.392528,4.969778,NA,NA,NA
TRUE,TRUE,NA,"Bosbeek","ndlmngu0","2e helft sept","YES","I_9180_11",NA,NA,NA,NA,NA,"Oost-Vlaanderen","Moerbeke",9180,NA,NA,NA,51.162451,3.948537,NA,NA,NA
TRUE,TRUE,NA,NA,"mdm4oge4",NA,"NO","V_2830_7",NA,NA,NA,NA,NA,"Antwerpen","Willebroek",2830,NA,NA,NA,51.0757642,4.3744873,NA,NA,NA
TRUE,TRUE,NA,"Mesureput","zgexogy3",NA,"NO","V_9750_6",NA,NA,NA,NA,NA,"Oost-Vlaanderen","Kruisem",9750,NA,NA,NA,50.903171,3.685047,NA,NA,NA
TRUE,TRUE,NA,NA,"mdm4oge4",NA,"NO","V_2850_1",NA,NA,NA,NA,NA,"Antwerpen","Boom",2850,NA,NA,NA,51.091341,4.3834673,NA,NA,NA
TRUE,TRUE,NA,NA,"mdm4oge4",NA,"NO","V_2800_9",NA,NA,NA,NA,NA,"Antwerpen","Mechelen",2800,NA,NA,NA,51.0227107,4.4550347,NA,NA,NA
TRUE,TRUE,NA,"Prinsenpark","mwi0nmni","01/10/24","NO","V_2470_2",NA,NA,NA,NA,NA,"Antwerpen","Retie",2470,NA,NA,NA,51.22879,5.038109,NA,NA,NA
TRUE,TRUE,NA,"Prinsenpark","mwi0nmni","01/10/24","NO","V_2470_3",NA,NA,NA,NA,NA,"Antwerpen","Retie",2470,NA,NA,NA,51.224666,5.045138,NA,NA,NA
TRUE,TRUE,NA,"Scheldebroeken","ngvimgq2","TBD","YES","I_9240_6",NA,NA,NA,NA,NA,"Oost-Vlaanderen","Zele",9240,NA,NA,NA,51.039,4.041855,NA,NA,NA
TRUE,TRUE,NA,"Dambeek","ngvimgq2","TBD","YES","I_9290_5",NA,NA,NA,NA,NA,"Oost-Vlaanderen","Berlare",9290,NA,NA,NA,51.024045,4.033699,NA,NA,NA
TRUE,TRUE,NA,NA,"ngvimgq2","TBD","YES","I_9200_21",NA,NA,NA,NA,NA,"Oost-Vlaanderen","Dendermonde",9200,NA,NA,NA,51.043378,4.119151,NA,NA,NA
TRUE,TRUE,NA,NA,"mzk5yjmz",NA,"NO","V_2300_7",NA,NA,NA,NA,NA,"Antwerpen","Turnhout",2300,NA,NA,NA,51.3590129,4.9624728,NA,NA,NA
TRUE,TRUE,NA,NA,"yzc5zdbk",NA,"NO","V_2650_4",NA,NA,NA,NA,NA,"Antwerpen","Edegem",2650,NA,NA,NA,51.156389,4.405889,NA,NA,NA
TRUE,TRUE,NA,"Grote Astbeek","otblmwjl","TBD","NO","V_9250_3",NA,NA,NA,NA,NA,"Oost-Vlaanderen","Waasmunster",9250,NA,NA,NA,51.1370644,4.039342,NA,NA,NA
TRUE,TRUE,NA,"Zuunbeek","otyyyjk1","09/24","YES","I_1600_9",NA,NA,NA,NA,NA,"Vlaams-Brabant","Sint-Pieters-Leeuw",1600,NA,NA,NA,50.783287,4.242457,NA,NA,NA
TRUE,TRUE,NA,NA,"ztnjowu1",NA,"YES","I_2930_10",NA,NA,NA,NA,NA,"Antwerpen","Brasschaat",2930,NA,NA,NA,51.2870106,4.5002058,NA,NA,NA
TRUE,TRUE,NA,NA,"nzzmzdm3","17/08/24","NO","V_2490_13",NA,NA,NA,NA,NA,"Antwerpen","Balen",2490,NA,NA,NA,51.15089,5.188153,"Quintens Hildegarde",NA,"recreatie.ant.anb@vlaanderen.be"
TRUE,TRUE,NA,NA,"nzzmzdm3","17/08/24","NO","V_2490_14",NA,NA,NA,NA,NA,"Antwerpen","Balen",2490,NA,NA,NA,51.150688,5.187034,"Quintens Hildegarde",NA,"recreatie.ant.anb@vlaanderen.be"
TRUE,TRUE,NA,"Kruisilader","otqwzjhi","09/09/24","YES","I_8377_3",NA,NA,NA,NA,NA,"West-Vlaanderen","Zuienkerke",8377,NA,NA,NA,51.269943,3.153608,NA,NA,NA
TRUE,TRUE,NA,"Blankenbergse Vaart","otqwzjhi","09/09/24","YES","I_8377_4",NA,NA,NA,NA,NA,"West-Vlaanderen","Zuienkerke",8377,NA,NA,NA,51.26219,3.134494,NA,NA,NA
TRUE,TRUE,NA,"Bommelzwin","otqwzjhi","09/09/24","YES","I_8377_5",NA,NA,NA,NA,NA,"West-Vlaanderen","Zuienkerke",8377,NA,NA,NA,51.281888,3.089738,NA,NA,NA
TRUE,TRUE,NA,"Brugse Vaart","nmm1ndmy","09/24","NO","V_9030_2",NA,NA,NA,NA,NA,"Oost-Vlaanderen","Gent",9030,NA,NA,NA,51.078167,3.676972,NA,NA,NA
TRUE,TRUE,NA,"Kruisilader","zgiwntyy","TBD","NO","V_8380_4",NA,NA,NA,NA,NA,"West-Vlaanderen","Brugge",8380,NA,NA,NA,51.289472,3.173519,NA,NA,NA
TRUE,TRUE,NA,"Lisseweegs Vaartje","yjywyjhi","05/09/24","YES","I_8380_5",NA,NA,NA,NA,NA,"West-Vlaanderen","Brugge",8380,NA,NA,NA,51.3007178,3.1969685,NA,NA,NA
TRUE,TRUE,NA,"Grote Nete","yjbjnzi1","TBD","NO","V_2235_3",NA,NA,NA,NA,NA,"Antwerpen","Hulshout",2235,NA,NA,NA,51.0618265,4.7866473,NA,NA,NA
TRUE,TRUE,NA,"Grootgeleed","odjlnmu5","TBD","NO","V_8470_5",NA,NA,NA,NA,NA,"West-Vlaanderen","Gistel",8470,NA,NA,NA,51.141675,2.9534261,NA,NA,NA
TRUE,TRUE,NA,"Oostveergote","ndriztk0","TBD","NO","V_9240_7",NA,NA,NA,NA,NA,"Oost-Vlaanderen","Zele",9240,NA,NA,NA,51.0505283,4.0453895,NA,NA,NA
TRUE,TRUE,NA,"Desselse Neet","zgu4nzuz","TBD","NO","V_2470_4",NA,NA,NA,NA,NA,"Antwerpen","Dessel",2470,NA,NA,NA,51.2565851,5.1060183,NA,NA,NA
TRUE,TRUE,NA,"Olentgracht","njgyytiw","TBD","YES","I_9180_13",NA,NA,NA,NA,NA,"Oost-Vlaanderen","Moerbeke",9180,NA,NA,NA,51.144841,3.9301138,NA,NA,NA
TRUE,TRUE,NA,NA,"odzkzdmz","24/08/2024","YES","I_8433_5",NA,NA,NA,NA,NA,"West-Vlaanderen","Middelkerke",8433,NA,NA,NA,51.152667,2.802804,NA,NA,NA
TRUE,TRUE,NA,"Reygaertsvliet","odzkzdmz","24/08/2024","YES","I_8433_6",NA,NA,NA,NA,NA,"West-Vlaanderen","Middelkerke",8433,NA,NA,NA,51.147644,2.807004,NA,NA,NA
TRUE,TRUE,NA,"Vliet","njm2yzlk","TBD","YES","I_2880_13",NA,NA,NA,NA,NA,"Antwerpen","Bornem",2880,NA,NA,NA,51.0836332,4.2890212,NA,NA,NA
TRUE,TRUE,NA,"Koningsbeek","njm2yzlk","TBD","YES","I_2870_8",NA,NA,NA,NA,NA,"Antwerpen","Puurs-Sint-Amands",2870,NA,NA,NA,51.0804692,4.2672169,NA,NA,NA
TRUE,TRUE,NA,"Vliet","njm2yzlk","TBD","YES","I_2870_9",NA,NA,NA,NA,NA,"Antwerpen","Puurs-Sint-Amands",2870,NA,NA,NA,51.072554,4.2699231,NA,NA,NA
TRUE,TRUE,NA,"Dijle","odi5ngi0","TBD","NO","V_2800_10",NA,NA,NA,NA,NA,"Antwerpen","Mechelen",2800,NA,NA,NA,51.0196563,4.5018692,NA,NA,NA
TRUE,TRUE,NA,"Zonneputje","yzq0m2yw","TBD","NO","V_9052_6",NA,NA,NA,NA,NA,"Oost-Vlaanderen","Gent",9052,NA,NA,NA,50.993863,3.721124,NA,NA,NA
TRUE,TRUE,NA,NA,"ytvimtiz","28/08/24","NO","V_9890_8",NA,NA,NA,NA,NA,"Oost-Vlaanderen","Gavere",9890,NA,NA,NA,50.922205,3.662712,NA,NA,NA
TRUE,TRUE,NA,NA,"mznknjaw","05/09/24","NO","V_3640_18",NA,NA,NA,NA,NA,"Limburg","Kinrooi",3640,NA,NA,NA,51.181501,5.74537,NA,NA,NA
TRUE,TRUE,NA,"Watering Het Grootbroek","mznknjaw",NA,"NO","V_3640_19",NA,NA,NA,NA,NA,"Limburg","Kinrooi",3640,NA,NA,NA,51.155334,5.75214,NA,NA,NA
TRUE,TRUE,NA,"Watering Het Grootbroek","mznknjaw","16/9/24","NO","V_3640_20",NA,NA,NA,NA,NA,"Limburg","Kinrooi",3640,NA,NA,NA,51.167457,5.760667,NA,NA,NA
TRUE,TRUE,NA,"Kleine Struisbeek","yzc5zdbk",NA,"NO","V_2650_5",NA,NA,NA,NA,NA,"Antwerpen","Edegem",2650,NA,NA,NA,51.1566837,4.4045428,NA,NA,NA
TRUE,TRUE,NA,"Grote Nete","nzzmzdm3",NA,"NO","V_2491_8",NA,NA,NA,NA,NA,"Antwerpen","Balen",2491,NA,NA,NA,51.150153,5.149361,NA,NA,NA
TRUE,TRUE,NA,NA,"nzzmzdm3",NA,"NO","V_2490_15",NA,NA,NA,NA,NA,"Antwerpen","Balen",2490,NA,NA,NA,51.151999,5.146447,NA,NA,NA
TRUE,TRUE,NA,"Watering De Dommelvallei","mdflzwm0",NA,"NO","V_3900_5",NA,NA,NA,NA,NA,"Limburg","Pelt",3900,NA,NA,NA,51.203514,5.37853,NA,NA,NA
TRUE,TRUE,NA,"Watering De Dommelvallei","mdflzwm0",NA,"NO","V_3900_6",NA,NA,NA,NA,NA,"Limburg","Pelt",3900,NA,NA,NA,51.208177,5.395103,NA,NA,NA
TRUE,TRUE,NA,NA,"mtfizjjh",NA,"NO","V_9051_3",NA,NA,NA,NA,NA,"Oost-Vlaanderen","Gent",9051,NA,NA,NA,51.035853,3.667529,NA,NA,NA
TRUE,TRUE,NA,"Windgatbeek","mdm5y2i4",NA,"NO","V_9280_3",NA,NA,NA,NA,NA,"Oost-Vlaanderen","Lebbeke",9280,NA,NA,NA,50.999601,4.086909,NA,NA,NA
TRUE,TRUE,NA,NA,"odhmndaz",NA,"NO","V_2500_11",NA,NA,NA,NA,NA,"Antwerpen","Lier",2500,NA,NA,NA,51.1091667,4.5272222,NA,NA,NA
TRUE,TRUE,NA,NA,"ogzjzmq2","28/9-12/10","NO","V_2547_2",NA,NA,NA,NA,NA,"Antwerpen","Lint",2547,NA,NA,NA,51.1315278,4.5038056,NA,NA,NA
TRUE,TRUE,NA,"Winge","owuwmwnj",NA,"NO","V_3111_3",NA,NA,NA,NA,NA,"Vlaams-Brabant","Rotselaar",3111,NA,NA,NA,50.952033,4.733064,NA,NA,NA
TRUE,TRUE,NA,NA,"ngnlmjhi",NA,"YES","I_9255_2",NA,NA,NA,NA,NA,"Oost-Vlaanderen","Buggenhout",9255,NA,NA,NA,50.989417,4.164278,NA,NA,NA
TRUE,TRUE,NA,NA,"mdflzwm0",NA,"NO","V_3910_15",NA,NA,NA,NA,NA,"Limburg","Pelt",3910,NA,NA,NA,51.235493,5.409433,NA,NA,NA
TRUE,TRUE,NA,NA,"mdflzwm0",NA,"NO","V_3920_6",NA,NA,NA,NA,NA,"Limburg","Lommel",3920,NA,NA,NA,51.2551739,5.4090747,NA,NA,NA
TRUE,TRUE,NA,"Voorgracht","nzi4mtm4","19/8/22","YES","I_2180_1",NA,NA,"VMM_Mtp","Lotisch",NA,"Antwerpen","Antwerpen",2180,1,3104,NA,51.3017677,4.3725453,"VMM",NA,"d.slootmaekers@vmm.be"
TRUE,TRUE,NA,"Onledebeek","mjywyjqx","19/9","NO","V_8800_7",NA,NA,NA,NA,NA,"West-Vlaanderen","Roeselare",8800,NA,NA,NA,50.981917,3.136361,NA,NA,NA
TRUE,TRUE,NA,"Antitankgracht","nzi4mtm4","2/10/24","NO","V_2950_3",NA,NA,NA,NA,NA,"Antwerpen","Kapellen",2950,NA,NA,NA,51.3341307,4.4706952,NA,NA,NA
TRUE,TRUE,NA,NA,"mdm4oge4",NA,"NO","V_2850_2",NA,NA,NA,NA,NA,"Antwerpen","Boom",2850,NA,NA,NA,51.0878472,4.3800916,NA,NA,NA
TRUE,TRUE,NA,NA,"mdm4oge4",NA,"NO","V_2850_3",NA,NA,NA,NA,NA,"Antwerpen","Boom",2850,NA,NA,NA,51.087015,4.3842758,NA,NA,NA
TRUE,TRUE,NA,"Sint Andrieszwin","zwzhotbm",NA,"NO","V_8000_7",NA,NA,NA,NA,NA,"West-Vlaanderen","Brugge",8000,NA,NA,NA,51.2170345,3.1436378,NA,NA,NA
TRUE,TRUE,NA,"Roeivijver","njiyn2yx",NA,"NO","V_2100_6",NA,NA,NA,NA,NA,"Antwerpen","Antwerpen",2100,NA,NA,NA,51.214583,4.473083,NA,NA,NA
TRUE,TRUE,NA,"Ter Erpenbeek","mjkyzjq3",NA,"YES","I_9450_5",NA,NA,NA,NA,NA,"Oost-Vlaanderen","Erpe-Mere",9450,NA,NA,NA,50.893008,3.957963,NA,NA,NA
TRUE,TRUE,NA,NA,"mjkyzjq3",NA,"YES","I_9450_6",NA,NA,NA,NA,NA,"Oost-Vlaanderen","Haaltert",9450,NA,NA,NA,50.894599,4.022742,NA,NA,NA
TRUE,TRUE,NA,NA,"mjkyzjq3",NA,"YES","I_9450_7",NA,NA,NA,NA,NA,"Oost-Vlaanderen","Haaltert",9450,NA,NA,NA,50.886731,4.029902,NA,NA,NA
TRUE,TRUE,NA,NA,"mjkyzjq3",NA,"YES","I_9450_8",NA,NA,NA,NA,NA,"Oost-Vlaanderen","Haaltert",9450,NA,NA,NA,50.858793,4.022645,NA,NA,NA
TRUE,TRUE,NA,NA,"mjkyzjq3",NA,"YES","I_9472_1",NA,NA,NA,NA,NA,"Oost-Vlaanderen","Denderleeuw",9472,NA,NA,NA,50.8703149,4.0428962,NA,NA,NA
TRUE,TRUE,NA,NA,"yjdkn2u5",NA,"NO","V_3000_4",NA,NA,NA,NA,NA,"Vlaams-Brabant","Leuven",3000,NA,NA,NA,50.861222,4.738139,NA,NA,NA
TRUE,TRUE,NA,NA,"nzzmzdm3",NA,"NO","V_3920_7",NA,NA,NA,NA,NA,"Limburg","Lommel",3920,NA,NA,NA,51.1831977,5.2650075,NA,NA,NA
TRUE,TRUE,NA,NA,"nzzmzdm3",NA,"NO","V_3920_8",NA,NA,NA,NA,NA,"Limburg","Lommel",3920,NA,NA,NA,51.182752,5.2653307,NA,NA,NA
TRUE,TRUE,NA,"Spiegelvijver","njiyn2yx",NA,"NO","V_2100_7",NA,NA,NA,NA,NA,"Antwerpen","Antwerpen",2100,NA,NA,NA,51.216667,4.468611,NA,NA,NA
TRUE,TRUE,NA,NA,"njiyn2yx",NA,"NO","V_2100_8",NA,NA,NA,NA,NA,"Antwerpen","Antwerpen",2100,NA,NA,NA,51.216,4.465694,NA,NA,NA
TRUE,TRUE,NA,"Leie","yzc4njmw",NA,"NO","V_9800_19",NA,NA,NA,NA,NA,"Oost-Vlaanderen","Deinze",9800,NA,NA,NA,50.9917051,3.5709575,NA,NA,NA
TRUE,TRUE,NA,NA,"owm2ywvi",NA,"NO","V_3550_10",NA,NA,NA,NA,NA,"Limburg","Heusden-Zolder",3550,NA,NA,NA,50.9973821,5.2711361,NA,NA,NA
TRUE,TRUE,NA,NA,"owm2ywvi",NA,"NO","V_3550_11",NA,NA,NA,NA,NA,"Limburg","Heusden-Zolder",3550,NA,NA,NA,50.9976814,5.271577,NA,NA,NA
TRUE,TRUE,NA,NA,"mwnhmtq1",NA,"NO","V_3970_1",NA,NA,NA,NA,NA,"Limburg","Leopoldsburg",3970,NA,NA,NA,51.1322606,5.2439153,NA,NA,NA
TRUE,TRUE,NA,NA,"mdflzwm0",NA,"NO","V_3920_9",NA,NA,NA,NA,NA,"Limburg","Lommel",3920,NA,NA,NA,51.2568454,5.3933986,NA,NA,NA
TRUE,TRUE,NA,NA,"njiyn2yx",NA,"NO","V_2100_9",NA,NA,NA,NA,NA,"Antwerpen","Antwerpen",2100,NA,NA,NA,51.214572,4.471803,NA,NA,NA
TRUE,TRUE,NA,NA,"mdflzwm0",NA,"NO","V_3920_10",NA,NA,NA,NA,NA,"Limburg","Lommel",3920,NA,NA,NA,51.2626088,5.4024901,NA,NA,NA
TRUE,TRUE,NA,NA,"nwvjndbl",NA,"NO","V_3600_15",NA,NA,NA,NA,NA,"Limburg","Genk",3600,NA,NA,NA,50.9772656,5.4943478,NA,NA,NA
TRUE,TRUE,NA,"Slijpebruggeleed","odcxnmmx",NA,"YES","I_8432_1",NA,NA,NA,NA,NA,"West-Vlaanderen","Middelkerke",8432,NA,NA,NA,51.16521,2.83294,NA,NA,NA
TRUE,TRUE,NA,"Bourgognevaart","odcxnmmx",NA,"YES","I_8460_10",NA,NA,NA,NA,NA,"West-Vlaanderen","Oudenburg",8460,NA,NA,NA,51.15303,3.00184,NA,NA,NA
TRUE,TRUE,NA,"Jobeek","odcxnmmx",NA,"YES","I_8750_3",NA,NA,NA,NA,NA,"West-Vlaanderen","Wingene",8750,NA,NA,NA,51.04451,3.20547,NA,NA,NA
TRUE,TRUE,NA,"Zuidervaartje","odcxnmmx",NA,"YES","I_8020_8",NA,NA,NA,NA,NA,"West-Vlaanderen","Oostkamp",8020,NA,NA,NA,51.1777616,3.2349959,NA,NA,NA
TRUE,TRUE,NA,NA,"odcxnmmx",NA,"YES","I_2220_1",NA,NA,NA,NA,NA,"Antwerpen","Heist-op-den-Berg",2220,NA,NA,NA,51.0906,4.7409,NA,NA,NA
TRUE,TRUE,NA,NA,"odcxnmmx",NA,"YES","I_8432_2",NA,NA,NA,NA,NA,"West-Vlaanderen","Middelkerke",8432,NA,NA,NA,51.1596686,2.9141654,NA,NA,NA
TRUE,TRUE,NA,NA,"odcxnmmx",NA,"YES","I_8460_11",NA,NA,NA,NA,NA,"West-Vlaanderen","Oudenburg",8460,NA,NA,NA,51.1821246,2.9633365,NA,NA,NA
TRUE,TRUE,NA,"Engelbeek","odcxnmmx",NA,"YES","I_8480_4",NA,NA,NA,NA,NA,"West-Vlaanderen","Ichtegem",8480,NA,NA,NA,51.1201668,3.0224166,NA,NA,NA
TRUE,TRUE,NA,"Jobeek","odcxnmmx",NA,"YES","I_8020_9",NA,NA,NA,NA,NA,"West-Vlaanderen","Oostkamp",8020,NA,NA,NA,51.0713302,3.1864224,NA,NA,NA
TRUE,TRUE,NA,"Rivierbeek","odcxnmmx",NA,"YES","I_8020_10",NA,NA,NA,NA,NA,"West-Vlaanderen","Oostkamp",8020,NA,NA,NA,51.1035502,3.2041622,NA,NA,NA
TRUE,TRUE,NA,NA,"odcxnmmx",NA,"YES","I_9190_7",NA,NA,NA,NA,NA,"Oost-Vlaanderen","Stekene",9190,NA,NA,NA,51.222892,4.0409765,NA,NA,NA
TRUE,TRUE,NA,"Kanaal van Stekene","odcxnmmx",NA,"YES","I_9190_8",NA,NA,NA,NA,NA,"Oost-Vlaanderen","Stekene",9190,NA,NA,NA,51.2184782,4.034516,NA,NA,NA
TRUE,TRUE,NA,"Stekense vaart","odcxnmmx",NA,"YES","I_9190_9",NA,NA,NA,NA,NA,"Oost-Vlaanderen","Stekene",9190,NA,NA,NA,51.1978,4.03672,NA,NA,NA
TRUE,TRUE,NA,NA,"odcxnmmx",NA,"YES","I_9190_10",NA,NA,NA,NA,NA,"Oost-Vlaanderen","Stekene",9190,NA,NA,NA,51.2042535,4.0287827,NA,NA,NA
TRUE,TRUE,NA,"Visvijver","njiyn2yx",NA,"NO","V_2100_10",NA,NA,NA,NA,NA,"Antwerpen","Antwerpen",2100,NA,NA,NA,51.212119,4.470448,NA,NA,NA
TRUE,TRUE,NA,"Homeleswijer","nwvjndbl",NA,"NO","V_3600_17",NA,NA,NA,NA,NA,"Limburg","Genk",3600,NA,NA,NA,50.958981,5.467505,NA,NA,NA
TRUE,TRUE,NA,NA,"njiyn2yx",NA,"NO","V_2100_11",NA,NA,NA,NA,NA,"Antwerpen","Antwerpen",2100,NA,NA,NA,51.215415,4.4634837,NA,NA,NA
TRUE,TRUE,NA,NA,"mjkyzjq3",NA,"NO","V_9472_2",NA,NA,NA,NA,NA,"Oost-Vlaanderen","Denderleeuw",9472,NA,NA,NA,50.8707076,4.0437601,NA,NA,NA
TRUE,TRUE,NA,"Bellebeek","yjmznwm3",NA,"NO","V_1742_1",NA,NA,NA,NA,NA,"Vlaams-Brabant","Ternat",1742,NA,NA,NA,50.8845471,4.1125285,NA,NA,NA
TRUE,TRUE,NA,NA,"ndfhyzg1",NA,"NO","V_8340_14",NA,NA,NA,NA,NA,"West-Vlaanderen","Damme",8340,NA,NA,NA,51.286,3.3452,NA,NA,NA
TRUE,TRUE,NA,NA,"ndfhyzg1",NA,"NO","V_8300_14",NA,NA,NA,NA,NA,"West-Vlaanderen","Knokke-Heist",8300,NA,NA,NA,51.3284,3.2935,NA,NA,NA
TRUE,TRUE,NA,NA,"ndfhyzg1",NA,"NO","V_8340_15",NA,NA,NA,NA,NA,"West-Vlaanderen","Damme",8340,NA,NA,NA,51.2923,3.339,NA,NA,NA
TRUE,TRUE,NA,NA,"ndfhyzg1",NA,"NO","V_8300_15",NA,NA,NA,NA,NA,"West-Vlaanderen","Knokke-Heist",8300,NA,NA,NA,51.3157,3.2953,NA,NA,NA
TRUE,TRUE,NA,NA,"ndfhyzg1",NA,"NO","V_8340_16",NA,NA,NA,NA,NA,"West-Vlaanderen","Damme",8340,NA,NA,NA,51.2964,3.3045,NA,NA,NA
TRUE,TRUE,NA,"Hoekevaart","ndfhyzg1",NA,"NO","V_8340_17",NA,NA,NA,NA,NA,"West-Vlaanderen","Damme",8340,NA,NA,NA,51.2994,3.3313,NA,NA,NA
TRUE,TRUE,NA,NA,"ndfhyzg1",NA,"NO","V_8300_16",NA,NA,NA,NA,NA,"West-Vlaanderen","Knokke-Heist",8300,NA,NA,NA,51.3083,3.3523,NA,NA,NA
TRUE,TRUE,NA,"De Platte Kreek (De kreken van Lapscheure)","ndfhyzg1",NA,"NO","V_8340_18",NA,NA,NA,NA,NA,"West-Vlaanderen","Damme",8340,NA,NA,NA,51.2833,3.3577,NA,NA,NA
TRUE,TRUE,NA,NA,"ndfhyzg1",NA,"NO","V_8340_19",NA,NA,NA,NA,NA,"West-Vlaanderen","Damme",8340,NA,NA,NA,51.2834,3.3576,NA,NA,NA
TRUE,TRUE,NA,NA,"ndfhyzg1",NA,"NO","V_8340_20",NA,NA,NA,NA,NA,"West-Vlaanderen","Damme",8340,NA,NA,NA,51.2991,3.3457,NA,NA,NA
TRUE,TRUE,NA,NA,"ndfhyzg1",NA,"NO","V_8301_4",NA,NA,NA,NA,NA,"West-Vlaanderen","Knokke-Heist",8301,NA,NA,NA,51.3026,3.2563,NA,NA,NA
TRUE,TRUE,NA,"Zuidwatergang","ndfhyzg1",NA,"NO","V_8301_5",NA,NA,NA,NA,NA,"West-Vlaanderen","Knokke-Heist",8301,NA,NA,NA,51.3025,3.2565,NA,NA,NA
TRUE,TRUE,NA,NA,"ndfhyzg1",NA,"NO","V_8340_21",NA,NA,NA,NA,NA,"West-Vlaanderen","Damme",8340,NA,NA,NA,51.2727,3.3042,NA,NA,NA
TRUE,TRUE,NA,NA,"ndfhyzg1",NA,"NO","V_8340_22",NA,NA,NA,NA,NA,"West-Vlaanderen","Damme",8340,NA,NA,NA,51.2727,3.3047,NA,NA,NA
TRUE,TRUE,NA,NA,"ndfhyzg1",NA,"NO","V_8340_23",NA,NA,NA,NA,NA,"West-Vlaanderen","Damme",8340,NA,NA,NA,51.3007,3.2998,NA,NA,NA
TRUE,TRUE,NA,NA,"ndfhyzg1",NA,"NO","V_8300_17",NA,NA,NA,NA,NA,"West-Vlaanderen","Knokke-Heist",8300,NA,NA,NA,51.3192,3.3277,NA,NA,NA
TRUE,TRUE,NA,NA,"ndfhyzg1",NA,"NO","V_8340_24",NA,NA,NA,NA,NA,"West-Vlaanderen","Damme",8340,NA,NA,NA,51.3029,3.3522,NA,NA,NA
TRUE,TRUE,NA,NA,"ndfhyzg1",NA,"NO","V_8340_25",NA,NA,NA,NA,NA,"West-Vlaanderen","Damme",8340,NA,NA,NA,51.266945,3.297791,NA,NA,NA
TRUE,TRUE,NA,NA,"nzzlmmvm",NA,"NO","V_3660_4",NA,NA,NA,NA,NA,"Limburg","Oudsbergen",3660,NA,NA,NA,51.0235,5.5862,NA,NA,NA
