"isReserved","updateRes","OMSCHR","NAAM","vrijwillID","startDate","SugbyINBO","locID","restricties","Sampler","dataset","SystemType","GEBIED","provincie","gemeente","postcode","CATC","VHAG","WVLC","Beheerder","Bhrtel","Bhremail","OIDN","UIDN","TERRID","NISCODE","NAAM.1","DATPUBLBS","NUMAC","LENGTE","OPPERVL","GEMNAAM","Longitude","Latitude"
FALSE,FALSE,NA,"Abeek",NA,NA,"YES","I_3670_1",NA,NA,"VMM_Mtp","Lotisch",NA,"Limburg","Oudsbergen",3670,2,9505,NA,"Limburg",NA,"christel.bouchet@limburg.be",310,745,364,"72042","Oudsbergen",2018-06-01,"2018012105",58208.1,116370650.2,"Oudsbergen",230673.99987558,203277.998913283
FALSE,FALSE,"Meeuwen, zijweg Berkenstr., afw weg, Meeuwen-Guitrode","Hommelbeek",NA,NA,"YES","I_3670_2",NA,NA,"VMM_Mtp","Lotisch",NA,"Limburg","Oudsbergen",3670,2,9630,NA,"Limburg",NA,"christel.bouchet@limburg.be",310,745,364,"72042","Oudsbergen",2018-06-01,"2018012105",58208.1,116370650.2,"Oudsbergen",229386.340603516,199884.049617057
FALSE,FALSE,"Meeuwen; Broekkant","Bullenbeek",NA,NA,"YES","I_3670_3",NA,NA,"VMM_Mtp","Lotisch",NA,"Limburg","Oudsbergen",3670,2,9594,NA,"Limburg",NA,"christel.bouchet@limburg.be",310,745,364,"72042","Oudsbergen",2018-06-01,"2018012105",58208.1,116370650.2,"Oudsbergen",230025.99987447,198045.998914906
FALSE,FALSE,"Ellikom, Neermolenstraat, begin traject 100 m afw verval aan Neermolen, Xcoördinaat","Abeek",NA,NA,"YES","I_3670_4",NA,NA,"VMM_Mtp","Lotisch",NA,"Limburg","Oudsbergen",3670,2,9505,NA,"Limburg",NA,"christel.bouchet@limburg.be",310,745,364,"72042","Oudsbergen",2018-06-01,"2018012105",58208.1,116370650.2,"Oudsbergen",230675.999875595,203341.99891326
FALSE,FALSE,"Ellikom, Brogelerweg, einde traject 10m afw brug","Abeek",NA,NA,"YES","I_3670_5",NA,NA,"VMM_Mtp","Lotisch",NA,"Limburg","Oudsbergen",3670,2,9505,NA,"Limburg",NA,"christel.bouchet@limburg.be",310,745,364,"72042","Oudsbergen",2018-06-01,"2018012105",58208.1,116370650.2,"Oudsbergen",230676.999875511,202948.998913381
TRUE,TRUE,"begin traject 100m opw molen","Abeek","mznkyti0","15/07/2024","YES","I_3670_6",NA,NA,"VMM_Mtp","Lotisch",NA,"Limburg","Oudsbergen",3670,2,9505,NA,"Limburg",NA,"christel.bouchet@limburg.be",310,745,364,"72042","Oudsbergen",2018-06-01,"2018012105",58208.1,116370650.2,"Oudsbergen",230245.543331874,202218.04633694
FALSE,FALSE,NA,"Ruiterskuilen","nzzlmmvm",NA,"YES","I_3660_2","te zuur",NA,NA,NA,NA,"Limburg","Oudsbergen",3660,NA,NA,NA,"Jacobs Karen",NA,"recreatie.lim.anb@vlaanderen.be",310,745,364,"72042","Oudsbergen",2018-06-01,"2018012105",58208.1,116370650.2,"Oudsbergen",232318.670916057,193856.430199241
FALSE,FALSE,NA,"Turfven","nzzlmmvm",NA,"YES","I_3660_3","te zuur",NA,NA,NA,NA,"Limburg","Oudsbergen",3660,NA,NA,NA,"Jacobs Karen",NA,"recreatie.lim.anb@vlaanderen.be",310,745,364,"72042","Oudsbergen",2018-06-01,"2018012105",58208.1,116370650.2,"Oudsbergen",232624.132891728,194568.886215062
FALSE,FALSE,NA,"Watering De Vreenebeek",NA,NA,"YES","I_3670_7",NA,NA,NA,NA,NA,"Limburg","Oudsbergen",3670,NA,NA,NA,NA,NA,NA,310,745,364,"72042","Oudsbergen",2018-06-01,"2018012105",58208.1,116370650.2,"Oudsbergen",230354.432049548,198384.329464898
FALSE,FALSE,NA,"Watering De Vreenebeek","nzzlmmvm",NA,"YES","I_3670_8",NA,NA,NA,NA,NA,"Limburg","Oudsbergen",3670,NA,NA,NA,NA,NA,NA,310,745,364,"72042","Oudsbergen",2018-06-01,"2018012105",58208.1,116370650.2,"Oudsbergen",230933.445501008,196516.003251963
TRUE,TRUE,NA,NA,"nzzlmmvm",NA,"NO","V_3660_4",NA,NA,NA,NA,NA,"Limburg","Oudsbergen",3660,NA,NA,NA,NA,NA,NA,310,745,364,"72042","Oudsbergen",2018-06-01,"2018012105",58208.1,116370650.2,"Oudsbergen",235413.283240309,191068.47985406
TRUE,TRUE,"Ruisbroek; einde Donkstr - Vlietdijk opw. brug thv pompstation","Grote Molenbeek","zwuxmwy1","09/07/2024","YES","I_2870_1",NA,NA,"VMM_Mtp","Lotisch",NA,"Antwerpen","Puurs-Sint-Amands",2870,1,6,NA,"VMM",NA,"d.slootmaekers@vmm.be",311,746,369,"12041","Puurs-Sint-Amands",2018-06-01,"2018012103",40101.58,49138372.28,"Puurs-Sint-Amands",146406.003233875,198327.000254196
TRUE,TRUE,"Ruisbroek, St. Katharinastr., afw Moerloop","Birrebeek","zwuxmwy1","09/07/2024","YES","I_2870_2",NA,NA,"VMM_Mtp","Lotisch",NA,"Antwerpen","Puurs-Sint-Amands",2870,1,3106,NA,"VMM",NA,"d.slootmaekers@vmm.be",311,746,369,"12041","Puurs-Sint-Amands",2018-06-01,"2018012103",40101.58,49138372.28,"Puurs-Sint-Amands",147904.996987269,196057.00285758
FALSE,FALSE,"Ruisbroek; einde Donkstr - Vlietdijk; beginnen aan brug thv pompstation(mtp 225000)","Grote Molenbeek",NA,NA,"YES","I_2870_3",NA,NA,"VMM_Mtp","Lotisch",NA,"Antwerpen","Puurs-Sint-Amands",2870,1,6,NA,"VMM",NA,"d.slootmaekers@vmm.be",311,746,369,"12041","Puurs-Sint-Amands",2018-06-01,"2018012103",40101.58,49138372.28,"Puurs-Sint-Amands",146407.998401818,198324.996404057
TRUE,TRUE,"Puurs; Achterheide; beginnen aan fietsbrugje","Grote Molenbeek","njm2yzlk","TBD","YES","I_2890_1",NA,NA,"VMM_Mtp","Lotisch",NA,"Antwerpen","Puurs-Sint-Amands",2890,1,6,NA,"VMM",NA,"d.slootmaekers@vmm.be",311,746,369,"12041","Puurs-Sint-Amands",2018-06-01,"2018012103",40101.58,49138372.28,"Puurs-Sint-Amands",142525.00081281,193785.001044003
FALSE,FALSE,"Ruisbroek; Ooievaarsnest; 50m afw mtp 234000; direct na bloembak paadje inrijden tot aan slagboom","Birrebeek",NA,NA,"YES","I_2870_4",NA,NA,"VMM_Mtp","Lotisch",NA,"Antwerpen","Puurs-Sint-Amands",2870,1,3106,NA,"VMM",NA,"d.slootmaekers@vmm.be",311,746,369,"12041","Puurs-Sint-Amands",2018-06-01,"2018012103",40101.58,49138372.28,"Puurs-Sint-Amands",147986.999901335,196089.998916887
FALSE,FALSE,"Puurs; Gansbroekstraat; 100m opwaarts TR233000.1","Birrebeek",NA,NA,"YES","I_2870_5",NA,NA,"VMM_Mtp","Lotisch",NA,"Antwerpen","Puurs-Sint-Amands",2870,1,3106,NA,"VMM",NA,"d.slootmaekers@vmm.be",311,746,369,"12041","Puurs-Sint-Amands",2018-06-01,"2018012103",40101.58,49138372.28,"Puurs-Sint-Amands",148229.999901387,196607.99891673
FALSE,FALSE,NA,NA,NA,NA,"YES","I_2870_6",NA,NA,"Scheers","Lentisch",NA,"Antwerpen","Puurs-Sint-Amands",2870,NA,NA,NA,NA,NA,NA,311,746,369,"12041","Puurs-Sint-Amands",2018-06-01,"2018012103",40101.58,49138372.28,"Puurs-Sint-Amands",144182.591398604,195259.919473401
TRUE,TRUE,NA,"Hof ter Zielbeek","zwuxmwy1","09/07/2024","NO","V_2870_7",NA,NA,NA,NA,NA,"Antwerpen","Puurs-Sint-Amands",2870,NA,NA,NA,NA,NA,NA,311,746,369,"12041","Puurs-Sint-Amands",2018-06-01,"2018012103",40101.58,49138372.28,"Puurs-Sint-Amands",147851.819199709,196131.961153589
TRUE,TRUE,NA,"Vliet","mthjnmy5","09/09/24","YES","I_2880_12",NA,NA,NA,NA,NA,"Antwerpen","Bornem",2880,NA,NA,NA,NA,NA,NA,311,746,369,"12041","Puurs-Sint-Amands",2018-06-01,"2018012103",40101.58,49138372.28,"Puurs-Sint-Amands",146073.951965811,198050.00356674
TRUE,TRUE,NA,"Koningsbeek","njm2yzlk","TBD","YES","I_2870_8",NA,NA,NA,NA,NA,"Antwerpen","Puurs-Sint-Amands",2870,NA,NA,NA,NA,NA,NA,311,746,369,"12041","Puurs-Sint-Amands",2018-06-01,"2018012103",40101.58,49138372.28,"Puurs-Sint-Amands",142884.610870365,196709.935112699
TRUE,TRUE,NA,"Vliet","njm2yzlk","TBD","YES","I_2870_9",NA,NA,NA,NA,NA,"Antwerpen","Puurs-Sint-Amands",2870,NA,NA,NA,NA,NA,NA,311,746,369,"12041","Puurs-Sint-Amands",2018-06-01,"2018012103",40101.58,49138372.28,"Puurs-Sint-Amands",143073.085464919,195829.125805735
FALSE,FALSE,"Poeke,Kasteelwijk,Kasteelstraat,afw weg","Poekebeek",NA,NA,"YES","I_9880_1",NA,NA,"VMM_Mtp","Lotisch",NA,"Oost-Vlaanderen","Aalter",9880,1,27,NA,"VMM",NA,"d.slootmaekers@vmm.be",313,748,367,"44084","Aalter",2018-06-01,"2018012109",61563.98,119850756.39,"Aalter",85694.9999204366,192617.998919443
FALSE,FALSE,"Over Leiestraat",NA,NA,NA,"YES","I_9910_1",NA,NA,"VMM_Mtp","Lotisch",NA,"Oost-Vlaanderen","Aalter",9910,2,1036,NA,"Oost-Vlaanderen",NA,"waterbeleid@oost-vlaanderen.be",313,748,367,"44084","Aalter",2018-06-01,"2018012109",61563.98,119850756.39,"Aalter",81339.9999240089,201378.99891689
FALSE,FALSE,"Bellem, Eksterstraat","Fortloop",NA,NA,"YES","I_9881_1",NA,NA,"VMM_Mtp","Lotisch",NA,"Oost-Vlaanderen","Aalter",9881,2,397,NA,"Oost-Vlaanderen",NA,"waterbeleid@oost-vlaanderen.be",313,748,367,"44084","Aalter",2018-06-01,"2018012109",61563.98,119850756.39,"Aalter",89661.9968149411,199735.998645022
FALSE,FALSE,"Poeke,Kasteelstraat,afw weg","Poekebeek",NA,NA,"YES","I_9880_2",NA,NA,"VMM_Mtp","Lotisch",NA,"Oost-Vlaanderen","Aalter",9880,1,27,NA,"VMM",NA,"d.slootmaekers@vmm.be",313,748,367,"44084","Aalter",2018-06-01,"2018012109",61563.98,119850756.39,"Aalter",85707.9999204287,192541.998919463
FALSE,FALSE,NA,NA,NA,"TBD","YES","I_9880_3",NA,NA,NA,NA,NA,"Oost-Vlaanderen","Aalter",9880,NA,NA,NA,NA,NA,NA,313,748,367,"44084","Aalter",2018-06-01,"2018012109",61563.98,119850756.39,"Aalter",82207.1044400972,200363.742201876
FALSE,FALSE,NA,"Kraenepoel","n2vintk4",NA,"NO","V_9880_4",NA,NA,NA,NA,NA,"Oost-Vlaanderen","Aalter",9880,NA,NA,NA,"Meulebrouck Klaar",NA,"recreatie.ovl.anb@vlaanderen.be",313,748,367,"44084","Aalter",2018-06-01,"2018012109",61563.98,119850756.39,"Aalter",87846.7978949396,196350.543962957
FALSE,FALSE,NA,NA,"n2vintk4",NA,"NO","V_9880_5",NA,NA,NA,NA,NA,"Oost-Vlaanderen","Aalter",9880,NA,NA,NA,NA,NA,NA,313,748,367,"44084","Aalter",2018-06-01,"2018012109",61563.98,119850756.39,"Aalter",87430.6197474966,199734.566174736
FALSE,FALSE,"Bisdonkstraat, veldwegel thv bocht","Stokstormbeek",NA,NA,"YES","I_9770_1",NA,NA,"VMM_Mtp","Lotisch",NA,"Oost-Vlaanderen","Kruisem",9770,2,4463,NA,"Oost-Vlaanderen",NA,"waterbeleid@oost-vlaanderen.be",314,749,366,"45068","Kruisem",2018-06-01,"2018012104",54407.16,71589748.05,"Kruisem",90443.9995163019,182154.99872253
FALSE,FALSE,"Nokere, Beerstraat",NA,NA,NA,"YES","I_9771_1",NA,NA,"VMM_Mtp","Lotisch",NA,"Oost-Vlaanderen","Kruisem",9771,2,4355,NA,"Oost-Vlaanderen",NA,"waterbeleid@oost-vlaanderen.be",314,749,366,"45068","Kruisem",2018-06-01,"2018012104",54407.16,71589748.05,"Kruisem",88170.9999153291,175442.998924644
FALSE,FALSE,"Ouwegem, Den Bos, afw weg","Stampkotbeek",NA,NA,"YES","I_9750_1",NA,NA,"VMM_Mtp","Lotisch",NA,"Oost-Vlaanderen","Kruisem",9750,2,5274,NA,"Oost-Vlaanderen",NA,"waterbeleid@oost-vlaanderen.be",314,749,366,"45068","Kruisem",2018-06-01,"2018012104",54407.16,71589748.05,"Kruisem",97113.9999134607,179283.998923239
FALSE,FALSE,"Huise, Driesstraat, 50m opw weg","Stampkotbeek",NA,NA,"YES","I_9750_2",NA,NA,"VMM_Mtp","Lotisch",NA,"Oost-Vlaanderen","Kruisem",9750,2,5603,NA,"Oost-Vlaanderen",NA,"waterbeleid@oost-vlaanderen.be",314,749,366,"45068","Kruisem",2018-06-01,"2018012104",54407.16,71589748.05,"Kruisem",95163.9999132834,176125.998924262
FALSE,FALSE,"Appelhoekstraat, thv Lozerkasteel","Stampkotbeek",NA,NA,"YES","I_9770_2",NA,NA,"VMM_Mtp","Lotisch",NA,"Oost-Vlaanderen","Kruisem",9770,2,5274,NA,"Oost-Vlaanderen",NA,"waterbeleid@oost-vlaanderen.be",314,749,366,"45068","Kruisem",2018-06-01,"2018012104",54407.16,71589748.05,"Kruisem",93230.9999145298,178574.99892355
FALSE,FALSE,"Den Bos, opw brug","Stampkotbeek",NA,NA,"YES","I_9750_3",NA,NA,"VMM_Mtp","Lotisch",NA,"Oost-Vlaanderen","Kruisem",9750,3,5274,NA,NA,NA,NA,314,749,366,"45068","Kruisem",2018-06-01,"2018012104",54407.16,71589748.05,"Kruisem",97094.9999134679,179288.998923234
FALSE,FALSE,"Neereichemstraat afw brug","Stampkotbeek",NA,NA,"YES","I_9770_3",NA,NA,"VMM_Mtp","Lotisch",NA,"Oost-Vlaanderen","Kruisem",9770,2,5274,NA,"Oost-Vlaanderen",NA,"waterbeleid@oost-vlaanderen.be",314,749,366,"45068","Kruisem",2018-06-01,"2018012104",54407.16,71589748.05,"Kruisem",94580.9999143465,179604.998923195
FALSE,FALSE,"Oude Schelde Mesureput","Mesureput",NA,NA,"YES","I_9750_4",NA,NA,"EcoWater","Lentisch",NA,"Oost-Vlaanderen","Kruisem",9750,NA,NA,NA,NA,NA,NA,314,749,366,"45068","Kruisem",2018-06-01,"2018012104",54407.16,71589748.05,"Kruisem",101852.647265688,176786.766582821
FALSE,FALSE,"Oude Schelde Spettekraai","Oude Schelde Spetterkraai","zgexogy3",NA,"YES","I_9750_5",NA,NA,"EcoWater","Lentisch",NA,"Oost-Vlaanderen","Kruisem",9750,NA,NA,NA,NA,NA,NA,314,749,366,"45068","Kruisem",2018-06-01,"2018012104",54407.16,71589748.05,"Kruisem",101038.710810071,176108.843528176
TRUE,TRUE,NA,"Mesureput","zgexogy3",NA,"NO","V_9750_6",NA,NA,NA,NA,NA,"Oost-Vlaanderen","Kruisem",9750,NA,NA,NA,NA,NA,NA,314,749,366,"45068","Kruisem",2018-06-01,"2018012104",54407.16,71589748.05,"Kruisem",101907.953233222,177202.45659418
FALSE,FALSE,"Duffelstraat, opw overstort","Bemortelloop",NA,NA,"YES","I_2860_1","bij voorkeur tussen 20/07 - 01/09",NA,"VMM_Mtp","Lotisch",NA,"Antwerpen","Sint-Katelijne-Waver",2860,2,9147,NA,"Antwerpen",NA,"hans.vanloy@provincieantwerpen.be",2,752,169,"12035","Sint-Katelijne-Waver",1976-01-23,"1975123003",35564.52,36156077.89,"Sint-Katelijne-Waver",159968.999897489,196440.998916542
FALSE,FALSE,"St-Katelijne-Waver, Kempenaerstr, tov Green partners, opw weg, opw overstort","Otterbeek",NA,NA,"YES","I_2860_2","bij voorkeur tussen 20/07 - 01/09",NA,"VMM_Mtp","Lotisch",NA,"Antwerpen","Sint-Katelijne-Waver",2860,2,6949,NA,"Antwerpen",NA,"hans.vanloy@provincieantwerpen.be",2,752,169,"12035","Sint-Katelijne-Waver",1976-01-23,"1975123003",35564.52,36156077.89,"Sint-Katelijne-Waver",160581.999896929,194993.998916976
FALSE,FALSE,"Duffel; Beukendreef; 50m opw brug (aan dikke canadaboom)","Goorbosbeek",NA,NA,"YES","I_2860_3","bij voorkeur tussen 20/07 - 01/09",NA,"VMM_Mtp","Lotisch",NA,"Antwerpen","Sint-Katelijne-Waver",2860,2,9112,NA,"Antwerpen",NA,"hans.vanloy@provincieantwerpen.be",2,752,169,"12035","Sint-Katelijne-Waver",1976-01-23,"1975123003",35564.52,36156077.89,"Sint-Katelijne-Waver",158040.99989804,196119.998916681
FALSE,FALSE,NA,NA,"odbjody4",NA,"YES","I_2860_4",NA,NA,"Scheers","Lentisch",NA,"Antwerpen","Sint-Katelijne-Waver",2860,NA,NA,NA,NA,NA,NA,2,752,169,"12035","Sint-Katelijne-Waver",1976-01-23,"1975123003",35564.52,36156077.89,"Sint-Katelijne-Waver",159971.365712222,194421.848717855
FALSE,FALSE,"Wiekevorst;Valleistraat, (FC) opw en (Bio) afw brug en verval","Wimp",NA,NA,"YES","I_2222_1",NA,NA,"VMM_Mtp","Lotisch",NA,"Antwerpen","Heist-op-den-Berg",2222,1,8507,NA,"VMM",NA,"d.slootmaekers@vmm.be",11,755,150,"12014","Heist-op-den-Berg",1982-12-29,"1982001920",61242.09,86673649.61,"Heist-op-den-Berg",180064.999891935,200694.998914854
FALSE,FALSE,"Wiekevorst; Morkhovenseweg-Wiekevorstseweg, opw brug en overstort","Wimp",NA,NA,"YES","I_2222_2",NA,NA,"VMM_Mtp","Lotisch",NA,"Antwerpen","Heist-op-den-Berg",2222,1,8507,NA,"VMM",NA,"d.slootmaekers@vmm.be",11,755,150,"12014","Heist-op-den-Berg",1982-12-29,"1982001920",61242.09,86673649.61,"Heist-op-den-Berg",180680.999891613,200231.998914987
FALSE,FALSE,"Wiekevorst; Wiekevorstseweg; opw brug","Wimp",NA,NA,"YES","I_2222_3",NA,NA,"VMM_Mtp","Lotisch",NA,"Antwerpen","Heist-op-den-Berg",2222,1,8507,NA,"VMM",NA,"d.slootmaekers@vmm.be",11,755,150,"12014","Heist-op-den-Berg",1982-12-29,"1982001920",61242.09,86673649.61,"Heist-op-den-Berg",180669.999891627,200241.998914985
TRUE,TRUE,"Heist o/d Berg; Heistseweg; einde zandweg naast huisnr 133","Bergebeek","mmm4mzq3","TBD","YES","I_2221_1","bij voorkeur tussen 20/07 - 01/09",NA,"VMM_Mtp","Lotisch",NA,"Antwerpen","Heist-op-den-Berg",2221,2,8620,NA,"Antwerpen",NA,"hans.vanloy@provincieantwerpen.be",11,755,150,"12014","Heist-op-den-Berg",1982-12-29,"1982001920",61242.09,86673649.61,"Heist-op-den-Berg",177620.49405209,195635.208405217
TRUE,TRUE,"Heist o/d Berg; Booischot; Peerdsdonkendreef; einde asfaltbaan","Herseltseloop","ztfhota2","26/8/24","YES","I_2221_2","bij voorkeur tussen 20/07 - 01/09",NA,"VMM_Mtp","Lotisch",NA,"Antwerpen","Heist-op-den-Berg",2221,2,8956,NA,"Antwerpen",NA,"hans.vanloy@provincieantwerpen.be",11,755,150,"12014","Heist-op-den-Berg",1982-12-29,"1982001920",61242.09,86673649.61,"Heist-op-den-Berg",179063.999708538,193252.001802011
TRUE,TRUE,NA,NA,"mmm4mzq3","TBD","NO","V_2222_4",NA,NA,NA,NA,NA,"Antwerpen","Heist-op-den-Berg",2222,NA,NA,NA,NA,NA,NA,11,755,150,"12014","Heist-op-den-Berg",1982-12-29,"1982001920",61242.09,86673649.61,"Heist-op-den-Berg",173208.84820465,201328.077627791
FALSE,FALSE,NA,"Houtvense Loop",NA,"TBD","YES","I_2221_3","Te ondiep, recent uitgegraven",NA,NA,NA,NA,"Antwerpen","Heist-op-den-Berg",2221,NA,NA,NA,NA,NA,NA,11,755,150,"12014","Heist-op-den-Berg",1982-12-29,"1982001920",61242.09,86673649.61,"Heist-op-den-Berg",179372.72356126,194496.140043021
TRUE,TRUE,NA,NA,"odcxnmmx",NA,"YES","I_2220_1",NA,NA,NA,NA,NA,"Antwerpen","Heist-op-den-Berg",2220,NA,NA,NA,NA,NA,NA,11,755,150,"12014","Heist-op-den-Berg",1982-12-29,"1982001920",61242.09,86673649.61,"Heist-op-den-Berg",176072.46658163,197897.760093197
FALSE,FALSE,"Muizen, Muizenhoekstr, opw brug","Vrouwvliet",NA,NA,"YES","I_2820_1",NA,NA,"VMM_Mtp","Lotisch",NA,"Antwerpen","Bonheiden",2820,1,6553,NA,"VMM",NA,"d.slootmaekers@vmm.be",23,762,184,"12005","Bonheiden",1982-12-29,"1982001920",36068.33,29191355.95,"Bonheiden",161164.999895506,190133.998918466
FALSE,FALSE,"Bonheiden/Muizen, einde Eikendreef, opw wandelbrug begin Mechels Broek","Vrouwvliet",NA,NA,"YES","I_2812_2",NA,NA,"VMM_Mtp","Lotisch",NA,"Antwerpen","Bonheiden",2812,1,6553,NA,"VMM",NA,"d.slootmaekers@vmm.be",23,762,184,"12005","Bonheiden",1982-12-29,"1982001920",36068.33,29191355.95,"Bonheiden",160675.999895746,190442.998918382
TRUE,TRUE,"Rijmenam/Boortmeerbeek, Rijmenamsebn, opw 387950 en opw brug","Leibeek","ymuxmjez","TBD","YES","I_3190_4","bij voorkeur tussen 20/07 - 01/09",NA,"VMM_Mtp","Lotisch",NA,"Antwerpen","Bonheiden",3190,2,6558,NA,"Antwerpen",NA,"hans.vanloy@provincieantwerpen.be",23,762,184,"12005","Bonheiden",1982-12-29,"1982001920",36068.33,29191355.95,"Bonheiden",164949.0014827,186752.998157753
FALSE,FALSE,"Keerbergen, Bakestraat, aan bakkerij DITS, opw weg","Vrouwvliet",NA,NA,"YES","I_3140_1",NA,NA,"VMM_Mtp","Lotisch",NA,"Vlaams-Brabant","Keerbergen",3140,2,6553,NA,"Vlaams-Brabant",NA,"ingrid.beuls@vlaamsbrabant.be",25,764,201,"24048","Keerbergen",1982-12-29,"1982001920",23173.55,18542847.34,"Keerbergen",168306.999892855,188948.998918691
FALSE,FALSE,"Lo, Klarewal-zijweg","Collaertshillebeek",NA,NA,"YES","I_8647_1",NA,NA,"VMM_Mtp","Lotisch",NA,"West-Vlaanderen","Lo-Reninge",8647,2,1409,NA,"Westkustpolder","058/314653","info@westkustpolder.be",33,768,198,"32030","Lo-Reninge",1982-12-29,"1982001920",53188.56,63398207.68,"Lo-Reninge",34569.9999352882,188324.998922251
FALSE,FALSE,"Reninge, Bernardplaatsstraat, Bernardusplasbrug","Kemmelbeek",NA,NA,"YES","I_8647_2",NA,NA,"VMM_Mtp","Lotisch",NA,"West-Vlaanderen","Lo-Reninge",8647,1,1204,NA,"VMM",NA,"d.slootmaekers@vmm.be",33,768,198,"32030","Lo-Reninge",1982-12-29,"1982001920",53188.56,63398207.68,"Lo-Reninge",41479.9999311586,180279.998924494
FALSE,FALSE,"Zuidschote, op baan Zuidschote-Reninge (saf!)","Kemmelbeek",NA,NA,"YES","I_8647_3",NA,NA,"VMM_Mtp","Lotisch",NA,"West-Vlaanderen","Lo-Reninge",8647,1,1204,NA,"VMM",NA,"d.slootmaekers@vmm.be",33,768,198,"32030","Lo-Reninge",1982-12-29,"1982001920",53188.56,63398207.68,"Lo-Reninge",41474.9999309201,179381.998924768
FALSE,FALSE,"Reninge, Broekstraat, Waterhoek","Kemmelbeek",NA,NA,"YES","I_8647_4",NA,NA,"VMM_Mtp","Lotisch",NA,"West-Vlaanderen","Lo-Reninge",8647,1,1204,NA,"VMM",NA,"d.slootmaekers@vmm.be",33,768,198,"32030","Lo-Reninge",1982-12-29,"1982001920",53188.56,63398207.68,"Lo-Reninge",39233.9999326994,183720.99892351
FALSE,FALSE,"Reninge, Bernardplaatsstraat","Kemmelbeek",NA,NA,"YES","I_8647_5",NA,NA,"VMM_Mtp","Lotisch",NA,"West-Vlaanderen","Lo-Reninge",8647,1,1204,NA,"VMM",NA,"d.slootmaekers@vmm.be",33,768,198,"32030","Lo-Reninge",1982-12-29,"1982001920",53188.56,63398207.68,"Lo-Reninge",41430.9999311825,180375.99892446
FALSE,FALSE,NA,NA,"nzm3mdi0",NA,"YES","I_8647_6",NA,NA,NA,"Lotisch",NA,"West-Vlaanderen","Lo-Reninge",8647,NA,NA,NA,NA,NA,NA,33,768,198,"32030","Lo-Reninge",1982-12-29,"1982001920",53188.56,63398207.68,"Lo-Reninge",37808.7933286725,184363.013690499
FALSE,FALSE,NA,"Lovaart","nzm3mdi0",NA,"YES","I_8647_7",NA,NA,NA,"Lotisch",NA,"West-Vlaanderen","Lo-Reninge",8647,NA,NA,NA,NA,NA,NA,33,768,198,"32030","Lo-Reninge",1982-12-29,"1982001920",53188.56,63398207.68,"Lo-Reninge",35451.5114180086,185854.651602517
FALSE,FALSE,"Otegem,  Zwevegemstraat","Kleine Kasselrijbeek",NA,NA,"YES","I_8553_1",NA,NA,"VMM_Mtp","Lotisch",NA,"West-Vlaanderen","Zwevegem",8553,2,4628,NA,"West-Vlaanderen",NA,NA,43,773,291,"34042","Zwevegem",1976-01-23,"1975123003",44293.99,63611324.59,"Zwevegem",82221.9999151807,167404.998927278
TRUE,TRUE,"Sint-Denijsstraat, Kreupel, afw","Slijpbeek","zguxztnj","18/07/24","YES","I_8550_1","Waterstand te laag?",NA,"VMM_Mtp","Lotisch",NA,"West-Vlaanderen","Zwevegem",8550,2,18815,NA,"West-Vlaanderen",NA,NA,43,773,291,"34042","Zwevegem",1976-01-23,"1975123003",44293.99,63611324.59,"Zwevegem",77473.997990558,165454.993888777
FALSE,FALSE,"Moen,Kraaibosstraat,afw weg","Oliebergbeek",NA,NA,"YES","I_8552_1",NA,NA,"VMM_Mtp","Lotisch",NA,"West-Vlaanderen","Zwevegem",8552,2,163,NA,"West-Vlaanderen",NA,NA,43,773,291,"34042","Zwevegem",1976-01-23,"1975123003",44293.99,63611324.59,"Zwevegem",80148.9999148522,163512.998928526
FALSE,FALSE,"Otterbeek-Sop brug bij 632350- Kappaard","Slijpbeek","zguxztnj",NA,"YES","I_8550_2",NA,NA,"VMM_Mtp","Lotisch",NA,"West-Vlaanderen","Zwevegem",8550,2,18815,NA,"West-Vlaanderen",NA,NA,43,773,291,"34042","Zwevegem",1976-01-23,"1975123003",44293.99,63611324.59,"Zwevegem",78870.9047833482,168467.719389944
FALSE,FALSE,NA,"Keibeek",NA,NA,"YES","I_8550_3",NA,NA,"VMM_Mtp","Lotisch",NA,"West-Vlaanderen","Zwevegem",8550,2,4339,NA,"West-Vlaanderen",NA,NA,43,773,291,"34042","Zwevegem",1976-01-23,"1975123003",44293.99,63611324.59,"Zwevegem",76357.999916916,166954.998927576
FALSE,FALSE,"Tongerlo; langs Groenstraat; begin traject achter huisnummer 20 aan brugje","Itterbeek",NA,NA,"YES","I_3960_1",NA,NA,"VMM_Mtp","Lotisch",NA,"Limburg","Bree",3960,2,9522,NA,"Limburg",NA,"christel.bouchet@limburg.be",65,786,14,"72004","Bree",1982-07-17,"1982001074",41167.86,64983074.47,"Bree",240833.999871955,202665.998913347
FALSE,FALSE,"Bree; zijweg Abroxweg; begin traject 30m opw brug","Abeek",NA,NA,"YES","I_3960_2",NA,NA,"VMM_Mtp","Lotisch",NA,"Limburg","Bree",3960,1,9505,NA,"VMM",NA,"d.slootmaekers@vmm.be",65,786,14,"72004","Bree",1982-07-17,"1982001074",41167.86,64983074.47,"Bree",235973.999874702,206932.998912074
FALSE,FALSE,"Oud Kanaal Bree-Beek?","Oud Kanaal",NA,NA,"YES","I_3960_3",NA,NA,"EcoWater","Lentisch",NA,"Limburg","Bree",3960,NA,NA,NA,"Thijs Koen",NA,"recreatie.lim.anb@vlaanderen.be",65,786,14,"72004","Bree",1982-07-17,"1982001074",41167.86,64983074.47,"Bree",235804.034127462,206694.652196874
FALSE,FALSE,"Oud Kanaal, Dilsen?","Oud Kanaal",NA,NA,"YES","I_3960_4",NA,NA,"EcoWater","Lentisch",NA,"Limburg","Bree",3960,NA,NA,NA,"Thijs Koen",NA,"recreatie.lim.anb@vlaanderen.be",65,786,14,"72004","Bree",1982-07-17,"1982001074",41167.86,64983074.47,"Bree",236200.302461003,206668.995201313
FALSE,FALSE,"Hechtel-Eksel; Weyerbrugstraat; 500m afw mtp 262600","Grote Nete","yjvinjli",NA,"YES","I_3941_1",NA,NA,"VMM_Mtp","Lotisch",NA,"Limburg","Hechtel-Eksel",3941,2,8501,NA,"Limburg",NA,"christel.bouchet@limburg.be",68,787,15,"72038","Hechtel-Eksel",1976-01-23,"1975123003",44583.63,76677685.79,"Hechtel-Eksel",217803.996676534,205354.999458856
FALSE,FALSE,NA,"Grote Nete","mwnhmtq1","TBD","YES","I_3940_1","TE ONDIEP!",NA,NA,NA,NA,"Limburg","Hechtel-Eksel",3940,NA,NA,NA,NA,NA,NA,68,787,15,"72038","Hechtel-Eksel",1976-01-23,"1975123003",44583.63,76677685.79,"Hechtel-Eksel",220637.227874686,203157.432131726
FALSE,FALSE,"Varendonk; Blaardonk-Trichelhoek, opw. brug","Grote Laak",NA,NA,"YES","I_2431_1",NA,NA,"VMM_Mtp","Lotisch",NA,"Antwerpen","Laakdal",2431,1,8503,NA,"VMM",NA,"d.slootmaekers@vmm.be",74,792,156,"13053","Laakdal",1976-01-23,"1975123003",42932.53,42430592.3,"Laakdal",191123.999887486,197600.998915618
FALSE,FALSE,"Laakdal; Zammel; Blaardonk/Trichelhoek; opw brug mtp 324950","Grote Laak",NA,NA,"YES","I_2431_2",NA,NA,"VMM_Mtp","Lotisch",NA,"Antwerpen","Laakdal",2431,1,8503,NA,"VMM",NA,"d.slootmaekers@vmm.be",74,792,156,"13053","Laakdal",1976-01-23,"1975123003",42932.53,42430592.3,"Laakdal",191126.999887478,197598.998915616
FALSE,FALSE,"Laakdal; Vorst; Rauwstraat; einde zandpad","Grote Laak",NA,NA,"YES","I_2431_3",NA,NA,"VMM_Mtp","Lotisch",NA,"Antwerpen","Laakdal",2431,1,8503,NA,"VMM",NA,"d.slootmaekers@vmm.be",74,792,156,"13053","Laakdal",1976-01-23,"1975123003",42932.53,42430592.3,"Laakdal",194464.99763466,196426.995408015
FALSE,FALSE,"Zepperen,Terwouwenstr (N767), schuin tov huis nr 37 Shell Gaz, afw weg","Bergbeek",NA,NA,"YES","I_3800_1",NA,NA,"VMM_Mtp","Lotisch",NA,"Limburg","Sint-Truiden",3800,2,7276,NA,"Limburg",NA,"christel.bouchet@limburg.be",100,804,47,"71053","Sint-Truiden",1982-07-17,"1982001074",68557.2,107118734.35,"Sint-Truiden",213006.999872881,169153.998924137
FALSE,FALSE,"Zepperen  Terstok, Keelstr/Stokstr, opw weg","Logebeek",NA,NA,"YES","I_3800_2",NA,NA,"VMM_Mtp","Lotisch",NA,"Limburg","Sint-Truiden",3800,2,7858,NA,"Limburg",NA,"christel.bouchet@limburg.be",100,804,47,"71053","Sint-Truiden",1982-07-17,"1982001074",68557.2,107118734.35,"Sint-Truiden",211342.999873742,170318.998923795
FALSE,FALSE,"Sint-Truiden","Watering van Sint-Truiden",NA,NA,"YES","I_3800_3",NA,NA,"Scheers","Lentisch",NA,"Limburg","Sint-Truiden",3800,NA,NA,NA,NA,NA,NA,100,804,47,"71053","Sint-Truiden",1982-07-17,"1982001074",68557.2,107118734.35,"Sint-Truiden",207873.404706561,168460.748546033
FALSE,FALSE,"Helchteren, Sonnisweg, 50 m voor verboden ingang ""Militair domein"", opw weg en zijgrachtjes","Schansbeek",NA,NA,"YES","I_3530_1",NA,NA,"VMM_Mtp","Lotisch",NA,"Limburg","Houthalen-Helchteren",3530,2,7260,NA,"Limburg",NA,"christel.bouchet@limburg.be",106,808,22,"72039","Houthalen-Helchteren",1976-01-23,"1975123003",43686.7,78228655.67,"Houthalen-Helchteren",223851.999875791,194960.998915948
FALSE,FALSE,NA,"De Plas",NA,NA,"YES","I_3530_2",NA,NA,"ANB_Mtp","Lentisch",NA,"Limburg","Houthalen-Helchteren",3530,NA,NA,NA,"Thijs Koen",NA,"recreatie.lim.anb@vlaanderen.be",106,808,22,"72039","Houthalen-Helchteren",1976-01-23,"1975123003",43686.7,78228655.67,"Houthalen-Helchteren",224076.999874906,191811.998916925
FALSE,FALSE,"recreation area, recreatiedomein De Plas (ANB?)","De Plas",NA,NA,"YES","I_3530_3",NA,NA,"Scheers","Lentisch",NA,"Limburg","Houthalen-Helchteren",3530,NA,NA,NA,"Thijs Koen",NA,"recreatie.lim.anb@vlaanderen.be",106,808,22,"72039","Houthalen-Helchteren",1976-01-23,"1975123003",43686.7,78228655.67,"Houthalen-Helchteren",223876.502875008,191952.408016877
FALSE,FALSE,"Aarsele, Snephoekstraat, thv spoorweg, afw samenvl zijbeek","Speibeek",NA,NA,"YES","I_8700_1",NA,NA,"VMM_Mtp","Lotisch",NA,"West-Vlaanderen","Tielt",8700,2,4824,NA,"West-Vlaanderen",NA,NA,122,817,181,"37015","Tielt",1976-01-23,"1975123003",45542.9,68851208.53,"Tielt",80831.9999205259,186872.998921324
FALSE,FALSE,"Schuiferskapelle,Rijkegemkouterstraat,opw weg","Kapellebeek",NA,NA,"YES","I_8700_2",NA,NA,"VMM_Mtp","Lotisch",NA,"West-Vlaanderen","Tielt",8700,2,169,NA,"West-Vlaanderen",NA,NA,122,817,181,"37015","Tielt",1976-01-23,"1975123003",45542.9,68851208.53,"Tielt",78834.9994867732,191734.994355619
FALSE,FALSE,NA,"Speibeek",NA,NA,"YES","I_8700_3",NA,NA,"VMM_Mtp","Lotisch",NA,"West-Vlaanderen","Tielt",8700,2,4824,NA,"West-Vlaanderen",NA,NA,122,817,181,"37015","Tielt",1976-01-23,"1975123003",45542.9,68851208.53,"Tielt",81954.3046875829,186367.97448265
FALSE,FALSE,"Tielt","Poekebeek",NA,NA,"YES","I_8700_4",NA,NA,"Scheers","Lentisch",NA,"West-Vlaanderen","Tielt",8700,NA,NA,NA,NA,NA,NA,122,817,181,"37015","Tielt",1976-01-23,"1975123003",45542.9,68851208.53,"Tielt",76519.8726223264,188643.709320909
FALSE,FALSE,"Boereweg","Zuiddambeek",NA,NA,"YES","I_8730_1",NA,NA,"VMM_Mtp","Lotisch",NA,"West-Vlaanderen","Beernem",8730,2,1170,NA,"Oostkustpolder","050/333271","waterbeheer@oostkustpolder.be",133,822,116,"31003","Beernem",1982-12-29,"1982001920",46160.6,72423227.27,"Beernem",76499.9995266271,205752.998715685
FALSE,FALSE,"Hoornstraat","Biezemoerbeek","otg3mza0",NA,"YES","I_8730_2",NA,NA,"VMM_Mtp","Lotisch",NA,"West-Vlaanderen","Beernem",8730,2,1118,NA,"West-Vlaanderen",NA,NA,133,822,116,"31003","Beernem",1982-12-29,"1982001920",46160.6,72423227.27,"Beernem",78712.9996549685,204542.003088504
FALSE,FALSE,"Assebroek, Looweideweg","St. Trudoledeken","mdjjotdj","29/06/2024","YES","I_8730_3","waterpeil te laag!",NA,"VMM_Mtp","Lotisch",NA,"West-Vlaanderen","Beernem",8730,2,2616,NA,"Oostkustpolder","050/333271","waterbeheer@oostkustpolder.be",133,822,116,"31003","Beernem",1982-12-29,"1982001920",46160.6,72423227.27,"Beernem",74430.9971234502,209448.994165306
TRUE,TRUE,"Prov. Domein Lippensgoed-Bulskampveld, perceel 25Y",NA,"mdixota5","22/07/24","YES","I_8730_5",NA,NA,"ANB_Mtp","Lentisch",NA,"West-Vlaanderen","Beernem",8730,NA,NA,NA,"Meulebrouck Klaar",NA,"recreatie.wvl.anb@vlaanderen.be",133,822,116,"31003","Beernem",1982-12-29,"1982001920",46160.6,72423227.27,"Beernem",74471.3668788615,200431.610625668
FALSE,FALSE,"Prov. Domein Lippensgoed, Bulskampveld, eendeputten","Aanwijsputten","ndmzyjhh",NA,"YES","I_8730_6",NA,NA,"ANB_Mtp","Lentisch",NA,"West-Vlaanderen","Beernem",8730,NA,NA,NA,"Meulebrouck Klaar",NA,"recreatie.wvl.anb@vlaanderen.be",133,822,116,"31003","Beernem",1982-12-29,"1982001920",46160.6,72423227.27,"Beernem",75684.0014821771,200456.995281302
FALSE,FALSE,"Prov. Domein Lippensgoed, Bulskampveld, eendeputten",NA,NA,NA,"YES","I_8730_7",NA,NA,"ANB_Mtp","Lentisch",NA,"West-Vlaanderen","Beernem",8730,NA,NA,NA,"Meulebrouck Klaar",NA,"recreatie.wvl.anb@vlaanderen.be",133,822,116,"31003","Beernem",1982-12-29,"1982001920",46160.6,72423227.27,"Beernem",75709.9999255642,200521.99891731
FALSE,FALSE,"Prov. Domein Lippensgoed, Bulskampveld, eendeputten",NA,NA,NA,"YES","I_8730_8",NA,NA,"ANB_Mtp","Lentisch",NA,"West-Vlaanderen","Beernem",8730,NA,NA,NA,"Meulebrouck Klaar",NA,"recreatie.wvl.anb@vlaanderen.be",133,822,116,"31003","Beernem",1982-12-29,"1982001920",46160.6,72423227.27,"Beernem",75699.9999255906,200614.99891728
FALSE,FALSE,NA,NA,"mdjjotdj","01/07/2024","YES","I_8730_9",NA,NA,NA,NA,NA,"West-Vlaanderen","Beernem",8730,NA,NA,NA,NA,NA,NA,133,822,116,"31003","Beernem",1982-12-29,"1982001920",46160.6,72423227.27,"Beernem",74648.9182435649,204310.668929415
FALSE,FALSE,NA,NA,"ndmzyjhh","TBD","YES","I_8730_10",NA,NA,NA,NA,NA,"West-Vlaanderen","Beernem",8730,NA,NA,NA,NA,NA,NA,133,822,116,"31003","Beernem",1982-12-29,"1982001920",46160.6,72423227.27,"Beernem",74569.8028490225,201261.564440062
TRUE,TRUE,NA,"Kanaal Gent-Brugge","otg3mza0",NA,"NO","V_8730_11",NA,NA,NA,NA,NA,"West-Vlaanderen","Beernem",8730,NA,NA,NA,NA,NA,NA,133,822,116,"31003","Beernem",1982-12-29,"1982001920",46160.6,72423227.27,"Beernem",77345.8708786722,203578.18322762
FALSE,FALSE,"Kruiskerkestraat,opw weg","Wantebeek",NA,NA,"YES","I_8755_1",NA,NA,"VMM_Mtp","Lotisch",NA,"West-Vlaanderen","Ruiselede",8755,2,293,NA,"West-Vlaanderen",NA,NA,140,825,164,"37012","Ruiselede",1831-02-07,NA,33593.42,30623063.61,"Ruiselede",81167.9999225751,195449.998918701
FALSE,FALSE,"Vorte Bossen,Kruisbergstraat","Wantebeek",NA,NA,"YES","I_8755_2",NA,NA,"VMM_Mtp","Lotisch",NA,"West-Vlaanderen","Ruiselede",8755,2,293,NA,"West-Vlaanderen",NA,NA,140,825,164,"37012","Ruiselede",1831-02-07,NA,33593.42,30623063.61,"Ruiselede",80256.9999231887,196749.998918325
FALSE,FALSE,"Knokmolen,Knokstraat,opw weg","Poekebeek",NA,NA,"YES","I_8755_3",NA,NA,"VMM_Mtp","Lotisch",NA,"West-Vlaanderen","Ruiselede",8755,2,27,NA,"West-Vlaanderen",NA,NA,140,825,164,"37012","Ruiselede",1831-02-07,NA,33593.42,30623063.61,"Ruiselede",81006.999922088,193306.998919361
FALSE,FALSE,"Eine,Doorn,Serpentsstraat","Marollebeek",NA,NA,"YES","I_9700_1",NA,NA,"VMM_Mtp","Lotisch",NA,"Oost-Vlaanderen","Oudenaarde",9700,2,5680,NA,"Oost-Vlaanderen",NA,"waterbeleid@oost-vlaanderen.be",144,828,258,"45035","Oudenaarde",1976-01-23,"1975123003",57165.4,68920248.7,"Oudenaarde",96297.9999123379,173808.99892494
FALSE,FALSE,"Melden,Meersbloem Leupegem-Meersbloem Melden,afwaarts brug","Maarkebeek",NA,NA,"YES","I_9700_2",NA,NA,"VMM_Mtp","Lotisch",NA,"Oost-Vlaanderen","Oudenaarde",9700,1,5003,NA,"VMM",NA,"d.slootmaekers@vmm.be",144,828,258,"45035","Oudenaarde",1976-01-23,"1975123003",57165.4,68920248.7,"Oudenaarde",95412.999911512,169426.998926317
FALSE,FALSE,"Melden,Heilbroek,langs veldweg","Molenbeek","zgrhnjvm",NA,"YES","I_9700_3",NA,NA,"VMM_Mtp","Lotisch",NA,"Oost-Vlaanderen","Oudenaarde",9700,2,5294,NA,"Oost-Vlaanderen",NA,"waterbeleid@oost-vlaanderen.be",144,828,258,"45035","Oudenaarde",1976-01-23,"1975123003",57165.4,68920248.7,"Oudenaarde",92797.0024804002,166419.002928609
FALSE,FALSE,"Melden,Meersbloem, Leupegem-Meersbloem, meest stroomafwaartse brugje","Maarkebeek",NA,NA,"YES","I_9700_4",NA,NA,"VMM_Mtp","Lotisch",NA,"Oost-Vlaanderen","Oudenaarde",9700,1,5003,NA,"VMM",NA,"d.slootmaekers@vmm.be",144,828,258,"45035","Oudenaarde",1976-01-23,"1975123003",57165.4,68920248.7,"Oudenaarde",95417.9999115226,169416.998926315
FALSE,FALSE,"Oudenaarde, brugje Wolfabriekstraat","Maarkebeek",NA,NA,"YES","I_9700_5",NA,NA,"VMM_Mtp","Lotisch",NA,"Oost-Vlaanderen","Oudenaarde",9700,1,5003,NA,"VMM",NA,"d.slootmaekers@vmm.be",144,828,258,"45035","Oudenaarde",1976-01-23,"1975123003",57165.4,68920248.7,"Oudenaarde",95999.9999111971,168861.998926477
FALSE,FALSE,"Melden, Schaatsputte, Veldweg","Beiaardbeek",NA,NA,"YES","I_9700_7",NA,NA,"VMM_Mtp","Lotisch",NA,"Oost-Vlaanderen","Oudenaarde",9700,2,5002,NA,"Oost-Vlaanderen",NA,"waterbeleid@oost-vlaanderen.be",144,828,258,"45035","Oudenaarde",1976-01-23,"1975123003",57165.4,68920248.7,"Oudenaarde",93316.9999115425,166913.998927135
FALSE,FALSE,"Melden, Bunderbos, opw weg","Beiaardbeek",NA,NA,"YES","I_9700_8",NA,NA,"VMM_Mtp","Lotisch",NA,"Oost-Vlaanderen","Oudenaarde",9700,2,5002,NA,"Oost-Vlaanderen",NA,"waterbeleid@oost-vlaanderen.be",144,828,258,"45035","Oudenaarde",1976-01-23,"1975123003",57165.4,68920248.7,"Oudenaarde",93076.9999115677,166651.99892723
FALSE,FALSE,"Oude Schelde Heurne-Heuvel","Oude Schelde Heurne",NA,NA,"YES","I_9700_9",NA,NA,"EcoWater","Lentisch",NA,"Oost-Vlaanderen","Oudenaarde",9700,NA,NA,NA,NA,NA,NA,144,828,258,"45035","Oudenaarde",1976-01-23,"1975123003",57165.4,68920248.7,"Oudenaarde",98650.1132032753,175096.340853125
FALSE,FALSE,"Oude Schelde Nederename?","Oude Schelde Eine",NA,NA,"YES","I_9700_10",NA,NA,"EcoWater","Lentisch",NA,"Oost-Vlaanderen","Oudenaarde",9700,NA,NA,NA,NA,NA,NA,144,828,258,"45035","Oudenaarde",1976-01-23,"1975123003",57165.4,68920248.7,"Oudenaarde",98125.8651967148,173140.206036638
FALSE,FALSE,"Oude Schelde De Sterre","Oude Schelde Heurne",NA,NA,"YES","I_9700_11",NA,NA,"EcoWater","Lentisch",NA,"Oost-Vlaanderen","Oudenaarde",9700,NA,NA,NA,NA,NA,NA,144,828,258,"45035","Oudenaarde",1976-01-23,"1975123003",57165.4,68920248.7,"Oudenaarde",97864.4837111014,174640.902026067
FALSE,FALSE,"Oude Schelde Melden Het Veer",NA,NA,NA,"YES","I_9700_12",NA,NA,"EcoWater","Lentisch",NA,"Oost-Vlaanderen","Oudenaarde",9700,NA,NA,NA,"Coppens Xavier",NA,"recreatie.ovl.anb@vlaanderen.be",144,828,258,"45035","Oudenaarde",1976-01-23,"1975123003",57165.4,68920248.7,"Oudenaarde",94102.8458786481,168049.999208466
FALSE,FALSE,"Melden, afw Berchemweg, 2de zijarm",NA,NA,NA,"YES","I_9700_13",NA,NA,"ANB_Mtp","Lentisch",NA,"Oost-Vlaanderen","Oudenaarde",9700,NA,NA,NA,"Coppens Xavier",NA,"recreatie.ovl.anb@vlaanderen.be",144,828,258,"45035","Oudenaarde",1976-01-23,"1975123003",57165.4,68920248.7,"Oudenaarde",93656.9999116759,167867.998926837
FALSE,FALSE,"Melden, Berchemweg,centraal gedeelte",NA,"zgrhnjvm",NA,"YES","I_9700_14",NA,NA,"ANB_Mtp","Lentisch",NA,"Oost-Vlaanderen","Oudenaarde",9700,NA,NA,NA,"Coppens Xavier",NA,"recreatie.ovl.anb@vlaanderen.be",144,828,258,"45035","Oudenaarde",1976-01-23,"1975123003",57165.4,68920248.7,"Oudenaarde",94000.6106495689,167949.357891126
FALSE,FALSE,"recreation area, Provincial dom. Donk, Oudenaarde","Donkmeer",NA,NA,"YES","I_9700_15",NA,NA,"Scheers","Lentisch",NA,"Oost-Vlaanderen","Oudenaarde",9700,NA,NA,NA,NA,NA,NA,144,828,258,"45035","Oudenaarde",1976-01-23,"1975123003",57165.4,68920248.7,"Oudenaarde",94776.4505120041,170579.427125974
FALSE,FALSE,"Oudenaarde",NA,NA,NA,"YES","I_9700_16",NA,NA,"Scheers","Lentisch",NA,"Oost-Vlaanderen","Oudenaarde",9700,NA,NA,NA,NA,NA,NA,144,828,258,"45035","Oudenaarde",1976-01-23,"1975123003",57165.4,68920248.7,"Oudenaarde",96346.0768116019,170964.378925812
FALSE,FALSE,"Oudenaarde",NA,NA,NA,"YES","I_9700_17",NA,NA,"Scheers","Lentisch",NA,"Oost-Vlaanderen","Oudenaarde",9700,NA,NA,NA,NA,NA,NA,144,828,258,"45035","Oudenaarde",1976-01-23,"1975123003",57165.4,68920248.7,"Oudenaarde",96489.8038115406,170881.141225835
FALSE,FALSE,"Oostnieuwkerke, Wallebrugstraat","Mandel",NA,NA,"YES","I_8840_1",NA,NA,"VMM_Mtp","Lotisch",NA,"West-Vlaanderen","Staden",8840,2,4203,NA,"West-Vlaanderen",NA,NA,146,830,206,"36019","Staden",1982-12-29,"1982001920",35524.09,46815480.93,"Staden",58347.9999265178,182690.99892325
FALSE,FALSE,"Oostnieuwkerke, Cortonstraat","Mandel",NA,NA,"YES","I_8840_2",NA,NA,"VMM_Mtp","Lotisch",NA,"West-Vlaanderen","Staden",8840,2,4203,NA,"West-Vlaanderen",NA,NA,146,830,206,"36019","Staden",1982-12-29,"1982001920",35524.09,46815480.93,"Staden",56949.9999264004,180489.998923964
FALSE,FALSE,"Westrozebeke, Vijverbos","Vijverbeek",NA,NA,"YES","I_8840_3",NA,NA,"VMM_Mtp","Lotisch",NA,"West-Vlaanderen","Staden",8840,2,4335,NA,"Dewulf Evy",NA,"recreatie.wvl.anb@vlaanderen.be",146,830,206,"36019","Staden",1982-12-29,"1982001920",35524.09,46815480.93,"Staden",55516.999927037,181250.99892377
FALSE,FALSE,"Oostnieuwkerke","Mandel",NA,NA,"YES","I_8840_4",NA,NA,"VMM_Mtp","Lotisch",NA,"West-Vlaanderen","Staden",8840,2,4203,NA,"West-Vlaanderen",NA,NA,146,830,206,"36019","Staden",1982-12-29,"1982001920",35524.09,46815480.93,"Staden",59683.999926289,183437.998922978
FALSE,FALSE,"Oostenieuwkerke","Mandel",NA,NA,"YES","I_8840_5",NA,NA,"VMM_Mtp","Lotisch",NA,"West-Vlaanderen","Staden",8840,2,4203,NA,"West-Vlaanderen",NA,NA,146,830,206,"36019","Staden",1982-12-29,"1982001920",35524.09,46815480.93,"Staden",57246.9999264744,181152.998923745
FALSE,FALSE,NA,"Zarrenbeek",NA,NA,"YES","I_8840_6",NA,NA,"VMM_Mtp","Lotisch",NA,"West-Vlaanderen","Staden",8840,2,1496,NA,"West-Vlaanderen",NA,NA,146,830,206,"36019","Staden",1982-12-29,"1982001920",35524.09,46815480.93,"Staden",54701.9999289847,187941.998921753
FALSE,FALSE,"Merkem, Ketsedijk","Martjevaart",NA,NA,"YES","I_8650_1",NA,NA,"VMM_Mtp","Lotisch",NA,"West-Vlaanderen","Houthulst",8650,1,1216,NA,"VMM",NA,"d.slootmaekers@vmm.be",155,839,203,"32006","Houthulst",1982-12-29,"1982001920",41457.73,56021851.25,"Houthulst",42122.9999318487,183883.998923372
FALSE,FALSE,"Merkem, Ketsedijk","Martjevaart",NA,NA,"YES","I_8650_2",NA,NA,"VMM_Mtp","Lotisch",NA,"West-Vlaanderen","Houthulst",8650,1,1216,NA,"VMM",NA,"d.slootmaekers@vmm.be",155,839,203,"32006","Houthulst",1982-12-29,"1982001920",41457.73,56021851.25,"Houthulst",41858.9999319627,184013.998923334
FALSE,FALSE,NA,NA,NA,NA,"YES","I_8650_3",NA,NA,NA,"Lotisch",NA,"West-Vlaanderen","Houthulst",8650,NA,NA,NA,NA,NA,NA,155,839,203,"32006","Houthulst",1982-12-29,"1982001920",41457.73,56021851.25,"Houthulst",41197.9843761515,184767.169648799
FALSE,FALSE,"Kortenaken/Kersbeek-Miskom, Bauwelstr, 10m opw brug","Velpe",NA,NA,"YES","I_3470_1",NA,NA,"VMM_Mtp","Lotisch",NA,"Vlaams-Brabant","Kortenaken",3470,1,7155,NA,"VMM",NA,"d.slootmaekers@vmm.be",159,842,39,"24054","Kortenaken",1976-01-23,"1975123003",42266.26,49437688.38,"Kortenaken",196828.999880171,176336.998922124
FALSE,FALSE,"Tisselt; Jozef de Blockstraat, naast huisnr 52 straatje in, over brugje en zandpad in","Birrebeek",NA,NA,"YES","I_2830_1","bij voorkeur tussen 20/07 - 01/09",NA,"VMM_Mtp","Lotisch",NA,"Antwerpen","Willebroek",2830,2,3106,NA,"Polder Vliet en Zielbeek","03/8892337","poldervliet.en.zielbeek@edpnet.be",164,844,172,"12040","Willebroek",1976-01-23,"1975123003",31039.2,27366186.75,"Willebroek",148955.999899985,192057.99891812
FALSE,FALSE,NA,"Grootbroekloop",NA,NA,"YES","I_2830_2","bij voorkeur tussen 20/07 - 01/09",NA,NA,"Lotisch",NA,"Antwerpen","Willebroek",2830,2,0,NA,"Polder Willebroek","03/8996317","polderwillebroek@vvpw.be",164,844,172,"12040","Willebroek",1976-01-23,"1975123003",31039.2,27366186.75,"Willebroek",151647.526597594,194166.762878376
FALSE,FALSE,"Het Broek, Blaasveld",NA,NA,NA,"YES","I_2830_3",NA,NA,"EcoWater","Lentisch",NA,"Antwerpen","Willebroek",2830,NA,NA,NA,"Heyens Veerle",NA,"recreatie.ant.anb@vlaanderen.be",164,844,172,"12040","Willebroek",1976-01-23,"1975123003",31039.2,27366186.75,"Willebroek",151097.362847332,194321.084291142
FALSE,FALSE,"Blaasveld, Broekweg, thv. restaurant  Fonteyntje brug tss 2 vijvers, rechtervijver","Putten van Lacourt",NA,NA,"YES","I_2830_4",NA,NA,"ANB_Mtp","Lentisch",NA,"Antwerpen","Willebroek",2830,NA,NA,NA,"Heyens Veerle",NA,"recreatie.ant.anb@vlaanderen.be",164,844,172,"12040","Willebroek",1976-01-23,"1975123003",31039.2,27366186.75,"Willebroek",151720.999899524,193805.998917514
FALSE,FALSE,"Hazewinkel","Hazewinkel watersportbaan",NA,NA,"YES","I_2830_5",NA,NA,"Scheers","Lentisch",NA,"Antwerpen","Willebroek",2830,NA,NA,NA,NA,NA,NA,164,844,172,"12040","Willebroek",1976-01-23,"1975123003",31039.2,27366186.75,"Willebroek",151484.399971452,195057.570154165
FALSE,FALSE,NA,"Zwarte Beek",NA,NA,"YES","I_2830_6",NA,NA,NA,NA,NA,"Antwerpen","Willebroek",2830,NA,NA,NA,NA,NA,NA,164,844,172,"12040","Willebroek",1976-01-23,"1975123003",31039.2,27366186.75,"Willebroek",150836.691061344,195665.681550227
TRUE,TRUE,NA,NA,"mdm4oge4",NA,"NO","V_2830_7",NA,NA,NA,NA,NA,"Antwerpen","Willebroek",2830,NA,NA,NA,NA,NA,NA,164,844,172,"12040","Willebroek",1976-01-23,"1975123003",31039.2,27366186.75,"Willebroek",150401.691373938,196181.730305413
FALSE,FALSE,"Jesseren, Broekstraat, onverharde weg tussen huisnr. 18-20, 300 m tot einde voetbalveld, 100 m tot Mombeek, via brugje,  50 m opw. tot aan overbrugging","Mombeek",NA,NA,"YES","I_3840_1",NA,NA,"VMM_Mtp","Lotisch",NA,"Limburg","Borgloon",3840,2,7159,NA,"Limburg",NA,"christel.bouchet@limburg.be",166,846,50,"73009","Borgloon",1982-07-17,"1982001074",46055.79,51322338.87,"Borgloon",222918.999868913,166812.998924735
FALSE,FALSE,"Jesseren, Jesserenstr,opw weg en LP, aan grensbord Jesseren-Borgloon","Sint-Annabeek",NA,NA,"YES","I_3840_2",NA,NA,"VMM_Mtp","Lotisch",NA,"Limburg","Borgloon",3840,2,7526,NA,"Limburg",NA,"christel.bouchet@limburg.be",166,846,50,"73009","Borgloon",1982-07-17,"1982001074",46055.79,51322338.87,"Borgloon",221091.999869653,167275.99892462
FALSE,FALSE,"Broekom, zijweg Sassenbroekstr, in 2de bocht thv huis nr 7, achteraan privé-oprit, na samenvloeiing","Sassenbroekbeek",NA,NA,"YES","I_3840_3",NA,NA,"VMM_Mtp","Lotisch",NA,"Limburg","Borgloon",3840,2,7768,NA,"Limburg",NA,"christel.bouchet@limburg.be",166,846,50,"73009","Borgloon",1982-07-17,"1982001074",46055.79,51322338.87,"Borgloon",218532.999869561,163522.998925817
FALSE,FALSE,"Gors-Opleeuw; einde mf-traject 5m afw brug aan mp 451200","Mombeek",NA,NA,"YES","I_3840_4",NA,NA,"VMM_Mtp","Lotisch",NA,"Limburg","Borgloon",3840,2,7159,NA,"Limburg",NA,"christel.bouchet@limburg.be",166,846,50,"73009","Borgloon",1982-07-17,"1982001074",46055.79,51322338.87,"Borgloon",222914.999869456,168897.998924087
FALSE,FALSE,"Jesseren; Broekstraat; onverharde weg langs voetbalvelden;einde traject aan hoek laatste voetbalveld","Mombeek",NA,NA,"YES","I_3840_5",NA,NA,"VMM_Mtp","Lotisch",NA,"Limburg","Borgloon",3840,2,7159,NA,"Limburg",NA,"christel.bouchet@limburg.be",166,846,50,"73009","Borgloon",1982-07-17,"1982001074",46055.79,51322338.87,"Borgloon",222909.999868947,166902.998924712
FALSE,FALSE,"Eeklose Watergang","Eeklose watergang","zta3nzm0",NA,"YES","I_9900_1",NA,NA,NA,NA,NA,"Oost-Vlaanderen","Eeklo",9900,NA,NA,NA,NA,NA,NA,169,849,109,"43005","Eeklo",1982-12-29,"1982001920",25593.69,30449374.5,"Eeklo",92011.2068663662,212112.538686082
FALSE,FALSE,NA,"Eeklose Watergang","nwu0njy5",NA,"YES","I_9900_2",NA,NA,NA,NA,NA,"Oost-Vlaanderen","Eeklo",9900,NA,NA,NA,NA,NA,NA,169,849,109,"43005","Eeklo",1982-12-29,"1982001920",25593.69,30449374.5,"Eeklo",95323.7190683523,211337.775479108
FALSE,FALSE,"Peulis, Mechelbaan (N15), doodlopend zijwegje, inrit huis nr 664, 3 m opw brugje+lozing","Waversebeek",NA,NA,"YES","I_2580_1","bij voorkeur tussen 20/07 - 01/09",NA,"VMM_Mtp","Lotisch",NA,"Antwerpen","Putte",2580,2,6702,NA,"Antwerpen",NA,"hans.vanloy@provincieantwerpen.be",176,852,171,"12029","Putte",1976-01-23,"1975123003",40300,35158731.26,"Putte",165566.999894567,192140.998917758
FALSE,FALSE,"33/3-4;Guighoven; Kasteelstraat; einde traject afw brug; 20m afw verval","Mombeek",NA,NA,"YES","I_3724_1",NA,NA,"VMM_Mtp","Lotisch",NA,"Limburg","Kortessem",3724,2,7159,NA,"Limburg",NA,"christel.bouchet@limburg.be",181,854,45,"73040","Kortessem",1982-07-17,"1982001074",33179.68,33987008.99,"Kortessem",223453.99986964,170333.998923634
FALSE,FALSE,"Lampernisse, Zadelstraat","Oostkerkevaart",NA,NA,"YES","I_8600_1",NA,NA,"VMM_Mtp","Lotisch",NA,"West-Vlaanderen","Diksmuide",8600,2,1285,NA,"Westkustpolder","058/314653","info@westkustpolder.be",185,856,153,"32003","Diksmuide",1976-01-23,"1975123003",63802.16,150738759.43,"Diksmuide",37356.9999355376,192748.998920821
FALSE,FALSE,"Esen, Vladslostraat, afw","Handzamevaart",NA,NA,"YES","I_8600_2",NA,NA,"VMM_Mtp","Lotisch",NA,"West-Vlaanderen","Diksmuide",8600,1,1208,NA,"VMM",NA,"d.slootmaekers@vmm.be",185,856,153,"32003","Diksmuide",1976-01-23,"1975123003",63802.16,150738759.43,"Diksmuide",47527.9999324168,192821.998920483
FALSE,FALSE,"Vladslo, Einsdijkstraat, br. Eindsdijk-Esenbroek","Handzamevaart","nznmytqy",NA,"YES","I_8600_3",NA,NA,"VMM_Mtp","Lotisch",NA,"West-Vlaanderen","Diksmuide",8600,1,1208,NA,"VMM",NA,"d.slootmaekers@vmm.be",185,856,153,"32003","Diksmuide",1976-01-23,"1975123003",63802.16,150738759.43,"Diksmuide",48850.002978634,192579.99566909
FALSE,FALSE,"Woumen, Noordbroekstraat, Rillebroek, afw","Stenensluisvaart",NA,NA,"YES","I_8600_4",NA,NA,"VMM_Mtp","Lotisch",NA,"West-Vlaanderen","Diksmuide",8600,1,1379,NA,"VMM",NA,"d.slootmaekers@vmm.be",185,856,153,"32003","Diksmuide",1976-01-23,"1975123003",63802.16,150738759.43,"Diksmuide",42449.9999328468,188269.998922018
FALSE,FALSE,"Woumen, Rapestraat","Stenensluisvaart",NA,"TBD","YES","I_8600_5",NA,NA,"VMM_Mtp","Lotisch",NA,"West-Vlaanderen","Diksmuide",8600,1,1379,NA,"VMM",NA,"d.slootmaekers@vmm.be",185,856,153,"32003","Diksmuide",1976-01-23,"1975123003",63802.16,150738759.43,"Diksmuide",41943.0021083518,188940.002098808
FALSE,FALSE,"Woumen, Noordbroekstraat, Rillebroek","Stenensluisvaart",NA,NA,"YES","I_8600_6",NA,NA,"VMM_Mtp","Lotisch",NA,"West-Vlaanderen","Diksmuide",8600,1,1379,NA,"VMM",NA,"d.slootmaekers@vmm.be",185,856,153,"32003","Diksmuide",1976-01-23,"1975123003",63802.16,150738759.43,"Diksmuide",42341.9999329043,188306.998922007
FALSE,FALSE,"Woumen, Noordbroekstraat, Rillebroek","Noordkantvaart",NA,NA,"YES","I_8600_7",NA,NA,"VMM_Mtp","Lotisch",NA,"West-Vlaanderen","Diksmuide",8600,1,2083,NA,"VMM",NA,"d.slootmaekers@vmm.be",185,856,153,"32003","Diksmuide",1976-01-23,"1975123003",63802.16,150738759.43,"Diksmuide",43145.003275645,188867.002788473
FALSE,FALSE,NA,"Ijzer",NA,"TBD","YES","I_8600_8",NA,NA,NA,"Lotisch",NA,"West-Vlaanderen","Diksmuide",8600,NA,NA,NA,NA,NA,NA,185,856,153,"32003","Diksmuide",1976-01-23,"1975123003",63802.16,150738759.43,"Diksmuide",40816.8732834026,187583.271510912
FALSE,FALSE,NA,NA,"mwzkzmy1","08/07/2024","YES","I_8600_9",NA,NA,NA,"Lotisch",NA,"West-Vlaanderen","Diksmuide",8600,NA,NA,NA,NA,NA,NA,185,856,153,"32003","Diksmuide",1976-01-23,"1975123003",63802.16,150738759.43,"Diksmuide",42633.4075623109,197351.849569324
FALSE,FALSE,NA,NA,NA,NA,"YES","I_8600_10",NA,NA,NA,"Lotisch",NA,"West-Vlaanderen","Diksmuide",8600,NA,NA,NA,NA,NA,NA,185,856,153,"32003","Diksmuide",1976-01-23,"1975123003",63802.16,150738759.43,"Diksmuide",41562.5015672863,200265.444557394
FALSE,FALSE,"Woumen, Kasteelvijver","De Blankaart",NA,NA,"YES","I_8600_11",NA,NA,"ANB_Mtp","Lentisch",NA,"West-Vlaanderen","Diksmuide",8600,NA,NA,NA,"Dewulf Evy",NA,"recreatie.wvl.anb@vlaanderen.be",185,856,153,"32003","Diksmuide",1976-01-23,"1975123003",63802.16,150738759.43,"Diksmuide",44580.553017968,186965.0738525
FALSE,FALSE,"Diksmuide",NA,NA,NA,"YES","I_8600_12",NA,NA,"Scheers","Lentisch",NA,"West-Vlaanderen","Diksmuide",8600,NA,NA,NA,NA,NA,NA,185,856,153,"32003","Diksmuide",1976-01-23,"1975123003",63802.16,150738759.43,"Diksmuide",44743.0543332388,192678.242420604
FALSE,FALSE,NA,"Put van Nieuwkapelle",NA,NA,"YES","I_8600_13",NA,NA,"Scheers","Lentisch",NA,"West-Vlaanderen","Diksmuide",8600,NA,NA,NA,NA,NA,NA,185,856,153,"32003","Diksmuide",1976-01-23,"1975123003",63802.16,150738759.43,"Diksmuide",39982.0303335405,187998.288822177
FALSE,FALSE,NA,"nznmytqy",NA,NA,"YES","I_8600_14",NA,NA,NA,NA,NA,"West-Vlaanderen","Diksmuide",8600,NA,NA,NA,NA,NA,NA,185,856,153,"32003","Diksmuide",1976-01-23,"1975123003",63802.16,150738759.43,"Diksmuide",44630.8380004933,195702.749710265
FALSE,FALSE,NA,"Stjacobsleed","nznmytqy",NA,"YES","I_8600_15",NA,NA,NA,NA,NA,"West-Vlaanderen","Diksmuide",8600,NA,NA,NA,NA,NA,NA,185,856,153,"32003","Diksmuide",1976-01-23,"1975123003",63802.16,150738759.43,"Diksmuide",41666.1365559499,191846.889636936
FALSE,FALSE,NA,"Grote Beverdijkvaart","zmu2zji1","09/24","YES","I_8600_16",NA,NA,NA,NA,NA,"West-Vlaanderen","Diksmuide",8600,NA,NA,NA,NA,NA,NA,185,856,153,"32003","Diksmuide",1976-01-23,"1975123003",63802.16,150738759.43,"Diksmuide",40522.6143617144,197775.92890674
FALSE,FALSE,NA,"Oude A-vaart","zmu2zji1","09/24","YES","I_8600_17",NA,NA,NA,NA,NA,"West-Vlaanderen","Diksmuide",8600,NA,NA,NA,NA,NA,NA,185,856,153,"32003","Diksmuide",1976-01-23,"1975123003",63802.16,150738759.43,"Diksmuide",37943.6659956702,197169.40162288
FALSE,FALSE,"Moregem + Ooike,Pareel,Pareelstraat,afw weg","Volkaartsbeek",NA,NA,"YES","I_9790_1",NA,NA,"VMM_Mtp","Lotisch",NA,"Oost-Vlaanderen","Wortegem-Petegem",9790,2,5528,NA,"Oost-Vlaanderen",NA,"waterbeleid@oost-vlaanderen.be",193,861,266,"45061","Wortegem-Petegem",1976-01-23,"1975123003",41071.06,42472518.06,"Wortegem-Petegem",92059.9999130924,171465.99892576
FALSE,FALSE,"Oude Schelde Elsegem","Oude Schelde Wortegem-Petegem","zgrhnjvm",NA,"YES","I_9790_2",NA,NA,"EcoWater","Lentisch",NA,"Oost-Vlaanderen","Wortegem-Petegem",9790,NA,NA,NA,"Coppens Xavier",NA,"recreatie.ovl.anb@vlaanderen.be",193,861,266,"45061","Wortegem-Petegem",1976-01-23,"1975123003",41071.06,42472518.06,"Wortegem-Petegem",92287.4080027465,168402.099739292
FALSE,FALSE,"Elsegem, Scheldestraat,Het Anker","Oude Schelde Wortegem-Petegem",NA,NA,"YES","I_9790_3",NA,NA,"ANB_Mtp","Lentisch",NA,"Oost-Vlaanderen","Wortegem-Petegem",9790,0,0,NA,"Coppens Xavier",NA,"recreatie.ovl.anb@vlaanderen.be",193,861,266,"45061","Wortegem-Petegem",1976-01-23,"1975123003",41071.06,42472518.06,"Wortegem-Petegem",92393.9999122168,168419.998926694
FALSE,FALSE,"Budingen, Leeuwerstr (betonnen fietspad), opw brug","Kleine Gete",NA,NA,"YES","I_3440_1",NA,NA,"VMM_Mtp","Lotisch",NA,"Vlaams-Brabant","Zoutleeuw",3440,1,7161,NA,"VMM",NA,"d.slootmaekers@vmm.be",197,862,46,"24130","Zoutleeuw",1982-12-29,"1982001920",45584.38,46845084.75,"Zoutleeuw",202112.999877255,171893.998923438
FALSE,FALSE,"Budingen,aarden zijweg Molenstr thv hoek Steengrachtstr, opw brug","Grote Gete",NA,NA,"YES","I_3440_2",NA,NA,"VMM_Mtp","Lotisch",NA,"Vlaams-Brabant","Zoutleeuw",3440,1,7153,NA,"VMM",NA,"d.slootmaekers@vmm.be",197,862,46,"24130","Zoutleeuw",1982-12-29,"1982001920",45584.38,46845084.75,"Zoutleeuw",200971.999877617,171810.998923478
FALSE,FALSE,"Zoutleeuw, Koepoortstr, Molenbeek, opw brug","Dormaalbeek",NA,NA,"YES","I_3440_3",NA,NA,"VMM_Mtp","Lotisch",NA,"Vlaams-Brabant","Zoutleeuw",3440,1,7160,NA,"VMM",NA,"d.slootmaekers@vmm.be",197,862,46,"24130","Zoutleeuw",1982-12-29,"1982001920",45584.38,46845084.75,"Zoutleeuw",201254.999876688,168542.998924485
FALSE,FALSE,"Budingen, Terweidenstr, afw limnigraaf en brug","Gete",NA,NA,"YES","I_3440_4",NA,NA,"VMM_Mtp","Lotisch",NA,"Vlaams-Brabant","Zoutleeuw",3440,1,7162,NA,"VMM",NA,"d.slootmaekers@vmm.be",197,862,46,"24130","Zoutleeuw",1982-12-29,"1982001920",45584.38,46845084.75,"Zoutleeuw",201988.999877541,172875.998923125
TRUE,TRUE,"aan 430000, opw oude stenen brugje","Kleine Gete","nwi2m2u2","11/07/24","YES","I_3440_5",NA,NA,"VMM_Mtp","Lotisch",NA,"Vlaams-Brabant","Zoutleeuw",3440,2,7161,NA,"Vlaams-Brabant",NA,"ingrid.beuls@vlaamsbrabant.be",197,862,46,"24130","Zoutleeuw",1982-12-29,"1982001920",45584.38,46845084.75,"Zoutleeuw",202300.001632738,170952.002299467
TRUE,TRUE,"Leeuwerweg, thv kruispunt met landweg, vanaf 2de betonnen brugje","Vloedgracht","nwi2m2u2","11/07/24","YES","I_3440_6",NA,NA,"VMM_Mtp","Lotisch",NA,"Vlaams-Brabant","Zoutleeuw",3440,1,7957,NA,"VMM",NA,"d.slootmaekers@vmm.be",197,862,46,"24130","Zoutleeuw",1982-12-29,"1982001920",45584.38,46845084.75,"Zoutleeuw",201607.998939773,170312.997761931
FALSE,FALSE,"Zoutleeuw, Koepoortstr, begin traj opw mpl 443000","Dormaalbeek",NA,NA,"YES","I_3440_7",NA,NA,"VMM_Mtp","Lotisch",NA,"Vlaams-Brabant","Zoutleeuw",3440,1,7160,NA,"VMM",NA,"d.slootmaekers@vmm.be",197,862,46,"24130","Zoutleeuw",1982-12-29,"1982001920",45584.38,46845084.75,"Zoutleeuw",201254.999876688,168542.998924485
FALSE,FALSE,"vijver het Vinne, Zoutleeuw, thv zuidwestelijke punt, via knuppelpad, links in open water, thv dode boom","Vinne",NA,NA,"YES","I_3440_8",NA,NA,"ANB_Mtp","Lentisch",NA,"Vlaams-Brabant","Zoutleeuw",3440,NA,NA,NA,NA,NA,NA,197,862,46,"24130","Zoutleeuw",1982-12-29,"1982001920",45584.38,46845084.75,"Zoutleeuw",202842.999876444,169705.998924095
FALSE,FALSE,NA,"Watering De Kleine Gete","nwi2m2u2","11/07/24","NO","V_3440_9","waterpeil half juli te laag",NA,NA,NA,NA,"Vlaams-Brabant","Zoutleeuw",3440,NA,NA,NA,NA,NA,NA,197,862,46,"24130","Zoutleeuw",1982-12-29,"1982001920",45584.38,46845084.75,"Zoutleeuw",203010.972687364,170101.080689015
FALSE,FALSE,"Alken, Meerdegatstr, tss kruising met Expressweg Sint-Truiden en Jardinstr, opw weg","Kleine Herk",NA,NA,"YES","I_3570_1",NA,NA,"VMM_Mtp","Lotisch",NA,"Limburg","Alken",3570,1,7812,NA,"VMM",NA,"d.slootmaekers@vmm.be",203,866,42,"73001","Alken",1982-07-17,"1982001074",27712.88,28235495.91,"Alken",216052.003313654,175782.000035928
FALSE,FALSE,"Steenbruggestraat","Maalbeek",NA,NA,"YES","I_8570_1",NA,NA,"VMM_Mtp","Lotisch",NA,"West-Vlaanderen","Anzegem",8570,2,4851,NA,"West-Vlaanderen",NA,NA,219,876,275,"34002","Anzegem",1976-01-23,"1975123003",35541,42354123.41,"Anzegem",85645.9999151293,171485.998925922
TRUE,TRUE,"Houtvenne, Linieweg, afw brugje","Steenkensbeek","yjbjnzi1","TBD","YES","I_2235_1","bij voorkeur tussen 20/07 - 01/09",NA,"VMM_Mtp","Lotisch",NA,"Antwerpen","Hulshout",2235,2,8518,NA,"Antwerpen",NA,"hans.vanloy@provincieantwerpen.be",231,884,170,"13016","Hulshout",1982-12-29,"1982001920",31535.09,17378929.74,"Hulshout",180395.001289997,194739.003250919
FALSE,FALSE,"Hulshout; Linieweg; afw brugje mtp 324300","Steenkensbeek",NA,NA,"YES","I_2235_2","bij voorkeur tussen 20/07 - 01/09",NA,"VMM_Mtp","Lotisch",NA,"Antwerpen","Hulshout",2235,2,8518,NA,"Antwerpen",NA,"hans.vanloy@provincieantwerpen.be",231,884,170,"13016","Hulshout",1982-12-29,"1982001920",31535.09,17378929.74,"Hulshout",180330.999890353,194799.998916672
TRUE,TRUE,NA,"Grote Nete","yjbjnzi1","TBD","NO","V_2235_3",NA,NA,NA,NA,NA,"Antwerpen","Hulshout",2235,NA,NA,NA,NA,NA,NA,231,884,170,"13016","Hulshout",1982-12-29,"1982001920",31535.09,17378929.74,"Hulshout",179295.541519989,194713.876567425
FALSE,FALSE,"suggestie I Beuls VL Brabant","Herseltseloop","yjbjnzi1","TBD","NO","V_3130_1",NA,NA,NA,NA,NA,"Vlaams-Brabant","Begijnendijk",3130,NA,NA,NA,NA,NA,NA,247,894,188,"24007","Begijnendijk",1976-01-23,"1975123003",25399.72,17655416.61,"Begijnendijk",179937.419488175,190818.111222385
FALSE,FALSE,"Geetbets, Kasteellaan, opw brug","Gete",NA,NA,"YES","I_3450_1",NA,NA,"VMM_Mtp","Lotisch",NA,"Vlaams-Brabant","Geetbets",3450,9,7162,NA,NA,NA,NA,249,895,41,"24028","Geetbets",1976-01-23,"1975123003",32100.76,35517670.78,"Geetbets",203384.999878101,176912.998921842
FALSE,FALSE,"Grazen, Galgestr, opw brug","Melsterbeek",NA,NA,"YES","I_3454_1",NA,NA,"VMM_Mtp","Lotisch",NA,"Vlaams-Brabant","Geetbets",3454,1,7154,NA,"VMM",NA,"d.slootmaekers@vmm.be",249,895,41,"24028","Geetbets",1976-01-23,"1975123003",32100.76,35517670.78,"Geetbets",204867.999476491,172525.998723193
FALSE,FALSE,"Geetbets, Kasteellaan, 20m afw brug en 428800","Gete",NA,NA,"YES","I_3450_2",NA,NA,"VMM_Mtp","Lotisch",NA,"Vlaams-Brabant","Geetbets",3450,1,7162,NA,"VMM",NA,"d.slootmaekers@vmm.be",249,895,41,"24028","Geetbets",1976-01-23,"1975123003",32100.76,35517670.78,"Geetbets",203436.999878118,177020.998921814
FALSE,FALSE,"Geetbets, Dorpsstr, afw mpl 429000","Gete",NA,NA,"YES","I_3450_3",NA,NA,"VMM_Mtp","Lotisch",NA,"Vlaams-Brabant","Geetbets",3450,1,7162,NA,"VMM",NA,"d.slootmaekers@vmm.be",249,895,41,"24028","Geetbets",1976-01-23,"1975123003",32100.76,35517670.78,"Geetbets",202872.999877931,175540.998922278
FALSE,FALSE,"Geetbets, landweg in verlengde Brugkensweg, in wei 90° bocht links tot einde populierenrij, dan 90° bocht rechts tot aan de Gete, traject 50m opw einde wei","Gete",NA,NA,"YES","I_3450_4",NA,NA,"VMM_Mtp","Lotisch",NA,"Vlaams-Brabant","Geetbets",3450,1,7162,NA,"VMM",NA,"d.slootmaekers@vmm.be",249,895,41,"24028","Geetbets",1976-01-23,"1975123003",32100.76,35517670.78,"Geetbets",202431.999877864,174725.998922541
FALSE,FALSE,"33/1-2;Geetbets; einde traject op 10m afw brug aan MP 434000","Melsterbeek",NA,NA,"YES","I_3450_5",NA,NA,"VMM_Mtp","Lotisch",NA,"Vlaams-Brabant","Geetbets",3450,1,7154,NA,"VMM",NA,"d.slootmaekers@vmm.be",249,895,41,"24028","Geetbets",1976-01-23,"1975123003",32100.76,35517670.78,"Geetbets",203779.999877976,176912.998921836
FALSE,FALSE,"33/1-2;Runkelen.begin traject aan 1ste bocht opw MP 435000","Melsterbeek",NA,NA,"YES","I_3454_2",NA,NA,"VMM_Mtp","Lotisch",NA,"Vlaams-Brabant","Geetbets",3454,1,7154,NA,"VMM",NA,"d.slootmaekers@vmm.be",249,895,41,"24028","Geetbets",1976-01-23,"1975123003",32100.76,35517670.78,"Geetbets",204902.999876468,172513.998923206
FALSE,FALSE,"Ramsel; Ramselsestwg (zijstraat), opw brug","Raamdonksebeek","yjbjnzi1","TBD","YES","I_2230_1","bij voorkeur tussen 20/07 - 01/09",NA,"VMM_Mtp","Lotisch",NA,"Antwerpen","Herselt",2230,2,8657,NA,"Antwerpen",NA,"hans.vanloy@provincieantwerpen.be",253,897,168,"13013","Herselt",1976-01-23,"1975123003",46472.89,52372754.47,"Herselt",183685.998438919,192237.99767798
FALSE,FALSE,NA,"Herseltseloop","zjlmntu5",NA,"YES","I_2230_2",NA,NA,NA,NA,NA,"Antwerpen","Herselt",2230,NA,NA,NA,NA,NA,NA,253,897,168,"13013","Herselt",1976-01-23,"1975123003",46472.89,52372754.47,"Herselt",187477.013409348,190968.506934852
FALSE,FALSE,"Oostvleteren, Stavelestraat, Evershamhoeve","Poperingevaart","nzm3mdi0",NA,"YES","I_8640_1",NA,NA,"VMM_Mtp","Lotisch",NA,"West-Vlaanderen","Vleteren",8640,1,1203,NA,"VMM",NA,"d.slootmaekers@vmm.be",259,901,225,"33041","Vleteren",1976-01-23,"1975123003",37271.93,38576030.1,"Vleteren",33885.9988939993,183134.004414798
FALSE,FALSE,"Oostvleteren, Kruisboomstraat, Eikhoek","Poperingevaart",NA,NA,"YES","I_8640_2",NA,NA,"VMM_Mtp","Lotisch",NA,"West-Vlaanderen","Vleteren",8640,1,1203,NA,"VMM",NA,"d.slootmaekers@vmm.be",259,901,225,"33041","Vleteren",1976-01-23,"1975123003",37271.93,38576030.1,"Vleteren",35516.9999327672,179363.998924961
FALSE,FALSE,"Meeuwen, Peerderbaan, aan grensbord Meeuwen, OPW brug+LZP","Gielisbeek",NA,NA,"YES","I_3990_1",NA,NA,"VMM_Mtp","Lotisch",NA,"Limburg","Peer",3990,2,9663,NA,"Limburg",NA,"christel.bouchet@limburg.be",279,913,13,"72030","Peer",1982-07-17,"1982001074",47201.93,87235995.68,"Peer",228832.99987569,201216.998913945
FALSE,FALSE,"Wauberg, Meeuwerbaan (N719), grensbord Peer/Meeuwen, opw weg","Gielisbeek",NA,NA,"YES","I_3990_2",NA,NA,"VMM_Mtp","Lotisch",NA,"Limburg","Peer",3990,2,9663,NA,"Limburg",NA,"christel.bouchet@limburg.be",279,913,13,"72030","Peer",1982-07-17,"1982001074",47201.93,87235995.68,"Peer",228077.999875221,198331.998914841
FALSE,FALSE,"Wijchmaal, onverhard einde Elsevaart, opw. brugje","Bollisenbeek",NA,NA,"YES","I_3990_3",NA,NA,"VMM_Mtp","Lotisch",NA,"Limburg","Peer",3990,2,9702,NA,"Limburg",NA,"christel.bouchet@limburg.be",279,913,13,"72030","Peer",1982-07-17,"1982001074",47201.93,87235995.68,"Peer",222497.999877354,199265.998914633
FALSE,FALSE,"Bovenstestr, opw weg en zijgrachtjes","Kleinbeek",NA,NA,"YES","I_3990_4",NA,NA,"VMM_Mtp","Lotisch",NA,"Limburg","Peer",3990,2,9633,NA,"Limburg",NA,"christel.bouchet@limburg.be",279,913,13,"72030","Peer",1982-07-17,"1982001074",47201.93,87235995.68,"Peer",224494.999877462,202414.998913633
TRUE,TRUE,"Einde traject 10m afw brug aan MP 99500","Bollisenbeek","mwnhmtq1","TBD","YES","I_3990_5",NA,NA,"VMM_Mtp","Lotisch",NA,"Limburg","Peer",3990,2,9702,NA,"Limburg",NA,"christel.bouchet@limburg.be",279,913,13,"72030","Peer",1982-07-17,"1982001074",47201.93,87235995.68,"Peer",221623.998251467,201212.994505044
FALSE,FALSE,"Wijchmaal, Elsevaart, einde traject 10m afw brug aan MP 99550","Bollisenbeek",NA,NA,"YES","I_3990_6",NA,NA,"VMM_Mtp","Lotisch",NA,"Limburg","Peer",3990,2,9702,NA,"Limburg",NA,"christel.bouchet@limburg.be",279,913,13,"72030","Peer",1982-07-17,"1982001074",47201.93,87235995.68,"Peer",222458.999877389,199380.998914596
FALSE,FALSE,"Runkelen:Binderveldseweg/Binderveld:Molenstr, opw brug","Melsterbeek",NA,NA,"YES","I_3850_1",NA,NA,"VMM_Mtp","Lotisch",NA,"Limburg","Nieuwerkerken",3850,1,7154,NA,"VMM",NA,"d.slootmaekers@vmm.be",282,916,43,"71045","Nieuwerkerken",1982-07-17,"1982001074",35499.9,22509814.58,"Nieuwerkerken",205690.999476083,172043.998723331
FALSE,FALSE,"Vorsterweg,  afw brug","Grote Laak",NA,NA,"YES","I_3980_1",NA,NA,"VMM_Mtp","Lotisch",NA,"Limburg","Tessenderlo",3980,1,8503,NA,"VMM",NA,"d.slootmaekers@vmm.be",294,922,24,"71057","Tessenderlo",1849-06-23,NA,47356.87,51642534.54,"Tessenderlo",200835.999884106,197114.998915614
FALSE,FALSE,"Tessenderlo, zijstraat industrieweg, afw brug","Grotebeek",NA,NA,"YES","I_3980_2",NA,NA,"VMM_Mtp","Lotisch",NA,"Limburg","Tessenderlo",3980,1,7751,NA,"VMM",NA,"d.slootmaekers@vmm.be",294,922,24,"71057","Tessenderlo",1849-06-23,NA,47356.87,51642534.54,"Tessenderlo",203305.999882493,194053.998916524
FALSE,FALSE,"Laakdal; Vorst; Lindestraat; beginnen 10m opw brugje","Grote Laak",NA,NA,"YES","I_3980_3",NA,NA,"VMM_Mtp","Lotisch",NA,"Limburg","Tessenderlo",3980,1,8503,NA,"VMM",NA,"d.slootmaekers@vmm.be",294,922,24,"71057","Tessenderlo",1849-06-23,NA,47356.87,51642534.54,"Tessenderlo",198355.999884843,196771.998915758
FALSE,FALSE,"Tessenderlo; Vorsterweg; mtp 326100 (130m afw brug)","Grote Laak",NA,NA,"YES","I_3980_4",NA,NA,"VMM_Mtp","Lotisch",NA,"Limburg","Tessenderlo",3980,1,8503,NA,"VMM",NA,"d.slootmaekers@vmm.be",294,922,24,"71057","Tessenderlo",1849-06-23,NA,47356.87,51642534.54,"Tessenderlo",200811.999884119,197190.998915584
FALSE,FALSE,"Ham; Bergstraat; 120m afw straat beginnen (op scheiding maïsveld/bos)","Grote Laak",NA,NA,"YES","I_3980_5",NA,NA,"VMM_Mtp","Lotisch",NA,"Limburg","Tessenderlo",3980,1,8503,NA,"VMM",NA,"d.slootmaekers@vmm.be",294,922,24,"71057","Tessenderlo",1849-06-23,NA,47356.87,51642534.54,"Tessenderlo",204384.999882852,196892.998915633
FALSE,FALSE,"Meensel/Kapellen, aan  grensbord Kapellen / Glabbeek, Tiensebaan/Stationstr, langs weg, voor samenvloeiing met Dorpswaterloop","Begijnebeek",NA,NA,"YES","I_3381_1",NA,NA,"VMM_Mtp","Lotisch",NA,"Vlaams-Brabant","Glabbeek",3381,9,7163,NA,NA,NA,NA,299,926,260,"24137","Glabbeek",1976-01-23,"1975123003",30121.63,26991679.75,"Glabbeek",190548.999882224,176207.998922272
FALSE,FALSE,"Hoeleden, Zuurbemdestw, 10m afw 425000","Velpe",NA,NA,"YES","I_3471_1",NA,NA,"VMM_Mtp","Lotisch",NA,"Vlaams-Brabant","Glabbeek",3471,1,7155,NA,"VMM",NA,"d.slootmaekers@vmm.be",299,926,260,"24137","Glabbeek",1976-01-23,"1975123003",30121.63,26991679.75,"Glabbeek",193219.999880648,173524.998923059
FALSE,FALSE,NA,NA,NA,NA,"YES","I_8890_2",NA,NA,NA,NA,NA,"West-Vlaanderen","Moorslede",8890,NA,NA,NA,NA,NA,NA,306,930,246,"36012","Moorslede",1976-01-23,"1975123003",33891.35,35447842.73,"Moorslede",60034.4891829048,172226.628523211
FALSE,FALSE,NA,"Oude Veurnevaart - Langeleed",NA,NA,"YES","I_8670_1",NA,NA,"VMM_Mtp","Lotisch",NA,"West-Vlaanderen","Koksijde",8670,2,1212,NA,"Westkustpolder","058/314653","info@westkustpolder.be",7,931,139,"38014","Koksijde",1976-01-23,"1975123003",37877.29,50360804.1,"Koksijde",32061.9999391351,200637.998918596
FALSE,FALSE,NA,"Oude Veurnevaart - Langeleed",NA,NA,"YES","I_8670_2",NA,NA,"VMM_Mtp","Lotisch",NA,"West-Vlaanderen","Koksijde",8670,2,1212,NA,"Westkustpolder","058/314653","info@westkustpolder.be",7,931,139,"38014","Koksijde",1976-01-23,"1975123003",37877.29,50360804.1,"Koksijde",31166.9999390104,198977.998919135
FALSE,FALSE,"Privé (SUNPARKS)",NA,NA,NA,"YES","I_8670_3",NA,NA,"Scheers","Lentisch",NA,"West-Vlaanderen","Koksijde",8670,NA,NA,NA,NA,NA,NA,7,931,139,"38014","Koksijde",1976-01-23,"1975123003",37877.29,50360804.1,"Koksijde",33981.76873926,203507.544117657
FALSE,FALSE,"Ramskapelle, Diksmuidse weg, Koolhofbrug","Slijkvaart",NA,NA,"YES","I_8620_1",NA,NA,"VMM_Mtp","Lotisch",NA,"West-Vlaanderen","Nieuwpoort",8620,1,1211,NA,"VMM",NA,"d.slootmaekers@vmm.be",101,933,127,"38016","Nieuwpoort",1976-01-23,"1975123003",36451,33284018.61,"Nieuwpoort",36749.999937986,201799.998918094
FALSE,FALSE,"Ramskapelle, Violettestraat, Hve Rijkenhoek","Grote Beverdijkvaart",NA,NA,"YES","I_8620_2",NA,NA,"VMM_Mtp","Lotisch",NA,"West-Vlaanderen","Nieuwpoort",8620,1,1205,NA,"VMM",NA,"d.slootmaekers@vmm.be",101,933,127,"38016","Nieuwpoort",1976-01-23,"1975123003",36451,33284018.61,"Nieuwpoort",39519.9999370771,201572.998918064
FALSE,FALSE,"Ramskapelle, Koolhofstraat, Koolhofbrug","Slijkvaart",NA,NA,"YES","I_8620_3",NA,NA,"VMM_Mtp","Lotisch",NA,"West-Vlaanderen","Nieuwpoort",8620,1,1211,NA,"VMM",NA,"d.slootmaekers@vmm.be",101,933,127,"38016","Nieuwpoort",1976-01-23,"1975123003",36451,33284018.61,"Nieuwpoort",36508.9999379662,201425.998918207
FALSE,FALSE,"Kleine Beverdijkvaart","Kleine Beverdijkvaart","mwzkzmy1","15/07/2024","YES","I_8620_4",NA,NA,NA,"Lotisch",NA,"West-Vlaanderen","Diksmuide",8620,2,0,NA,"Westkustpolder","058/314653","info@westkustpolder.be",101,933,127,"38016","Nieuwpoort",1976-01-23,"1975123003",36451,33284018.61,"Nieuwpoort",41533.5152749062,200282.67296993
TRUE,TRUE,"Koolhofput in Nieuwpoort","Spaarbekken Koolhofvaart","mwu5ntqy",NA,"YES","I_8620_5",NA,NA,"EcoWater","Lentisch",NA,"West-Vlaanderen","Nieuwpoort",8620,NA,NA,NA,NA,NA,NA,101,933,127,"38016","Nieuwpoort",1976-01-23,"1975123003",36451,33284018.61,"Nieuwpoort",37126.8253485915,202701.210396226
FALSE,FALSE,"connected to Yser",NA,NA,NA,"YES","I_8620_6",NA,NA,"Scheers","Lentisch",NA,"West-Vlaanderen","Nieuwpoort",8620,NA,NA,NA,NA,NA,NA,101,933,127,"38016","Nieuwpoort",1976-01-23,"1975123003",36451,33284018.61,"Nieuwpoort",39428.8472488385,203476.835180819
FALSE,FALSE,"recreation area","Spaarbekken Koolhofvaart",NA,NA,"YES","I_8620_7",NA,NA,"Scheers","Lentisch",NA,"West-Vlaanderen","Nieuwpoort",8620,NA,NA,NA,NA,NA,NA,101,933,127,"38016","Nieuwpoort",1976-01-23,"1975123003",36451,33284018.61,"Nieuwpoort",37084.543538008,202299.116417929
FALSE,FALSE,"Utsenaken, Melkweg, opw brug","Grote Gete",NA,NA,"YES","I_3300_1",NA,NA,"VMM_Mtp","Lotisch",NA,"Vlaams-Brabant","Tienen",3300,99,7153,NA,NA,NA,NA,6,939,278,"24107","Tienen",1976-01-23,"1975123003",52957.06,72772287.99,"Tienen",193825.999879033,167964.998924786
FALSE,FALSE,"Oplinter, Oude Getestr, RO thv kruising/splitsing met zijweg","Grote Gete",NA,NA,"YES","I_3300_2",NA,NA,"VMM_Mtp","Lotisch",NA,"Vlaams-Brabant","Tienen",3300,1,7153,NA,"VMM",NA,"d.slootmaekers@vmm.be",6,939,278,"24107","Tienen",1976-01-23,"1975123003",52957.06,72772287.99,"Tienen",192580.999479154,166806.998725164
FALSE,FALSE,"Tienen, Oude Getestraat, opw. brug naar RWZI","Grote Gete",NA,NA,"YES","I_3300_3",NA,NA,"VMM_Mtp","Lotisch",NA,"Vlaams-Brabant","Tienen",3300,1,7153,NA,"VMM",NA,"d.slootmaekers@vmm.be",6,939,278,"24107","Tienen",1976-01-23,"1975123003",52957.06,72772287.99,"Tienen",192244.001801549,166274.997973843
FALSE,FALSE,"Tienen, Ambachtenlaan, afw. brug","Grote Gete",NA,NA,"YES","I_3300_4",NA,NA,"VMM_Mtp","Lotisch",NA,"Vlaams-Brabant","Tienen",3300,1,7153,NA,"VMM",NA,"d.slootmaekers@vmm.be",6,939,278,"24107","Tienen",1976-01-23,"1975123003",52957.06,72772287.99,"Tienen",191846.999879272,166307.998925326
FALSE,FALSE,"Tienen, St.-Helenavest, afw brug","Grote Gete",NA,NA,"YES","I_3300_5",NA,NA,"VMM_Mtp","Lotisch",NA,"Vlaams-Brabant","Tienen",3300,1,7153,NA,"VMM",NA,"d.slootmaekers@vmm.be",6,939,278,"24107","Tienen",1976-01-23,"1975123003",52957.06,72772287.99,"Tienen",189960.999879795,165887.99892549
FALSE,FALSE,"Tienen, Pastoorstr, opw weg","Grote Gete",NA,NA,"YES","I_3300_6",NA,NA,"VMM_Mtp","Lotisch",NA,"Vlaams-Brabant","Tienen",3300,1,7153,NA,"VMM",NA,"d.slootmaekers@vmm.be",6,939,278,"24107","Tienen",1976-01-23,"1975123003",52957.06,72772287.99,"Tienen",188797.999879799,164438.998925966
FALSE,FALSE,"Oplinter, Melkweg, 5m opw brug","Grote Gete",NA,NA,"YES","I_3300_7",NA,NA,"VMM_Mtp","Lotisch",NA,"Vlaams-Brabant","Tienen",3300,1,7153,NA,"VMM",NA,"d.slootmaekers@vmm.be",6,939,278,"24107","Tienen",1976-01-23,"1975123003",52957.06,72772287.99,"Tienen",193818.999879029,167939.998924795
FALSE,FALSE,"Oorbeek, Poastoorstr, 5m opw 441000","Grote Gete","ytfmywnh",NA,"YES","I_3300_8",NA,NA,"VMM_Mtp","Lotisch",NA,"Vlaams-Brabant","Tienen",3300,1,7153,NA,"VMM",NA,"d.slootmaekers@vmm.be",6,939,278,"24107","Tienen",1976-01-23,"1975123003",52957.06,72772287.99,"Tienen",188783.998531829,164429.002794228
FALSE,FALSE,"Tienen",NA,NA,NA,"YES","I_3300_9",NA,NA,"Scheers","Lentisch",NA,"Vlaams-Brabant","Tienen",3300,NA,NA,NA,NA,NA,NA,6,939,278,"24107","Tienen",1976-01-23,"1975123003",52957.06,72772287.99,"Tienen",191076.14227969,166977.801025123
FALSE,FALSE,"Moelingen, Voerenstraat, opw brug","Berwijn",NA,NA,"YES","I_3790_1",NA,NA,"VMM_Mtp","Lotisch",NA,"Limburg","Voeren",3790,1,9536,NA,"VMM",NA,"d.slootmaekers@vmm.be",9,941,55,"73109","Voeren",1976-01-23,"1975123003",53728.78,50608838.45,"Voeren",244876.999460061,161555.998726147
FALSE,FALSE,"34/7-8; Voeren; Route De Mouland. in bocht met Drees; begin traject 100m afw bocht (10m vanaf brug)","Voer",NA,NA,"YES","I_3798_1",NA,NA,"VMM_Mtp","Lotisch",NA,"Limburg","Voeren",3798,1,9574,NA,"VMM",NA,"d.slootmaekers@vmm.be",9,941,55,"73109","Voeren",1976-01-23,"1975123003",53728.78,50608838.45,"Voeren",247368.999859348,162124.998925943
FALSE,FALSE,"34/7-8; Moelingen; begin traject 60m opw monding in Maas","Berwijn",NA,NA,"YES","I_3790_2",NA,NA,"VMM_Mtp","Lotisch",NA,"Limburg","Voeren",3790,1,9536,NA,"VMM",NA,"d.slootmaekers@vmm.be",9,941,55,"73109","Voeren",1976-01-23,"1975123003",53728.78,50608838.45,"Voeren",242825.999860711,161344.998926235
FALSE,FALSE,"34/7-8; Moelingen; Aardeweg tussen Voerenstraat en Batticestraaat, via boomgaard; traject van klif (holle oever) tot dieper stuk","Berwijn",NA,NA,"YES","I_3790_3",NA,NA,"VMM_Mtp","Lotisch",NA,"Limburg","Voeren",3790,1,9536,NA,"Jacobs Karen",NA,"recreatie.lim.anb@vlaanderen.be",9,941,55,"73109","Voeren",1976-01-23,"1975123003",53728.78,50608838.45,"Voeren",245543.999859749,161267.998926221
FALSE,FALSE,NA,"Dijle",NA,NA,"YES","I_3040_1",NA,NA,"VMM_Mtp","Lotisch",NA,"Vlaams-Brabant","Huldenberg",3040,1,6551,NA,"VMM",NA,"d.slootmaekers@vmm.be",12,943,290,"24045","Huldenberg",1982-12-29,"1982001920",43678.89,39946049.87,"Huldenberg",168936.999486023,162900.998726761
FALSE,FALSE,"Neerijse, zijweg Eygenstr op RO Ijse, afw voetgangersbrugje 40m voor monding in de Dijle","Ijse",NA,NA,"YES","I_3040_2",NA,NA,"VMM_Mtp","Lotisch",NA,"Vlaams-Brabant","Huldenberg",3040,1,6556,NA,"VMM",NA,"d.slootmaekers@vmm.be",12,943,290,"24045","Huldenberg",1982-12-29,"1982001920",43678.89,39946049.87,"Huldenberg",169177.999887265,168118.998925142
FALSE,FALSE,"Neerijse, Lindenhoflaan, opw weg (FC), afw weg (BBI)","Ijse",NA,NA,"YES","I_3040_3",NA,NA,"VMM_Mtp","Lotisch",NA,"Vlaams-Brabant","Huldenberg",3040,1,6556,NA,"VMM",NA,"d.slootmaekers@vmm.be",12,943,290,"24045","Huldenberg",1982-12-29,"1982001920",43678.89,39946049.87,"Huldenberg",168692.999887247,167357.998925381
FALSE,FALSE,"Neerijse, Kamstr, opw weg en overstort","Ijse",NA,NA,"YES","I_3040_4",NA,NA,"VMM_Mtp","Lotisch",NA,"Vlaams-Brabant","Huldenberg",3040,1,6556,NA,"VMM",NA,"d.slootmaekers@vmm.be",12,943,290,"24045","Huldenberg",1982-12-29,"1982001920",43678.89,39946049.87,"Huldenberg",167829.999887425,166969.998925517
FALSE,FALSE,"Loonbeek, Bertelsheide, afw brug","Ijse",NA,NA,"YES","I_3040_5",NA,NA,"VMM_Mtp","Lotisch",NA,"Vlaams-Brabant","Huldenberg",3040,1,6556,NA,"VMM",NA,"d.slootmaekers@vmm.be",12,943,290,"24045","Huldenberg",1982-12-29,"1982001920",43678.89,39946049.87,"Huldenberg",167228.999887489,166438.998925696
FALSE,FALSE,"Huldenberg, Smeysberg, opw brug","Ijse",NA,NA,"YES","I_3040_6",NA,NA,"VMM_Mtp","Lotisch",NA,"Vlaams-Brabant","Huldenberg",3040,1,6556,NA,"VMM",NA,"d.slootmaekers@vmm.be",12,943,290,"24045","Huldenberg",1982-12-29,"1982001920",43678.89,39946049.87,"Huldenberg",165793.99988745,164426.998926347
FALSE,FALSE,"Sint-Agatha-Rode, Hoekstr, opw weg","Laan",NA,NA,"YES","I_3040_7",NA,NA,"VMM_Mtp","Lotisch",NA,"Vlaams-Brabant","Huldenberg",3040,1,6691,NA,"VMM",NA,"d.slootmaekers@vmm.be",12,943,290,"24045","Huldenberg",1982-12-29,"1982001920",43678.89,39946049.87,"Huldenberg",168661.999886545,164622.998926243
FALSE,FALSE,"Neerijse, Kamstr, 5m opw brug aan 4840000","Ijse",NA,NA,"YES","I_3040_8",NA,NA,"VMM_Mtp","Lotisch",NA,"Vlaams-Brabant","Huldenberg",3040,1,6556,NA,"VMM",NA,"d.slootmaekers@vmm.be",12,943,290,"24045","Huldenberg",1982-12-29,"1982001920",43678.89,39946049.87,"Huldenberg",167798.999887422,166945.998925531
FALSE,FALSE,"Huldenberg, Smeysberg, afw 484300 en 5m afw overstorten","Ijse",NA,NA,"YES","I_3040_9",NA,NA,"VMM_Mtp","Lotisch",NA,"Vlaams-Brabant","Huldenberg",3040,1,6556,NA,"VMM",NA,"d.slootmaekers@vmm.be",12,943,290,"24045","Huldenberg",1982-12-29,"1982001920",43678.89,39946049.87,"Huldenberg",166010.999887416,164573.998926297
FALSE,FALSE,"Huldenberg, De Peuthystraat 4 (bord Trepolia), in kasteeldomein, 10 m opw. brugje","Ijse",NA,NA,"YES","I_3040_10",NA,NA,"VMM_Mtp","Lotisch",NA,"Vlaams-Brabant","Huldenberg",3040,1,6556,NA,"VMM",NA,"d.slootmaekers@vmm.be",12,943,290,"24045","Huldenberg",1982-12-29,"1982001920",43678.89,39946049.87,"Huldenberg",164781.999887742,164263.998926412
FALSE,FALSE,"Sint-Agatha-Rode, Potterstr, einde traj 10m afw brug en 488200","Laan",NA,NA,"YES","I_3040_11",NA,NA,"VMM_Mtp","Lotisch",NA,"Vlaams-Brabant","Huldenberg",3040,1,6691,NA,"VMM",NA,"d.slootmaekers@vmm.be",12,943,290,"24045","Huldenberg",1982-12-29,"1982001920",43678.89,39946049.87,"Huldenberg",168427.999886498,164133.998926392
FALSE,FALSE,"Private?",NA,NA,NA,"YES","I_3040_12",NA,NA,"Scheers","Lentisch",NA,"Vlaams-Brabant","Huldenberg",3040,NA,NA,NA,NA,NA,NA,12,943,290,"24045","Huldenberg",1982-12-29,"1982001920",43678.89,39946049.87,"Huldenberg",165023.061587643,164213.119826424
FALSE,FALSE,"Reningelst, Vlamertingseweg zijweg, afw Reningelst","Kemmelbeek",NA,NA,"YES","I_8970_1",NA,NA,"VMM_Mtp","Lotisch",NA,"West-Vlaanderen","Poperinge",8970,2,1204,NA,"West-Vlaanderen",NA,NA,14,944,238,"33021","Poperinge",1976-01-23,"1975123003",74248.54,120373312.35,"Poperinge",37905.9999294868,169287.998927969
FALSE,FALSE,"Pezelhoekstraat, Reepje","Poperingevaart",NA,NA,"YES","I_8970_2",NA,NA,"VMM_Mtp","Lotisch",NA,"West-Vlaanderen","Poperinge",8970,1,1203,NA,"VMM",NA,"d.slootmaekers@vmm.be",14,944,238,"33021","Poperinge",1976-01-23,"1975123003",74248.54,120373312.35,"Poperinge",35679.9999314015,174119.998926561
FALSE,FALSE,"Ouderdomseweg","Hazelbeek",NA,NA,"YES","I_8970_3",NA,NA,"VMM_Mtp","Lotisch",NA,"West-Vlaanderen","Poperinge",8970,2,1997,NA,"West-Vlaanderen",NA,NA,14,944,238,"33021","Poperinge",1976-01-23,"1975123003",74248.54,120373312.35,"Poperinge",36711.9999302512,170862.998927522
FALSE,FALSE,"Vlamertinge","Kemmelbeek",NA,NA,"YES","I_8970_4",NA,NA,"VMM_Mtp","Lotisch",NA,"West-Vlaanderen","Poperinge",8970,2,1204,NA,"West-Vlaanderen",NA,NA,14,944,238,"33021","Poperinge",1976-01-23,"1975123003",74248.54,120373312.35,"Poperinge",38667.9999294826,170145.998927674
FALSE,FALSE,"Switch Road","Poperingevaart",NA,NA,"YES","I_8970_5",NA,NA,"VMM_Mtp","Lotisch",NA,"West-Vlaanderen","Poperinge",8970,1,1203,NA,"VMM",NA,"d.slootmaekers@vmm.be",14,944,238,"33021","Poperinge",1976-01-23,"1975123003",74248.54,120373312.35,"Poperinge",34789.999531485,173416.998726803
FALSE,FALSE,NA,"Poperingevaart",NA,NA,"YES","I_8970_6",NA,NA,"VMM_Mtp","Lotisch",NA,"West-Vlaanderen","Poperinge",8970,2,1203,NA,"West-Vlaanderen",NA,NA,14,944,238,"33021","Poperinge",1976-01-23,"1975123003",74248.54,120373312.35,"Poperinge",32500.9999314539,170489.99892777
FALSE,FALSE,NA,"Heidebeek",NA,NA,"YES","I_8972_1",NA,NA,"VMM_Mtp","Lotisch",NA,"West-Vlaanderen","Poperinge",8972,1,1217,NA,"VMM",NA,"d.slootmaekers@vmm.be",14,944,238,"33021","Poperinge",1976-01-23,"1975123003",74248.54,120373312.35,"Poperinge",26148.9999351227,177344.998925867
FALSE,FALSE,NA,"Yser-IJzer",NA,NA,"YES","I_8972_2",NA,NA,NA,"Lotisch",NA,"West-Vlaanderen","Poperinge",8972,0,0,NA,NA,NA,NA,14,944,238,"33021","Poperinge",1976-01-23,"1975123003",74248.54,120373312.35,"Poperinge",26136.8972571338,179397.060483568
FALSE,FALSE,"Tongeren, Hardelweg/Oude Blaarstraat, Natuurgebied ""De Kevie"", afw brug","Jeker",NA,NA,"YES","I_3700_1",NA,NA,"VMM_Mtp","Lotisch",NA,"Limburg","Tongeren",3700,1,9504,NA,"VMM",NA,"d.slootmaekers@vmm.be",15,945,52,"73083","Tongeren",1982-07-17,"1982001074",55561.02,87814000.04,"Tongeren",229126.999466048,163851.998725596
FALSE,FALSE,"Lauw, Brugstraat, opw brug","Jeker",NA,NA,"YES","I_3700_2",NA,NA,"VMM_Mtp","Lotisch",NA,"Limburg","Tongeren",3700,1,9504,NA,"VMM",NA,"d.slootmaekers@vmm.be",15,945,52,"73083","Tongeren",1982-07-17,"1982001074",55561.02,87814000.04,"Tongeren",223598.999866729,159193.998927117
FALSE,FALSE,"'s Herenelderen, Lindebornstr, afw weg en overstort","Demer",NA,NA,"YES","I_3700_3",NA,NA,"VMM_Mtp","Lotisch",NA,"Limburg","Tongeren",3700,2,7151,NA,"Limburg",NA,"christel.bouchet@limburg.be",15,945,52,"73083","Tongeren",1982-07-17,"1982001074",55561.02,87814000.04,"Tongeren",229724.999866722,167311.9989245
FALSE,FALSE,"Jesseren, Broekstraat, onverharde weg tussen huisnr. 18-20, 300 m tot einde voetbalveld, 100 m tot Mombeek, 100 m verder afw. bemonsteren.","Mombeek",NA,NA,"YES","I_3700_4",NA,NA,"VMM_Mtp","Lotisch",NA,"Limburg","Tongeren",3700,2,7159,NA,"Limburg",NA,"christel.bouchet@limburg.be",15,945,52,"73083","Tongeren",1982-07-17,"1982001074",55561.02,87814000.04,"Tongeren",222934.999868952,166984.998924688
FALSE,FALSE,"Sluizen, afw 144500","Jeker",NA,NA,"YES","I_3700_5",NA,NA,"VMM_Mtp","Lotisch",NA,"Limburg","Tongeren",3700,1,9504,NA,"VMM",NA,"d.slootmaekers@vmm.be",15,945,52,"73083","Tongeren",1982-07-17,"1982001074",55561.02,87814000.04,"Tongeren",231694.999864603,161670.99892625
FALSE,FALSE,NA,"Jeker",NA,NA,"YES","I_3700_6",NA,NA,"VMM_Mtp","Lotisch",NA,"Limburg","Tongeren",3700,1,9504,NA,"VMM",NA,"d.slootmaekers@vmm.be",15,945,52,"73083","Tongeren",1982-07-17,"1982001074",55561.02,87814000.04,"Tongeren",223081.999866835,158892.998927223
FALSE,FALSE,"Kolmont; opw Herkhofweg; begin mf-traject","Mombeek",NA,NA,"YES","I_3700_7",NA,NA,"VMM_Mtp","Lotisch",NA,"Limburg","Tongeren",3700,2,7159,NA,"Limburg",NA,"christel.bouchet@limburg.be",15,945,52,"73083","Tongeren",1982-07-17,"1982001074",55561.02,87814000.04,"Tongeren",223348.999868601,166163.998924933
FALSE,FALSE,"Tongeren",NA,NA,NA,"YES","I_3700_8",NA,NA,"Scheers","Lentisch",NA,"Limburg","Tongeren",3700,NA,NA,NA,NA,NA,NA,15,945,52,"73083","Tongeren",1982-07-17,"1982001074",55561.02,87814000.04,"Tongeren",226231.04616723,164638.379025383
FALSE,FALSE,"Tongeren",NA,NA,NA,"YES","I_3700_9",NA,NA,"Scheers","Lentisch",NA,"Limburg","Tongeren",3700,NA,NA,NA,NA,NA,NA,15,945,52,"73083","Tongeren",1982-07-17,"1982001074",55561.02,87814000.04,"Tongeren",225974.380867305,164605.776125389
FALSE,FALSE,"Linter-Drieslinter, Molenstr, aan 'Geensmolen', 5m opw brug","Grote Gete",NA,NA,"YES","I_3350_1",NA,NA,"VMM_Mtp","Lotisch",NA,"Vlaams-Brabant","Linter",3350,1,7153,NA,"VMM",NA,"d.slootmaekers@vmm.be",21,947,49,"24133","Linter",1976-01-23,"1975123003",39287.21,36871151.91,"Linter",197744.999878272,170156.998924036
FALSE,FALSE,"Moerkerke, Moerkerkebrug","Hoge Watering",NA,NA,"YES","I_8340_1",NA,NA,"VMM_Mtp","Lotisch",NA,"West-Vlaanderen","Damme",8340,2,2129,NA,"Oostkustpolder","050/333271","waterbeheer@oostkustpolder.be",29,949,83,"31006","Damme",1982-12-29,"1982001920",51254.41,90363616.08,"Damme",78618.9999282885,214992.998912822
FALSE,FALSE,"Lapscheure, Natienlaan","Zevengemete",NA,NA,"YES","I_8340_2",NA,NA,"VMM_Mtp","Lotisch",NA,"West-Vlaanderen","Damme",8340,2,2306,NA,"Oostkustpolder","050/333271","waterbeheer@oostkustpolder.be",29,949,83,"31006","Damme",1982-12-29,"1982001920",51254.41,90363616.08,"Damme",78935.9999292649,219296.998911502
FALSE,FALSE,"Sijsele, Brieversweg, Kaleshoek","Kaleshoekbeek",NA,NA,"YES","I_8340_3",NA,NA,"VMM_Mtp","Lotisch",NA,"West-Vlaanderen","Damme",8340,2,2713,NA,"Oostkustpolder","050/333271","waterbeheer@oostkustpolder.be",29,949,83,"31006","Damme",1982-12-29,"1982001920",51254.41,90363616.08,"Damme",79834.9999276522,214003.998913089
FALSE,FALSE,"Oostkerke, Sabtsweg","Zwinnevaart","mjcxzme1",NA,"YES","I_8340_4",NA,NA,"VMM_Mtp","Lotisch",NA,"West-Vlaanderen","Damme",8340,1,2230,NA,"VMM",NA,"d.slootmaekers@vmm.be",29,949,83,"31006","Damme",1982-12-29,"1982001920",51254.41,90363616.08,"Damme",74763.0726715602,219792.521583705
FALSE,FALSE,NA,"Hoge Watering",NA,NA,"YES","I_8340_5",NA,NA,"VMM_Mtp","Lotisch",NA,"West-Vlaanderen","Damme",8340,2,2129,NA,"Oostkustpolder","050/333271","waterbeheer@oostkustpolder.be",29,949,83,"31006","Damme",1982-12-29,"1982001920",51254.41,90363616.08,"Damme",78208.9999283886,214936.998912849
FALSE,FALSE,"Schipdonkvaart-Zuid, jaagpad","Zuidervaartje",NA,NA,"YES","I_8340_6",NA,NA,"VMM_Mtp","Lotisch",NA,"West-Vlaanderen","Damme",8340,1,2124,NA,"VMM",NA,"d.slootmaekers@vmm.be",29,949,83,"31006","Damme",1982-12-29,"1982001920",51254.41,90363616.08,"Damme",75255.9999299742,217545.998912135
FALSE,FALSE,"Rabattestraat","Zuidervaartje","mjcxzme1",NA,"YES","I_8340_7",NA,NA,"VMM_Mtp","Lotisch",NA,"West-Vlaanderen","Damme",8340,1,2124,NA,"VMM",NA,"d.slootmaekers@vmm.be",29,949,83,"31006","Damme",1982-12-29,"1982001920",51254.41,90363616.08,"Damme",74433.0029514959,216482.999126267
FALSE,FALSE,NA,"Zwinnevaart",NA,NA,"YES","I_8340_8",NA,NA,"Scheers","Lotisch",NA,"West-Vlaanderen","Damme",8340,1,2230,NA,"VMM",NA,"d.slootmaekers@vmm.be",29,949,83,"31006","Damme",1982-12-29,"1982001920",51254.41,90363616.08,"Damme",74235.2439584184,219239.912547737
FALSE,FALSE,NA,NA,"mjcxzme1",NA,"YES","I_8340_9",NA,NA,NA,"Lotisch",NA,"West-Vlaanderen","Damme",8340,NA,NA,NA,NA,NA,NA,29,949,83,"31006","Damme",1982-12-29,"1982001920",51254.41,90363616.08,"Damme",77924.6187715215,220578.060337953
FALSE,FALSE,NA,NA,NA,NA,"YES","I_8340_10",NA,NA,NA,"Lotisch",NA,"West-Vlaanderen","Damme",8340,NA,NA,NA,NA,NA,NA,29,949,83,"31006","Damme",1982-12-29,"1982001920",51254.41,90363616.08,"Damme",79290.339801602,215594.975913742
FALSE,FALSE,NA,NA,NA,NA,"YES","I_8340_11",NA,NA,NA,"Lotisch",NA,"West-Vlaanderen","Damme",8340,NA,NA,NA,NA,NA,NA,29,949,83,"31006","Damme",1982-12-29,"1982001920",51254.41,90363616.08,"Damme",80495.2547109653,215217.414742026
TRUE,TRUE,NA,"Ronselarebeek","zmrhymrm",NA,"NO","V_8000_6",NA,NA,NA,NA,NA,"West-Vlaanderen","Brugge",8000,NA,NA,NA,NA,NA,NA,29,949,83,"31006","Damme",1982-12-29,"1982001920",51254.41,90363616.08,"Damme",72090.4036535986,216940.768624268
FALSE,FALSE,NA,"Zuidwatergang","mdbjyzfk",NA,"YES","I_8340_12",NA,NA,NA,NA,NA,"West-Vlaanderen","Damme",8340,NA,NA,NA,NA,NA,NA,29,949,83,"31006","Damme",1982-12-29,"1982001920",51254.41,90363616.08,"Damme",74887.5231057363,222251.989964077
FALSE,FALSE,NA,NA,"ndfhyzg1","TBD","NO","V_8340_13",NA,NA,NA,NA,NA,"West-Vlaanderen","Damme",8340,NA,NA,NA,NA,NA,NA,29,949,83,"31006","Damme",1982-12-29,"1982001920",51254.41,90363616.08,"Damme",79901.2807180293,221484.511300696
TRUE,TRUE,NA,NA,"ndfhyzg1",NA,"NO","V_8340_14",NA,NA,NA,NA,NA,"West-Vlaanderen","Damme",8340,NA,NA,NA,NA,NA,NA,29,949,83,"31006","Damme",1982-12-29,"1982001920",51254.41,90363616.08,"Damme",78590.9756821015,220062.599434987
TRUE,TRUE,NA,NA,"ndfhyzg1",NA,"NO","V_8340_15",NA,NA,NA,NA,NA,"West-Vlaanderen","Damme",8340,NA,NA,NA,NA,NA,NA,29,949,83,"31006","Damme",1982-12-29,"1982001920",51254.41,90363616.08,"Damme",78168.1714525445,220769.432383304
TRUE,TRUE,NA,NA,"ndfhyzg1",NA,"NO","V_8340_16",NA,NA,NA,NA,NA,"West-Vlaanderen","Damme",8340,NA,NA,NA,NA,NA,NA,29,949,83,"31006","Damme",1982-12-29,"1982001920",51254.41,90363616.08,"Damme",75768.2862163623,221259.45524177
TRUE,TRUE,NA,"Hoekevaart","ndfhyzg1",NA,"NO","V_8340_17",NA,NA,NA,NA,NA,"West-Vlaanderen","Damme",8340,NA,NA,NA,NA,NA,NA,29,949,83,"31006","Damme",1982-12-29,"1982001920",51254.41,90363616.08,"Damme",77642.114574567,221566.759234983
TRUE,TRUE,NA,"De Platte Kreek (De kreken van Lapscheure)","ndfhyzg1",NA,"NO","V_8340_18",NA,NA,NA,NA,NA,"West-Vlaanderen","Damme",8340,NA,NA,NA,NA,NA,NA,29,949,83,"31006","Damme",1982-12-29,"1982001920",51254.41,90363616.08,"Damme",79458.9020028408,219750.292125786
TRUE,TRUE,NA,NA,"ndfhyzg1",NA,"NO","V_8340_19",NA,NA,NA,NA,NA,"West-Vlaanderen","Damme",8340,NA,NA,NA,NA,NA,NA,29,949,83,"31006","Damme",1982-12-29,"1982001920",51254.41,90363616.08,"Damme",79452.0768812167,219761.511782754
TRUE,TRUE,NA,NA,"ndfhyzg1",NA,"NO","V_8340_20",NA,NA,NA,NA,NA,"West-Vlaanderen","Damme",8340,NA,NA,NA,NA,NA,NA,29,949,83,"31006","Damme",1982-12-29,"1982001920",51254.41,90363616.08,"Damme",78645.9233308529,221519.459068674
TRUE,TRUE,NA,NA,"ndfhyzg1",NA,"NO","V_8340_21",NA,NA,NA,NA,NA,"West-Vlaanderen","Damme",8340,NA,NA,NA,NA,NA,NA,29,949,83,"31006","Damme",1982-12-29,"1982001920",51254.41,90363616.08,"Damme",75709.5846025444,218623.222653045
TRUE,TRUE,NA,NA,"ndfhyzg1",NA,"NO","V_8340_22",NA,NA,NA,NA,NA,"West-Vlaanderen","Damme",8340,NA,NA,NA,NA,NA,NA,29,949,83,"31006","Damme",1982-12-29,"1982001920",51254.41,90363616.08,"Damme",75744.474805922,218622.722838382
TRUE,TRUE,NA,NA,"ndfhyzg1",NA,"NO","V_8340_23",NA,NA,NA,NA,NA,"West-Vlaanderen","Damme",8340,NA,NA,NA,NA,NA,NA,29,949,83,"31006","Damme",1982-12-29,"1982001920",51254.41,90363616.08,"Damme",75447.3679861984,221742.521812566
TRUE,TRUE,NA,NA,"ndfhyzg1",NA,"NO","V_8340_24",NA,NA,NA,NA,NA,"West-Vlaanderen","Damme",8340,NA,NA,NA,NA,NA,NA,29,949,83,"31006","Damme",1982-12-29,"1982001920",51254.41,90363616.08,"Damme",79105.0267051852,221935.978694045
TRUE,TRUE,NA,NA,"ndfhyzg1",NA,"NO","V_8340_25",NA,NA,NA,NA,NA,"West-Vlaanderen","Damme",8340,NA,NA,NA,NA,NA,NA,29,949,83,"31006","Damme",1982-12-29,"1982001920",51254.41,90363616.08,"Damme",75253.1335145433,217989.433489857
FALSE,FALSE,"Boorsem, Langeweidestraat, opw brug - meetplaats 381 (provincie Limburg)","Ziepbeek","mtbiodey",NA,"YES","I_3631_1",NA,NA,"VMM_Mtp","Lotisch",NA,"Limburg","Maasmechelen",3631,2,9766,NA,"Limburg",NA,"christel.bouchet@limburg.be",34,951,38,"73042","Lanaken",1982-07-17,"1982001074",50622.53,58953775,"Lanaken",244016.545242799,181301.059731822
FALSE,FALSE,"Rekem, Oude god, opw brug - meetplaats 377 (provincie Limburg)","Ziepbeek",NA,NA,"YES","I_3621_1",NA,NA,"VMM_Mtp","Lotisch",NA,"Limburg","Lanaken",3621,2,9766,NA,"Limburg",NA,"christel.bouchet@limburg.be",34,951,38,"73042","Lanaken",1982-07-17,"1982001074",50622.53,58953775,"Lanaken",243988.999865105,180067.99892036
FALSE,FALSE,"freely accessible?, recreation area","Zonnevijver",NA,NA,"YES","I_3621_2",NA,NA,"Scheers","Lentisch",NA,"Limburg","Lanaken",3621,NA,NA,NA,NA,NA,NA,34,951,38,"73042","Lanaken",1982-07-17,"1982001074",50622.53,58953775,"Lanaken",241485.100295606,179464.061107366
TRUE,TRUE,"ANB","Aspermansvijver","odcxnmmx",NA,"YES","I_3621_3",NA,NA,"Scheers","Lentisch",NA,"Limburg","Lanaken",3621,NA,NA,NA,"Jacobs Karen",NA,"recreatie.lim.anb@vlaanderen.be",34,951,38,"73042","Lanaken",1982-07-17,"1982001074",50622.53,58953775,"Lanaken",241001.236952455,181445.52421083
FALSE,FALSE,"gemeente Lanaken?",NA,NA,NA,"YES","I_3620_1",NA,NA,"Scheers","Lentisch",NA,"Limburg","Lanaken",3620,NA,NA,NA,NA,NA,NA,34,951,38,"73042","Lanaken",1982-07-17,"1982001074",50622.53,58953775,"Lanaken",240892.288652314,177687.42009234
FALSE,FALSE,"LILA","Grindplas Hochterbampt",NA,NA,"YES","I_3620_2",NA,NA,"Scheers","Lentisch",NA,"Limburg","Lanaken",3620,NA,NA,NA,NA,NA,NA,34,951,38,"73042","Lanaken",1982-07-17,"1982001074",50622.53,58953775,"Lanaken",243179.548391374,177484.014041979
FALSE,FALSE,NA,"Broekgracht",NA,NA,"YES","I_1800_1",NA,NA,"Scheers","Lotisch",NA,"Vlaams-Brabant","Vilvoorde",1800,2,6873,NA,"Vlaams-Brabant",NA,"ingrid.beuls@vlaamsbrabant.be",39,954,313,"23088","Vilvoorde",1998-04-24,"1998000040",32975.9,21573640.58,"Vilvoorde",156486.258827325,182543.853905704
FALSE,FALSE,"Mispelarestraat",NA,NA,NA,"YES","I_8980_1",NA,NA,"VMM_Mtp","Lotisch",NA,"West-Vlaanderen","Zonnebeke",8980,2,58840,NA,"West-Vlaanderen",NA,NA,46,956,244,"33037","Zonnebeke",1976-01-23,"1975123003",52452.63,68092764.3,"Zonnebeke",55217.999925431,174459.998925858
FALSE,FALSE,"Beselare, Oude Kortrijkstraat, Reutel","Polygonebeek",NA,NA,"YES","I_8980_2",NA,NA,"VMM_Mtp","Lotisch",NA,"West-Vlaanderen","Zonnebeke",8980,2,4213,NA,"West-Vlaanderen",NA,NA,46,956,244,"33037","Zonnebeke",1976-01-23,"1975123003",52452.63,68092764.3,"Zonnebeke",53575.9999252912,171843.998926711
FALSE,FALSE,NA,"Heulebeek",NA,NA,"YES","I_8890_1",NA,NA,"VMM_Mtp","Lotisch",NA,"West-Vlaanderen","Moorslede",8890,2,4205,NA,"West-Vlaanderen",NA,NA,46,956,244,"33037","Zonnebeke",1976-01-23,"1975123003",52452.63,68092764.3,"Zonnebeke",58300.7794470651,172680.139859219
FALSE,FALSE,"Kanne, opw 144000 tot 20m voor brug","Jeker",NA,NA,"YES","I_3770_1",NA,NA,"VMM_Mtp","Lotisch",NA,"Limburg","Riemst",3770,1,9504,NA,"VMM",NA,"d.slootmaekers@vmm.be",47,957,51,"73066","Riemst",1982-07-17,"1982001074",46934.3,58056898.71,"Riemst",241737.999862812,168069.998924131
FALSE,FALSE,"zijbeek Hamonterbeek, Hamont, Lozerweg 100, via hoofdingang Lo kasteel De L'Escaille, opw onverharde weg","Lobeek",NA,NA,"YES","I_3930_1",NA,NA,"VMM_Mtp","Lotisch",NA,"Limburg","Hamont-Achel",3930,2,10201,NA,"Limburg",NA,"christel.bouchet@limburg.be",53,958,4,"72037","Hamont-Achel",1976-01-23,"1975123003",31990.03,43730055.49,"Hamont-Achel",232046.999877733,213593.998910065
FALSE,FALSE,"Hamont, Kluizerdijk, voor Achelse Kluis, 20m opw brug","Warmbeek",NA,NA,"YES","I_3930_2",NA,NA,"VMM_Mtp","Lotisch",NA,"Limburg","Hamont-Achel",3930,1,9508,NA,"VMM",NA,"d.slootmaekers@vmm.be",53,958,4,"72037","Hamont-Achel",1976-01-23,"1975123003",31990.03,43730055.49,"Hamont-Achel",228042.999881029,221223.998907762
FALSE,FALSE,"Achel, Koebroekerweg, einde traj 80m afw brug, begin traj aan gewone es op RO","Warmbeek",NA,NA,"YES","I_3930_3",NA,NA,"VMM_Mtp","Lotisch",NA,"Limburg","Hamont-Achel",3930,1,9508,NA,"VMM",NA,"d.slootmaekers@vmm.be",53,958,4,"72037","Hamont-Achel",1976-01-23,"1975123003",31990.03,43730055.49,"Hamont-Achel",228447.999880069,217973.998908758
FALSE,FALSE,"Oude Schelde Berchem Meerse","Rijtgracht",NA,NA,"YES","I_9690_1",NA,NA,"EcoWater","Lentisch",NA,"Oost-Vlaanderen","Kluisbergen",9690,NA,NA,NA,"Coppens Xavier",NA,"recreatie.ovl.anb@vlaanderen.be",59,960,297,"45060","Kluisbergen",1976-01-23,"1975123003",30379.76,30634940.74,"Kluisbergen",91876.267724609,166783.324322072
FALSE,FALSE,"Oude Schelde Scheiteput",NA,NA,NA,"YES","I_9690_2",NA,NA,"EcoWater","Lentisch",NA,"Oost-Vlaanderen","Kluisbergen",9690,NA,NA,NA,"Coppens Xavier",NA,"recreatie.ovl.anb@vlaanderen.be",59,960,297,"45060","Kluisbergen",1976-01-23,"1975123003",30379.76,30634940.74,"Kluisbergen",90531.0909121897,166316.337907054
FALSE,FALSE,"Berchem,zijweg einde Meersestraat,Schijtput",NA,"ywzmndyy",NA,"YES","I_9690_3",NA,NA,"ANB_Mtp","Lentisch",NA,"Oost-Vlaanderen","Kluisbergen",9690,NA,NA,NA,"Coppens Xavier",NA,"recreatie.ovl.anb@vlaanderen.be",59,960,297,"45060","Kluisbergen",1976-01-23,"1975123003",30379.76,30634940.74,"Kluisbergen",90559.9970588023,166280.000343067
FALSE,FALSE,"Berchem,Meers,Visserij","Rijtgracht",NA,NA,"YES","I_9690_4",NA,NA,"ANB_Mtp","Lentisch",NA,"Oost-Vlaanderen","Kluisbergen",9690,NA,NA,NA,"Coppens Xavier",NA,"recreatie.ovl.anb@vlaanderen.be",59,960,297,"45060","Kluisbergen",1976-01-23,"1975123003",30379.76,30634940.74,"Kluisbergen",91897.9999119593,166777.998927217
FALSE,FALSE,"Aldeneik, Herenlaakweg, aan rotonde linker fietsweg, 1ste pad links naar beneden","Bosbeek",NA,NA,"YES","I_3680_1",NA,NA,"VMM_Mtp","Lotisch",NA,"Limburg","Maaseik",3680,1,10004,NA,"VMM",NA,"d.slootmaekers@vmm.be",61,961,20,"72021","Maaseik",1982-07-17,"1982001074",60985.99,77184168.43,"Maaseik",250877.999867913,200310.998913966
FALSE,FALSE,"Opoeteren, Volmolenstraat, thv Volmolen, opw verval","Bosbeek",NA,NA,"YES","I_3680_2",NA,NA,"VMM_Mtp","Lotisch",NA,"Limburg","Maaseik",3680,1,10004,NA,"VMM",NA,"d.slootmaekers@vmm.be",61,961,20,"72021","Maaseik",1982-07-17,"1982001074",60985.99,77184168.43,"Maaseik",241451.999870323,197090.998915071
FALSE,FALSE,"Opoeteren, Dorpermolenstraat thv huis nr.2, 30m opw. molen LO","Bosbeek",NA,NA,"YES","I_3680_3",NA,NA,"VMM_Mtp","Lotisch",NA,"Limburg","Maaseik",3680,1,10004,NA,"VMM",NA,"d.slootmaekers@vmm.be",61,961,20,"72021","Maaseik",1982-07-17,"1982001074",60985.99,77184168.43,"Maaseik",240101.999470547,196121.99871539
FALSE,FALSE,"Opoeteren, Kasteelstraat, afw brug","Bosbeek",NA,NA,"YES","I_3680_4",NA,NA,"VMM_Mtp","Lotisch",NA,"Limburg","Maaseik",3680,1,10004,NA,"VMM",NA,"d.slootmaekers@vmm.be",61,961,20,"72021","Maaseik",1982-07-17,"1982001074",60985.99,77184168.43,"Maaseik",238818.99987065,194778.998915818
FALSE,FALSE,"Slagmolen, opw en afw brug","Bosbeek","nzzlmmvm",NA,"YES","I_3660_1",NA,NA,"VMM_Mtp","Lotisch",NA,"Limburg","Oudsbergen",3660,1,10004,NA,"VMM",NA,"d.slootmaekers@vmm.be",61,961,20,"72021","Maaseik",1982-07-17,"1982001074",60985.99,77184168.43,"Maaseik",241430.348914703,197092.30871112
FALSE,FALSE,"18/7-8; Wurfeld;onverharde zijweg van Wurfeldermolenweg; begin traject vanaf bomenrij","Bosbeek",NA,NA,"YES","I_3680_5",NA,NA,"VMM_Mtp","Lotisch",NA,"Limburg","Maaseik",3680,1,10004,NA,"VMM",NA,"d.slootmaekers@vmm.be",61,961,20,"72021","Maaseik",1982-07-17,"1982001074",60985.99,77184168.43,"Maaseik",247791.999868679,199119.998914364
FALSE,FALSE,"18/7-8;Opoeteren; Volmolenstraat ; einde traject 20m afw verval aan MP 135000","Bosbeek",NA,NA,"YES","I_3680_6",NA,NA,"VMM_Mtp","Lotisch",NA,"Limburg","Maaseik",3680,1,10004,NA,"VMM",NA,"d.slootmaekers@vmm.be",61,961,20,"72021","Maaseik",1982-07-17,"1982001074",60985.99,77184168.43,"Maaseik",241543.999870328,197206.99891503
FALSE,FALSE,NA,"Witbeek",NA,NA,"YES","I_3680_7",NA,NA,NA,"Lotisch",NA,"Limburg","Maaseik",3680,2,0,NA,"Limburg",NA,"christel.bouchet@limburg.be",61,961,20,"72021","Maaseik",1982-07-17,"1982001074",60985.99,77184168.43,"Maaseik",243238.298551263,198276.943968934
FALSE,FALSE,NA,"Herenlaak",NA,NA,"YES","I_3680_8",NA,NA,"Scheers","Lentisch",NA,"Limburg","Maaseik",3680,NA,NA,NA,NA,NA,NA,61,961,20,"72021","Maaseik",1982-07-17,"1982001074",60985.99,77184168.43,"Maaseik",250738.769034306,199619.456093792
TRUE,TRUE,NA,"Watering Het Grootbroek","n2jjztbi","16/9/24","NO","V_3680_9",NA,NA,NA,NA,NA,"Limburg","Maaseik",3680,NA,NA,NA,NA,NA,NA,61,961,20,"72021","Maaseik",1982-07-17,"1982001074",60985.99,77184168.43,"Maaseik",246147.777125075,200651.481042123
TRUE,TRUE,NA,"Witbeek","n2jjztbi","16/9/24","YES","I_3680_10",NA,NA,NA,NA,NA,"Limburg","Maaseik",3680,NA,NA,NA,NA,NA,NA,61,961,20,"72021","Maaseik",1982-07-17,"1982001074",60985.99,77184168.43,"Maaseik",244222.270661436,198771.323063657
FALSE,FALSE,"Nukerke, Holandstraat,opw weg","Molenbeek","zgrhnjvm",NA,"YES","I_9681_1",NA,NA,"VMM_Mtp","Lotisch",NA,"Oost-Vlaanderen","Maarkedal",9681,2,5578,NA,"Oost-Vlaanderen",NA,"waterbeleid@oost-vlaanderen.be",64,963,292,"45064","Maarkedal",1976-01-23,"1975123003",45433.23,46155034.93,"Maarkedal",96110.0013750288,164154.997784191
FALSE,FALSE,"Oudenaarde,Spoorweglaan. 100m stroomafwaarts vanaf spoorwegbrug","Maarkebeek","mdyxywvm","TBD","YES","I_9700_6",NA,NA,"VMM_Mtp","Lotisch",NA,"Oost-Vlaanderen","Oudenaarde",9700,1,5003,NA,"VMM",NA,"d.slootmaekers@vmm.be",64,963,292,"45064","Maarkedal",1976-01-23,"1975123003",45433.23,46155034.93,"Maarkedal",98704.6682303864,167838.369623009
FALSE,FALSE,"De Moeren, Chemin des limites, opw pompstation","Ringsloot",NA,NA,"YES","I_8630_1",NA,NA,"VMM_Mtp","Lotisch",NA,"West-Vlaanderen","Veurne",8630,2,14983,NA,"Westkustpolder","058/314653","info@westkustpolder.be",75,966,161,"38025","Veurne",1976-01-23,"1975123003",57104.22,97208764.81,"Veurne",23969.9999391363,190719.998921879
FALSE,FALSE,NA,"Steengracht",NA,NA,"YES","I_8630_2",NA,NA,"VMM_Mtp","Lotisch",NA,"West-Vlaanderen","Veurne",8630,2,1233,NA,"Westkustpolder","058/314653","info@westkustpolder.be",75,966,161,"38025","Veurne",1976-01-23,"1975123003",57104.22,97208764.81,"Veurne",30234.9999380201,193928.998920688
FALSE,FALSE,NA,"Steengracht",NA,NA,"YES","I_8630_3",NA,NA,"VMM_Mtp","Lotisch",NA,"West-Vlaanderen","Veurne",8630,2,1233,NA,"Westkustpolder","058/314653","info@westkustpolder.be",75,966,161,"38025","Veurne",1976-01-23,"1975123003",57104.22,97208764.81,"Veurne",31486.9999373758,192887.99892096
FALSE,FALSE,NA,"Oerenbeek",NA,NA,"YES","I_8630_4",NA,NA,"VMM_Mtp","Lotisch",NA,"West-Vlaanderen","Veurne",8630,2,1408,NA,"Westkustpolder","058/314653","info@westkustpolder.be",75,966,161,"38025","Veurne",1976-01-23,"1975123003",57104.22,97208764.81,"Veurne",32255.9999370155,192329.998921108
FALSE,FALSE,"Bulskamp, Moerhoek, Ringslotstraat",NA,NA,NA,"YES","I_8630_5",NA,NA,"VMM_Mtp","Lotisch",NA,"West-Vlaanderen","Veurne",8630,2,1295,NA,"Westkustpolder","058/314653","info@westkustpolder.be",75,966,161,"38025","Veurne",1976-01-23,"1975123003",57104.22,97208764.81,"Veurne",27925.9999387125,193866.998920786
FALSE,FALSE,NA,"Nieuwe Gracht",NA,NA,"YES","I_8630_6",NA,NA,"VMM_Mtp","Lotisch",NA,"West-Vlaanderen","Veurne",8630,2,1256,NA,"Westkustpolder","058/314653","info@westkustpolder.be",75,966,161,"38025","Veurne",1976-01-23,"1975123003",57104.22,97208764.81,"Veurne",29089.9999383813,193967.998920718
FALSE,FALSE,NA,NA,NA,NA,"YES","I_8630_7",NA,NA,NA,"Lotisch",NA,"West-Vlaanderen","Veurne",8630,2,0,NA,"Westkustpolder","058/314653","info@westkustpolder.be",75,966,161,"38025","Veurne",1976-01-23,"1975123003",57104.22,97208764.81,"Veurne",28253.9775970768,196448.207222537
FALSE,FALSE,NA,"Bergenvaart",NA,NA,"YES","I_8630_8",NA,NA,NA,"Lotisch",NA,"West-Vlaanderen","Veurne",8630,0,0,NA,NA,NA,NA,75,966,161,"38025","Veurne",1976-01-23,"1975123003",57104.22,97208764.81,"Veurne",29399.8429033682,195997.475898741
FALSE,FALSE,NA,"Lovaart",NA,NA,"YES","I_8630_9",NA,NA,NA,"Lotisch",NA,"West-Vlaanderen","Veurne",8630,0,0,NA,NA,NA,NA,75,966,161,"38025","Veurne",1976-01-23,"1975123003",57104.22,97208764.81,"Veurne",31629.147559087,195052.62508794
FALSE,FALSE,NA,"Bergenvaart",NA,NA,"YES","I_8630_10",NA,NA,NA,"Lotisch",NA,"West-Vlaanderen","Veurne",8630,0,0,NA,NA,NA,NA,75,966,161,"38025","Veurne",1976-01-23,"1975123003",57104.22,97208764.81,"Veurne",25062.2614836959,190560.046145327
FALSE,FALSE,NA,"Bergenvaart",NA,NA,"YES","I_8630_11",NA,NA,NA,"Lotisch",NA,"West-Vlaanderen","Veurne",8630,0,0,NA,NA,NA,NA,75,966,161,"38025","Veurne",1976-01-23,"1975123003",57104.22,97208764.81,"Veurne",27821.0193951808,191861.984586155
FALSE,FALSE,NA,NA,NA,NA,"YES","I_8630_12",NA,NA,"Scheers","Lentisch",NA,"West-Vlaanderen","Veurne",8630,NA,NA,NA,NA,NA,NA,75,966,161,"38025","Veurne",1976-01-23,"1975123003",57104.22,97208764.81,"Veurne",31505.7690383316,196723.636319805
FALSE,FALSE,NA,"Kleine Beverdijkvaart","zmu2zji1","09/24","YES","I_8630_13",NA,NA,NA,NA,NA,"West-Vlaanderen","Veurne",8630,NA,NA,NA,NA,NA,NA,75,966,161,"38025","Veurne",1976-01-23,"1975123003",57104.22,97208764.81,"Veurne",37642.7439135231,198638.03947433
FALSE,FALSE,NA,NA,NA,NA,"YES","I_8630_14",NA,NA,NA,NA,NA,"West-Vlaanderen","Veurne",8630,NA,NA,NA,NA,NA,NA,75,966,161,"38025","Veurne",1976-01-23,"1975123003",57104.22,97208764.81,"Veurne",30563.9118704794,198111.235272404
FALSE,FALSE,"Klijpestraat, opw weg","Molenbeek",NA,NA,"YES","I_9600_1",NA,NA,"VMM_Mtp","Lotisch",NA,"Oost-Vlaanderen","Ronse",9600,2,5188,NA,"Oost-Vlaanderen",NA,"waterbeleid@oost-vlaanderen.be",76,967,301,"45041","Ronse",1962-11-22,"1962110803",34032.98,34700502.14,"Ronse",92984.9999097347,159350.998929488
FALSE,FALSE,"César Snoecklaan,thv Utexbel,afw weg","Molenbeek",NA,NA,"YES","I_9600_2",NA,NA,"VMM_Mtp","Lotisch",NA,"Oost-Vlaanderen","Ronse",9600,2,5188,NA,"Oost-Vlaanderen",NA,"waterbeleid@oost-vlaanderen.be",76,967,301,"45041","Ronse",1962-11-22,"1962110803",34032.98,34700502.14,"Ronse",94743.9999093302,159962.99892925
TRUE,TRUE,"IJsmolenstraat,opw weg","Molenbeek","mdyxywvm","TBD","YES","I_9600_3",NA,NA,"VMM_Mtp","Lotisch",NA,"Oost-Vlaanderen","Ronse",9600,2,5188,NA,"Oost-Vlaanderen",NA,"waterbeleid@oost-vlaanderen.be",76,967,301,"45041","Ronse",1962-11-22,"1962110803",34032.98,34700502.14,"Ronse",99253.8146808504,161045.643455241
FALSE,FALSE,"Baremeers, 100m afw brug thv 740000","Molenbeek",NA,NA,"YES","I_9600_4",NA,NA,"VMM_Mtp","Lotisch",NA,"Oost-Vlaanderen","Ronse",9600,2,5188,NA,"Oost-Vlaanderen",NA,"waterbeleid@oost-vlaanderen.be",76,967,301,"45041","Ronse",1962-11-22,"1962110803",34032.98,34700502.14,"Ronse",92097.9999098792,158751.998929687
FALSE,FALSE,"César Snoecklaan thv Utexbel, 100m afw brug thv 740400","Molenbeek",NA,NA,"YES","I_9600_5",NA,NA,"VMM_Mtp","Lotisch",NA,"Oost-Vlaanderen","Ronse",9600,2,5188,NA,"Oost-Vlaanderen",NA,"waterbeleid@oost-vlaanderen.be",76,967,301,"45041","Ronse",1962-11-22,"1962110803",34032.98,34700502.14,"Ronse",94662.9999093532,159950.998929259
FALSE,FALSE,"Savooistraat, opw brug","Molenbeek","nmyxzdkw",NA,"YES","I_9600_6",NA,NA,"VMM_Mtp","Lotisch",NA,"Oost-Vlaanderen","Ronse",9600,2,5188,NA,"Oost-Vlaanderen",NA,"waterbeleid@oost-vlaanderen.be",76,967,301,"45041","Ronse",1962-11-22,"1962110803",34032.98,34700502.14,"Ronse",97136.909296703,160724.126451984
FALSE,FALSE,"Private?",NA,NA,NA,"YES","I_9600_7",NA,NA,"Scheers","Lentisch",NA,"Oost-Vlaanderen","Ronse",9600,NA,NA,NA,NA,NA,NA,76,967,301,"45041","Ronse",1962-11-22,"1962110803",34032.98,34700502.14,"Ronse",94757.0755094653,160520.917129081
FALSE,FALSE,NA,"Molenbeek","nmyxzdkw",NA,"YES","I_9600_8",NA,NA,NA,NA,NA,"Oost-Vlaanderen","Ronse",9600,NA,NA,NA,NA,NA,NA,76,967,301,"45041","Ronse",1962-11-22,"1962110803",34032.98,34700502.14,"Ronse",92261.4279043624,159073.990874641
FALSE,FALSE,"Ophoven, aan kruising met Dalerstr, opw brug","Abeek",NA,NA,"YES","I_3640_1",NA,NA,"VMM_Mtp","Lotisch",NA,"Limburg","Kinrooi",3640,1,9505,NA,"VMM",NA,"d.slootmaekers@vmm.be",98,977,12,"72018","Kinrooi",1971-04-21,"1971040901",45884.23,54803789.06,"Kinrooi",251023.999868471,202723.998913216
FALSE,FALSE,"Kinrooi, Breeërstwg, opw brug","Abeek",NA,NA,"YES","I_3640_2",NA,NA,"VMM_Mtp","Lotisch",NA,"Limburg","Kinrooi",3640,1,9505,NA,"VMM",NA,"d.slootmaekers@vmm.be",98,977,12,"72018","Kinrooi",1971-04-21,"1971040901",45884.23,54803789.06,"Kinrooi",246668.999870505,204832.998912603
TRUE,TRUE,"Molenbeersel, Bekerstr, 20m opw brug","Lossing","mznknjaw",NA,"YES","I_3640_3",NA,NA,"VMM_Mtp","Lotisch",NA,"Limburg","Kinrooi",3640,1,9967,NA,"VMM",NA,"d.slootmaekers@vmm.be",98,977,12,"72018","Kinrooi",1971-04-21,"1971040901",45884.23,54803789.06,"Kinrooi",247993.439593199,207577.350940432
TRUE,TRUE,"Molenbeersel, Weertersteenweg, onverhard pad natuurreservaat, 30m opw brug","Lossing","ztnhyzk1","TBD","YES","I_3640_4",NA,NA,"VMM_Mtp","Lotisch",NA,"Limburg","Kinrooi",3640,1,9967,NA,"VMM",NA,"d.slootmaekers@vmm.be",98,977,12,"72018","Kinrooi",1971-04-21,"1971040901",45884.23,54803789.06,"Kinrooi",245911.000514591,206941.999900302
FALSE,FALSE,"Molenbeersel, Grootbroekstr, onverharde weg thv Donkerdijk, to richting natuurreservaat","Lossing",NA,NA,"YES","I_3640_5",NA,NA,"VMM_Mtp","Lotisch",NA,"Limburg","Kinrooi",3640,1,9967,NA,"VMM",NA,"d.slootmaekers@vmm.be",98,977,12,"72018","Kinrooi",1971-04-21,"1971040901",45884.23,54803789.06,"Kinrooi",244199.999079066,206204.998514106
TRUE,TRUE,"Kessenich, Manestr, 10 m afw brug","Itterbeek","ztnhyzk1","TBD","YES","I_3640_6",NA,NA,"VMM_Mtp","Lotisch",NA,"Limburg","Kinrooi",3640,1,9522,NA,"VMM",NA,"d.slootmaekers@vmm.be",98,977,12,"72018","Kinrooi",1971-04-21,"1971040901",45884.23,54803789.06,"Kinrooi",248422.226715712,205469.013816684
FALSE,FALSE,"Kinrooi; begin traject 10m opw brug aan MP 125000","Abeek",NA,NA,"YES","I_3640_7",NA,NA,"VMM_Mtp","Lotisch",NA,"Limburg","Kinrooi",3640,1,9505,NA,"VMM",NA,"d.slootmaekers@vmm.be",98,977,12,"72018","Kinrooi",1971-04-21,"1971040901",45884.23,54803789.06,"Kinrooi",251032.999868484,202757.998913196
FALSE,FALSE,NA,"Abeek",NA,NA,"YES","I_3640_8",NA,NA,NA,"Lotisch",NA,"Limburg","Kinrooi",3640,1,0,NA,"VMM",NA,"d.slootmaekers@vmm.be",98,977,12,"72018","Kinrooi",1971-04-21,"1971040901",45884.23,54803789.06,"Kinrooi",248157.277139029,203493.327003695
FALSE,FALSE,"LILA","Kessenichplas; Dragrasaplas",NA,NA,"YES","I_3640_9",NA,NA,"Scheers","Lentisch",NA,"Limburg","Kinrooi",3640,NA,NA,NA,NA,NA,NA,98,977,12,"72018","Kinrooi",1971-04-21,"1971040901",45884.23,54803789.06,"Kinrooi",253374.592243079,204960.161022586
FALSE,FALSE,NA,"Grindplas De Spaanjerd",NA,NA,"YES","I_3640_10",NA,NA,"Scheers","Lentisch",NA,"Limburg","Kinrooi",3640,NA,NA,NA,NA,NA,NA,98,977,12,"72018","Kinrooi",1971-04-21,"1971040901",45884.23,54803789.06,"Kinrooi",253060.298863924,204450.590877661
TRUE,TRUE,NA,"Abeek","ztnhyzk1","TBD","NO","V_3640_15",NA,NA,NA,NA,NA,"Limburg","Kinrooi",3640,NA,NA,NA,NA,NA,NA,98,977,12,"72018","Kinrooi",1971-04-21,"1971040901",45884.23,54803789.06,"Kinrooi",245991.807790573,206753.141972941
TRUE,TRUE,NA,"Abeek","mznknjaw","28/08/24","YES","I_3640_16",NA,NA,NA,NA,NA,"Limburg","Kinrooi",3640,NA,NA,NA,NA,NA,NA,98,977,12,"72018","Kinrooi",1971-04-21,"1971040901",45884.23,54803789.06,"Kinrooi",246776.874308685,205649.888176328
TRUE,TRUE,NA,"Abeek","mznknjaw","TBD","YES","I_3640_17",NA,NA,NA,NA,NA,"Limburg","Kinrooi",3640,NA,NA,NA,NA,NA,NA,98,977,12,"72018","Kinrooi",1971-04-21,"1971040901",45884.23,54803789.06,"Kinrooi",243535.704362464,206222.94018145
TRUE,TRUE,NA,NA,"mznknjaw","05/09/24","NO","V_3640_18",NA,NA,NA,NA,NA,"Limburg","Kinrooi",3640,NA,NA,NA,NA,NA,NA,98,977,12,"72018","Kinrooi",1971-04-21,"1971040901",45884.23,54803789.06,"Kinrooi",246253.063864711,208838.205340544
TRUE,TRUE,NA,"Watering Het Grootbroek","mznknjaw",NA,"NO","V_3640_19",NA,NA,NA,NA,NA,"Limburg","Kinrooi",3640,NA,NA,NA,NA,NA,NA,98,977,12,"72018","Kinrooi",1971-04-21,"1971040901",45884.23,54803789.06,"Kinrooi",246780.630873009,205936.370228635
TRUE,TRUE,NA,"Watering Het Grootbroek","mznknjaw","16/9/24","NO","V_3640_20",NA,NA,NA,NA,NA,"Limburg","Kinrooi",3640,NA,NA,NA,NA,NA,NA,98,977,12,"72018","Kinrooi",1971-04-21,"1971040901",45884.23,54803789.06,"Kinrooi",247351.810911723,207295.997014689
TRUE,TRUE,"Dworp/Essenbeek, Winkelaar/Kapittel, 5 m opw weg (voorbij zijgrachtje)","Steenputbeek","yjq4y2nh",NA,"YES","I_1653_1",NA,NA,"VMM_Mtp","Lotisch",NA,"Vlaams-Brabant","Beersel",1653,9,7068,NA,NA,NA,NA,115,981,304,"23003","Beersel",1982-12-29,"1982001920",34393.54,30401840.54,"Beersel",144295.281378312,157367.595531427
FALSE,FALSE,"recreation area, Provincial Dom. Huizingen",NA,NA,NA,"YES","I_1654_1",NA,NA,"Scheers","Lentisch",NA,"Vlaams-Brabant","Beersel",1654,NA,NA,NA,NA,NA,NA,115,981,304,"23003","Beersel",1982-12-29,"1982001920",34393.54,30401840.54,"Beersel",143856.344693291,159106.918728409
TRUE,TRUE,NA,"Molenbeek","mzc3ytq4",NA,"YES","I_1654_2",NA,NA,NA,NA,NA,"Vlaams-Brabant","Beersel",1654,NA,NA,NA,NA,NA,NA,115,981,304,"23003","Beersel",1982-12-29,"1982001920",34393.54,30401840.54,"Beersel",142732.795973775,160647.246901846
FALSE,FALSE,"Ezemaal, Broekstr, opw brug","Kleine Gete",NA,NA,"YES","I_3400_1",NA,NA,"VMM_Mtp","Lotisch",NA,"Vlaams-Brabant","Landen",3400,1,7161,NA,"VMM",NA,"d.slootmaekers@vmm.be",119,982,53,"24059","Landen",1976-01-23,"1975123003",45171.21,53302265.13,"Landen",194709.999877448,162919.998926345
FALSE,FALSE,"Rumsdorp, Beemdenstr, opw RWZI, afw brug + LZP","Dormaalbeek",NA,NA,"YES","I_3400_2",NA,NA,"VMM_Mtp","Lotisch",NA,"Vlaams-Brabant","Landen",3400,2,7160,NA,"Vlaams-Brabant",NA,"ingrid.beuls@vlaamsbrabant.be",119,982,53,"24059","Landen",1976-01-23,"1975123003",45171.21,53302265.13,"Landen",200138.002135514,162056.995768893
FALSE,FALSE,"Walsbets, Karolingerslaan,opw weg","De Zeyb",NA,NA,"YES","I_3400_3",NA,NA,"VMM_Mtp","Lotisch",NA,"Vlaams-Brabant","Landen",3400,2,7274,NA,"Vlaams-Brabant",NA,"ingrid.beuls@vlaamsbrabant.be",119,982,53,"24059","Landen",1976-01-23,"1975123003",45171.21,53302265.13,"Landen",199515.99987498,159548.998927324
TRUE,TRUE,"Neerwinden-Ezemaal, 30m opw 433000","Kleine Gete","yji2zte1","TBD","YES","I_3400_4",NA,NA,"VMM_Mtp","Lotisch",NA,"Vlaams-Brabant","Landen",3400,1,7161,NA,"VMM",NA,"d.slootmaekers@vmm.be",119,982,53,"24059","Landen",1976-01-23,"1975123003",45171.21,53302265.13,"Landen",194706.997570609,162911.99878434
FALSE,FALSE,"Walshoutem, Cl.Gregoirestr, begin traj 100m afw brugje","Dormaalbeek",NA,NA,"YES","I_3401_1",NA,NA,"VMM_Mtp","Lotisch",NA,"Vlaams-Brabant","Landen",3401,2,7160,NA,"Vlaams-Brabant",NA,"ingrid.beuls@vlaamsbrabant.be",119,982,53,"24059","Landen",1976-01-23,"1975123003",45171.21,53302265.13,"Landen",200963.999874226,158563.998927612
FALSE,FALSE,"Langemark, Sint-Juliaan, Brugseweg, afw samenvloei","Martjevaart",NA,NA,"YES","I_8920_1",NA,NA,"VMM_Mtp","Lotisch",NA,"West-Vlaanderen","Langemark-Poelkapelle",8920,2,1216,NA,"West-Vlaanderen",NA,NA,121,983,226,"33040","Langemark-Poelkapelle",1976-01-23,"1975123003",37913.69,53068003.28,"Langemark-Poelkapelle",49239.9999277932,176439.998925426
FALSE,FALSE,"Roeselarestraat","Nieuwebeek",NA,NA,"YES","I_8920_2",NA,NA,"VMM_Mtp","Lotisch",NA,"West-Vlaanderen","Langemark-Poelkapelle",8920,2,1377,NA,"West-Vlaanderen",NA,NA,121,983,226,"33040","Langemark-Poelkapelle",1976-01-23,"1975123003",37913.69,53068003.28,"Langemark-Poelkapelle",51738.9999269314,176156.998925442
FALSE,FALSE,"Poelkapelle, Lange Molenstraat, afw Paddebeek","Lekkerboterbeek",NA,NA,"YES","I_8920_3",NA,NA,"VMM_Mtp","Lotisch",NA,"West-Vlaanderen","Langemark-Poelkapelle",8920,2,1543,NA,"West-Vlaanderen",NA,NA,121,983,226,"33040","Langemark-Poelkapelle",1976-01-23,"1975123003",37913.69,53068003.28,"Langemark-Poelkapelle",52314.9999274838,179065.998924532
FALSE,FALSE,"Merkem, Iepersteenweg","Martjevaart",NA,NA,"YES","I_8920_4",NA,NA,"VMM_Mtp","Lotisch",NA,"West-Vlaanderen","Langemark-Poelkapelle",8920,1,10592,NA,"VMM",NA,"d.slootmaekers@vmm.be",121,983,226,"33040","Langemark-Poelkapelle",1976-01-23,"1975123003",37913.69,53068003.28,"Langemark-Poelkapelle",43995.9999308475,182197.998923825
FALSE,FALSE,"Bikscshote, Pottestraat, Sint-Janskapel","Martjevaart",NA,NA,"YES","I_8920_5",NA,NA,"VMM_Mtp","Lotisch",NA,"West-Vlaanderen","Langemark-Poelkapelle",8920,1,1216,NA,"VMM",NA,"d.slootmaekers@vmm.be",121,983,226,"33040","Langemark-Poelkapelle",1976-01-23,"1975123003",37913.69,53068003.28,"Langemark-Poelkapelle",45873.9999299968,181120.998924104
FALSE,FALSE,NA,"Broenbeek",NA,NA,"YES","I_8920_6",NA,NA,"VMM_Mtp","Lotisch",NA,"West-Vlaanderen","Langemark-Poelkapelle",8920,2,1939,NA,"West-Vlaanderen",NA,NA,121,983,226,"33040","Langemark-Poelkapelle",1976-01-23,"1975123003",37913.69,53068003.28,"Langemark-Poelkapelle",49281.9999287654,180421.998924205
FALSE,FALSE,"Klein-Gelmen; einde traject 10m afw brug over daalstraat","Herk",NA,NA,"YES","I_3870_1",NA,NA,"VMM_Mtp","Lotisch",NA,"Limburg","Heers",3870,2,7152,NA,"Limburg",NA,"christel.bouchet@limburg.be",126,985,54,"73022","Heers",1982-07-17,"1982001074",49348.08,53060425.72,"Heers",213996.999870969,163018.998926041
FALSE,FALSE,"Hoegaarden, Stationstr, opw brug","Grote Gete","ytfmywnh",NA,"YES","I_3320_1",NA,NA,"VMM_Mtp","Lotisch",NA,"Vlaams-Brabant","Hoegaarden",3320,1,7153,NA,"VMM",NA,"d.slootmaekers@vmm.be",129,986,296,"24041","Hoegaarden",1976-01-23,"1975123003",38739.57,34128183.22,"Hoegaarden",187359.997559157,162715.002021437
FALSE,FALSE,"Hoegaarden, langs Persstr, begin traj opw betonnen brugje","Mene","ytfmywnh",NA,"YES","I_3320_2",NA,NA,"VMM_Mtp","Lotisch",NA,"Vlaams-Brabant","Hoegaarden",3320,2,7835,NA,"Vlaams-Brabant",NA,"ingrid.beuls@vlaamsbrabant.be",129,986,296,"24041","Hoegaarden",1976-01-23,"1975123003",38739.57,34128183.22,"Hoegaarden",184763.002044834,165507.999589734
FALSE,FALSE,"Maasmechelen, begin MF-traject 10m opw brug aan MP 139700","Kikbeek",NA,NA,"YES","I_3630_1",NA,NA,"VMM_Mtp","Lotisch",NA,"Limburg","Maasmechelen",3630,2,9986,NA,"Limburg",NA,"christel.bouchet@limburg.be",136,989,31,"73107","Maasmechelen",1982-07-17,"1982001074",55674.4,76849959.08,"Maasmechelen",244752.99986595,184397.998918989
FALSE,FALSE,"Maasmechelen, begin MF-traject 10m opw brug aan MP 139802","Kikbeek",NA,NA,"YES","I_3630_2",NA,NA,"VMM_Mtp","Lotisch",NA,"Limburg","Maasmechelen",3630,9,9986,NA,NA,NA,NA,136,989,31,"73107","Maasmechelen",1982-07-17,"1982001074",55674.4,76849959.08,"Maasmechelen",244070.999865893,183231.998919362
FALSE,FALSE,"Maasmechelen, einde MF-traject 20m afw brug aan MP 139820","Kikbeek",NA,NA,"YES","I_3630_3",NA,NA,"VMM_Mtp","Lotisch",NA,"Limburg","Maasmechelen",3630,2,9986,NA,"Limburg",NA,"christel.bouchet@limburg.be",136,989,31,"73107","Maasmechelen",1982-07-17,"1982001074",55674.4,76849959.08,"Maasmechelen",242530.999866251,182591.998919581
FALSE,FALSE,"F. limosus","Grindplas Eisden Mijn",NA,NA,"YES","I_3630_4",NA,NA,"Scheers","Lentisch",NA,"Limburg","Maasmechelen",3630,NA,NA,NA,NA,NA,NA,136,989,31,"73107","Maasmechelen",1982-07-17,"1982001074",55674.4,76849959.08,"Maasmechelen",242318.842064978,188504.9667932
FALSE,FALSE,"private?",NA,NA,NA,"YES","I_3630_5",NA,NA,"Scheers","Lentisch",NA,"Limburg","Maasmechelen",3630,NA,NA,NA,NA,NA,NA,136,989,31,"73107","Maasmechelen",1982-07-17,"1982001074",55674.4,76849959.08,"Maasmechelen",241214.649104445,182076.071916076
FALSE,FALSE,NA,"Vroegere scheepswerf Sint-Barbara",NA,NA,"YES","I_3630_6",NA,NA,"Scheers","Lentisch",NA,"Limburg","Maasmechelen",3630,NA,NA,NA,NA,NA,NA,136,989,31,"73107","Maasmechelen",1982-07-17,"1982001074",55674.4,76849959.08,"Maasmechelen",243874.969746501,186880.436792017
FALSE,FALSE,NA,"Maesbempder Greend",NA,NA,"YES","I_3630_7",NA,NA,"Scheers","Lentisch",NA,"Limburg","Maasmechelen",3630,NA,NA,NA,NA,NA,NA,136,989,31,"73107","Maasmechelen",1982-07-17,"1982001074",55674.4,76849959.08,"Maasmechelen",245919.101265675,186320.935293933
FALSE,FALSE,NA,"Kanaal","mtbiodey",NA,"YES","I_3631_2",NA,NA,NA,NA,NA,"Limburg","Maasmechelen",3631,NA,NA,NA,NA,NA,NA,136,989,31,"73107","Maasmechelen",1982-07-17,"1982001074",55674.4,76849959.08,"Maasmechelen",244443.635495287,181292.386597045
FALSE,FALSE,NA,"Kikbeek",NA,NA,"YES","I_3630_8",NA,NA,NA,NA,NA,"Limburg","Maasmechelen",3630,NA,NA,NA,NA,NA,NA,136,989,31,"73107","Maasmechelen",1982-07-17,"1982001074",55674.4,76849959.08,"Maasmechelen",243705.981843749,183280.182379433
FALSE,FALSE,"Grimbergen/Meise, Sprietmolenstr/Maalbeekln nr 37, begin traject 100m afw brug","Maalbeek",NA,NA,"YES","I_1850_1",NA,NA,"VMM_Mtp","Lotisch",NA,"Vlaams-Brabant","Grimbergen",1850,2,6673,NA,"Vlaams-Brabant",NA,"ingrid.beuls@vlaamsbrabant.be",158,992,314,"23025","Grimbergen",1998-04-24,"1998000040",34948.79,38670319.3,"Grimbergen",148140.999897004,179178.998922106
FALSE,FALSE,"Spiere,Pijpestraat,afw weg","Grote Spiere",NA,NA,"YES","I_8587_1",NA,NA,"VMM_Mtp","Lotisch",NA,"West-Vlaanderen","Spiere-Helkijn",8587,1,5039,NA,"VMM",NA,"d.slootmaekers@vmm.be",171,995,58,"34043","Spiere-Helkijn",1976-01-23,"1975123003",20056.53,10815236.5,"Spiere-Helkijn",77836.9999141844,157987.998930291
FALSE,FALSE,"Spiere,Oudenaardseweg","Zwarte Spiere",NA,NA,"YES","I_8587_2",NA,NA,"VMM_Mtp","Lotisch",NA,"West-Vlaanderen","Spiere-Helkijn",8587,1,5523,NA,"VMM",NA,"d.slootmaekers@vmm.be",171,995,58,"34043","Spiere-Helkijn",1976-01-23,"1975123003",20056.53,10815236.5,"Spiere-Helkijn",78445.9999136637,156688.998930676
FALSE,FALSE,"Spiere, Oudenaardseweg (100m voor gewestgrens)","Zwarte Spiere",NA,NA,"YES","I_8587_3",NA,NA,"VMM_Mtp","Lotisch",NA,"West-Vlaanderen","Spiere-Helkijn",8587,1,5523,NA,"VMM",NA,"d.slootmaekers@vmm.be",171,995,58,"34043","Spiere-Helkijn",1976-01-23,"1975123003",20056.53,10815236.5,"Spiere-Helkijn",77754.9999138709,156646.998930708
FALSE,FALSE,"Spiere,Pijpestraat,opw kasteelhoeve,opw weg","Grote Spiere",NA,NA,"YES","I_8587_4",NA,NA,"VMM_Mtp","Lotisch",NA,"West-Vlaanderen","Spiere-Helkijn",8587,1,5039,NA,"VMM",NA,"d.slootmaekers@vmm.be",171,995,58,"34043","Spiere-Helkijn",1976-01-23,"1975123003",20056.53,10815236.5,"Spiere-Helkijn",77829.9999141894,157996.998930288
FALSE,FALSE,"Spiere,Hellenhoek,opw zijwaterlopen","Grote Spiere",NA,NA,"YES","I_8587_5",NA,NA,"VMM_Mtp","Lotisch",NA,"West-Vlaanderen","Spiere-Helkijn",8587,1,5039,NA,"VMM",NA,"d.slootmaekers@vmm.be",171,995,58,"34043","Spiere-Helkijn",1976-01-23,"1975123003",20056.53,10815236.5,"Spiere-Helkijn",78529.999913878,157581.9989304
TRUE,TRUE,"Lembeek, Heldenstr/Gasthuisstr, afw brug","Zenne","yjq4y2nh",NA,"YES","I_1502_1",NA,NA,"VMM_Mtp","Lotisch",NA,"Vlaams-Brabant","Halle",1502,1,6552,NA,"VMM",NA,"d.slootmaekers@vmm.be",201,1009,306,"23027","Halle",1982-12-29,"1982001920",45802.86,44982744.28,"Halle",139897.657429732,155728.818225555
FALSE,FALSE,"Lembeek, Perregatstr, opw brug","Zenne",NA,NA,"YES","I_1502_2",NA,NA,"VMM_Mtp","Lotisch",NA,"Vlaams-Brabant","Halle",1502,1,6552,NA,"VMM",NA,"d.slootmaekers@vmm.be",201,1009,306,"23027","Halle",1982-12-29,"1982001920",45802.86,44982744.28,"Halle",139324.999893838,155466.998929638
FALSE,FALSE,NA,"Lembeekbosbeek",NA,NA,"YES","I_1502_3",NA,NA,"Scheers","Lentisch",NA,"Vlaams-Brabant","Halle",1502,9,0,NA,NA,NA,NA,201,1009,306,"23027","Halle",1982-12-29,"1982001920",45802.86,44982744.28,"Halle",141466.168292781,154068.015030027
TRUE,TRUE,NA,"Zenne","mzc3ytq4",NA,"YES","I_1501_1",NA,NA,NA,NA,NA,"Vlaams-Brabant","Halle",1501,NA,NA,NA,NA,NA,NA,201,1009,306,"23027","Halle",1982-12-29,"1982001920",45802.86,44982744.28,"Halle",141633.56530027,159364.099285667
TRUE,TRUE,NA,"Mollebeek","mzc3ytq4",NA,"YES","I_1502_4",NA,NA,NA,NA,NA,"Vlaams-Brabant","Halle",1502,NA,NA,NA,"Huvenne Patrick",NA,"recreatie.vbr.anb@vlaanderen.be",201,1009,306,"23027","Halle",1982-12-29,"1982001920",45802.86,44982744.28,"Halle",140440.768180303,155813.313071517
FALSE,FALSE,"Hoeilaart, Van Marchandstr, opw weg en opw 1ste lozing","Ijse",NA,NA,"YES","I_1560_1",NA,NA,"VMM_Mtp","Lotisch",NA,"Vlaams-Brabant","Hoeilaart",1560,2,6556,NA,"Vlaams-Brabant",NA,"ingrid.beuls@vlaamsbrabant.be",211,1011,303,"23033","Hoeilaart",1962-11-22,"1962110803",25494.86,20534529.87,"Hoeilaart",158304.999889279,161953.998927251
FALSE,FALSE,"Hoeilaart, J.B.Charlierln/Kasteelstr, afw brugje","Ijse",NA,NA,"YES","I_1560_2",NA,NA,"VMM_Mtp","Lotisch",NA,"Vlaams-Brabant","Hoeilaart",1560,2,6556,NA,"Vlaams-Brabant",NA,"ingrid.beuls@vlaamsbrabant.be",211,1011,303,"23033","Hoeilaart",1962-11-22,"1962110803",25494.86,20534529.87,"Hoeilaart",156689.999889764,161769.998927342
FALSE,FALSE,"Hoeilaart, via zijweg Duboislaan, opw vijver, afw inkokering","Ijse",NA,NA,"YES","I_1560_3",NA,NA,"VMM_Mtp","Lotisch",NA,"Vlaams-Brabant","Hoeilaart",1560,2,6556,NA,"Huvenne Patrick",NA,"recreatie.vbr.anb@vlaanderen.be",211,1011,303,"23033","Hoeilaart",1962-11-22,"1962110803",25494.86,20534529.87,"Hoeilaart",154821.999890388,161814.998927363
FALSE,FALSE,"Hoeilaart, Kasteelstr, 100m afw 485100, opw va huisnr 39","Ijse",NA,NA,"YES","I_1560_4",NA,NA,"VMM_Mtp","Lotisch",NA,"Vlaams-Brabant","Hoeilaart",1560,2,6556,NA,"Vlaams-Brabant",NA,"ingrid.beuls@vlaamsbrabant.be",211,1011,303,"23033","Hoeilaart",1962-11-22,"1962110803",25494.86,20534529.87,"Hoeilaart",156804.999889729,161755.998927338
FALSE,FALSE,"Lindevijver Groenendaal?","Lindevijver",NA,NA,"YES","I_1560_5",NA,NA,"EcoWater","Lentisch",NA,"Vlaams-Brabant","Hoeilaart",1560,NA,NA,NA,"Huvenne Patrick",NA,"recreatie.vbr.anb@vlaanderen.be",211,1011,303,"23033","Hoeilaart",1962-11-22,"1962110803",25494.86,20534529.87,"Hoeilaart",154388.509985617,161632.981782179
FALSE,FALSE,"Hoeilaart, via zijweg Groenendaalsestwg, afw 1ste grote Koningsvijver, opw weg","Koningsvijvers",NA,NA,"YES","I_1560_6",NA,NA,"ANB_Mtp","Lentisch",NA,"Vlaams-Brabant","Hoeilaart",1560,2,0,NA,"Huvenne Patrick",NA,"recreatie.vbr.anb@vlaanderen.be",211,1011,303,"23033","Hoeilaart",1962-11-22,"1962110803",25494.86,20534529.87,"Hoeilaart",156170.999889963,161883.998927312
FALSE,FALSE,"Hoeilaart, via zijweg Duboislaan, opw RO","Keizer Karelvijver",NA,NA,"YES","I_1560_7",NA,NA,"ANB_Mtp","Lentisch",NA,"Vlaams-Brabant","Hoeilaart",1560,2,0,NA,"Huvenne Patrick",NA,"recreatie.vbr.anb@vlaanderen.be",211,1011,303,"23033","Hoeilaart",1962-11-22,"1962110803",25494.86,20534529.87,"Hoeilaart",155191.999890297,161931.998927316
FALSE,FALSE,"Hoeilaart, zijweg Duboislaan tov huis nr. 119, 20 m afw koker Ijse + koker afloop ring",NA,NA,NA,"YES","I_1560_8",NA,NA,"ANB_Mtp","Lentisch",NA,"Vlaams-Brabant","Hoeilaart",1560,NA,NA,NA,"Huvenne Patrick",NA,"recreatie.vbr.anb@vlaanderen.be",211,1011,303,"23033","Hoeilaart",1962-11-22,"1962110803",25494.86,20534529.87,"Hoeilaart",155433.999890241,162026.998927278
FALSE,FALSE,NA,"Ganzepootvijver",NA,NA,"YES","I_1560_9",NA,NA,"Scheers","Lentisch",NA,"Vlaams-Brabant","Hoeilaart",1560,2,0,NA,"Huvenne Patrick",NA,"recreatie.vbr.anb@vlaanderen.be",211,1011,303,"23033","Hoeilaart",1962-11-22,"1962110803",25494.86,20534529.87,"Hoeilaart",153985.139290581,161502.684727475
FALSE,FALSE,NA,"Lindevijver",NA,NA,"YES","I_1560_10",NA,NA,"Scheers","Lentisch",NA,"Vlaams-Brabant","Hoeilaart",1560,2,0,NA,"Huvenne Patrick",NA,"recreatie.vbr.anb@vlaanderen.be",211,1011,303,"23033","Hoeilaart",1962-11-22,"1962110803",25494.86,20534529.87,"Hoeilaart",154421.024390467,161617.780927428
FALSE,FALSE,NA,"Koningsvijvers",NA,NA,"YES","I_1560_11",NA,NA,"Scheers","Lentisch",NA,"Vlaams-Brabant","Hoeilaart",1560,NA,NA,NA,"Huvenne Patrick",NA,"recreatie.vbr.anb@vlaanderen.be",211,1011,303,"23033","Hoeilaart",1962-11-22,"1962110803",25494.86,20534529.87,"Hoeilaart",156160.960289973,161910.999127303
FALSE,FALSE,"Hoeilaart","IJse",NA,NA,"YES","I_1560_12",NA,NA,"Scheers","Lentisch",NA,"Vlaams-Brabant","Hoeilaart",1560,NA,NA,NA,NA,NA,NA,211,1011,303,"23033","Hoeilaart",1962-11-22,"1962110803",25494.86,20534529.87,"Hoeilaart",157390.205689545,161828.938127306
FALSE,FALSE,"Willebringen, Torenhofstr, opw weg en monding Kleine Fonteinbeek","Fonteinbeek",NA,NA,"YES","I_3370_1",NA,NA,"VMM_Mtp","Lotisch",NA,"Vlaams-Brabant","Boutersem",3370,2,7914,NA,"Vlaams-Brabant",NA,"ingrid.beuls@vlaamsbrabant.be",217,1012,271,"24016","Boutersem",1982-12-29,"1982001920",40134.12,31140571.07,"Boutersem",183400.999882241,166893.998925278
FALSE,FALSE,"Torrezeel,veldweg,afw","Beverbeek",NA,NA,"YES","I_1547_1",NA,NA,"VMM_Mtp","Lotisch",NA,"Vlaams-Brabant","Bever",1547,2,6347,NA,"Vlaams-Brabant",NA,"ingrid.beuls@vlaamsbrabant.be",223,1015,60,"23009","Bever",1962-11-22,"1962110803",23655.42,19236235.59,"Bever",120132.999899877,154751.998930259
FALSE,FALSE,"Grote vijver van zevenbronnen","Molenvijver",NA,NA,"YES","I_1640_1",NA,NA,"EcoWater","Lentisch",NA,"Vlaams-Brabant","Sint-Genesius-Rode",1640,NA,NA,NA,"Huvenne Patrick",NA,"recreatie.vbr.anb@vlaanderen.be",230,1017,307,"23101","Sint-Genesius-Rode",1962-11-22,"1962110803",35461.46,22750862.91,"Sint-Genesius-Rode",147069.627969951,156965.75991901
TRUE,TRUE,NA,"Molenvijver","yjq4y2nh",NA,"YES","I_1640_2",NA,NA,"Scheers","Lentisch",NA,"Vlaams-Brabant","Sint-Genesius-Rode",1640,9,0,NA,"Huvenne Patrick",NA,"recreatie.vbr.anb@vlaanderen.be",230,1017,307,"23101","Sint-Genesius-Rode",1962-11-22,"1962110803",35461.46,22750862.91,"Sint-Genesius-Rode",147132.386790108,156834.09990137
FALSE,FALSE,NA,NA,NA,NA,"YES","I_1640_3",NA,NA,"Scheers","Lentisch",NA,"Vlaams-Brabant","Sint-Genesius-Rode",1640,NA,NA,NA,NA,NA,NA,230,1017,307,"23101","Sint-Genesius-Rode",1962-11-22,"1962110803",35461.46,22750862.91,"Sint-Genesius-Rode",150750.266991157,159596.707928121
TRUE,TRUE,"Loenhout; Vloeiweg, afw watermolenbrug","Kleine Aa of Weerijsbeek","zgjjotcy",NA,"YES","I_2990_1",NA,NA,"VMM_Mtp","Lotisch",NA,"Antwerpen","Wuustwezel",2990,1,9503,NA,"VMM",NA,"d.slootmaekers@vmm.be",234,1018,65,"11053","Wuustwezel",1982-12-29,"1982001920",44565.15,89412334.79,"Wuustwezel",168949.997102877,234637.997803435
FALSE,FALSE,"Heikenweg, opw. Weehagense Beek; Bio opw en afw brug; FC afw brug","Kleine Aa of Weerijsbeek",NA,NA,"YES","I_2990_2",NA,NA,"VMM_Mtp","Lotisch",NA,"Antwerpen","Wuustwezel",2990,1,9503,NA,"VMM",NA,"d.slootmaekers@vmm.be",234,1018,65,"11053","Wuustwezel",1982-12-29,"1982001920",44565.15,89412334.79,"Wuustwezel",168764.999904125,234197.998904781
FALSE,FALSE,"Loenhout;De Donk,Donkweg,opw(BIO)en afw(FC)brug","Kleine Aa of Weerijsbeek",NA,NA,"YES","I_2990_3",NA,NA,"VMM_Mtp","Lotisch",NA,"Antwerpen","Wuustwezel",2990,1,9503,NA,"VMM",NA,"d.slootmaekers@vmm.be",234,1018,65,"11053","Wuustwezel",1982-12-29,"1982001920",44565.15,89412334.79,"Wuustwezel",167365.999904137,232447.998905342
FALSE,FALSE,"Begijnenmoerweg, (Bio)opw brug; (FC) afw brug","Berkenbeek",NA,NA,"YES","I_2990_4","bij voorkeur tussen 20/07 - 01/09",NA,"VMM_Mtp","Lotisch",NA,"Antwerpen","Wuustwezel",2990,2,9773,NA,"Antwerpen",NA,"hans.vanloy@provincieantwerpen.be",234,1018,65,"11053","Wuustwezel",1982-12-29,"1982001920",44565.15,89412334.79,"Wuustwezel",162080.999906483,234850.998904725
FALSE,FALSE,"De Munt, Vlamingweg, opw baangrachten én drainagebuis","Herselingloop",NA,NA,"YES","I_2990_5","bij voorkeur tussen 20/07 - 01/09",NA,"VMM_Mtp","Lotisch",NA,"Antwerpen","Wuustwezel",2990,2,10056,NA,"Antwerpen",NA,"hans.vanloy@provincieantwerpen.be",234,1018,65,"11053","Wuustwezel",1982-12-29,"1982001920",44565.15,89412334.79,"Wuustwezel",172861.999502699,233889.998704791
FALSE,FALSE,"Wuustwezel; Tereik; Heikenweg; afw brug mtp 67300","Kleine Aa of Weerijsbeek",NA,NA,"YES","I_2990_6",NA,NA,"VMM_Mtp","Lotisch",NA,"Antwerpen","Wuustwezel",2990,1,9503,NA,"VMM",NA,"d.slootmaekers@vmm.be",234,1018,65,"11053","Wuustwezel",1982-12-29,"1982001920",44565.15,89412334.79,"Wuustwezel",168831.999904115,234248.998904764
FALSE,FALSE,"Wuustwezel (grens Loenhout); Braken; Bosweg; vanaf hoek canadabos SA tot in meander","Kleine Aa of Weerijsbeek",NA,NA,"YES","I_2990_7",NA,NA,"VMM_Mtp","Lotisch",NA,"Antwerpen","Wuustwezel",2990,1,9503,NA,"VMM",NA,"d.slootmaekers@vmm.be",234,1018,65,"11053","Wuustwezel",1982-12-29,"1982001920",44565.15,89412334.79,"Wuustwezel",167855.999904248,233497.998905013
FALSE,FALSE,"Wuustwezel (grens Loenhout); Donkweg; afw brug mtp 67500","Kleine Aa of Weerijsbeek",NA,NA,"YES","I_2990_8",NA,NA,"VMM_Mtp","Lotisch",NA,"Antwerpen","Wuustwezel",2990,1,9503,NA,"VMM",NA,"d.slootmaekers@vmm.be",234,1018,65,"11053","Wuustwezel",1982-12-29,"1982001920",44565.15,89412334.79,"Wuustwezel",167290.999904202,232575.998905309
FALSE,FALSE,NA,"Berkenbeek",NA,NA,"YES","I_2990_9","bij voorkeur tussen 20/07 - 01/09",NA,"Scheers","Lotisch",NA,"Antwerpen","Wuustwezel",2990,2,9773,NA,"Antwerpen",NA,"hans.vanloy@provincieantwerpen.be",234,1018,65,"11053","Wuustwezel",1982-12-29,"1982001920",44565.15,89412334.79,"Wuustwezel",162083.935863132,234845.621103492
FALSE,FALSE,NA,"Berkenbeek",NA,NA,"YES","I_2990_10","bij voorkeur tussen 20/07 - 01/09",NA,"Scheers","Lotisch",NA,"Antwerpen","Wuustwezel",2990,2,9773,NA,"Antwerpen",NA,"hans.vanloy@provincieantwerpen.be",234,1018,65,"11053","Wuustwezel",1982-12-29,"1982001920",44565.15,89412334.79,"Wuustwezel",162136.953651109,234174.399032992
FALSE,FALSE,"Vijver Groot Schietveld, Uilebos, ten einde Gasthuisdreef","E10-Put",NA,NA,"YES","I_2990_11",NA,NA,"ANB_Mtp","Lentisch",NA,"Antwerpen","Wuustwezel",2990,NA,NA,NA,NA,NA,NA,234,1018,65,"11053","Wuustwezel",1982-12-29,"1982001920",44565.15,89412334.79,"Wuustwezel",165933.999903939,229785.998906188
FALSE,FALSE,"Oude Schelde Coupure Outrijve","Oude Schelde","zguxztnj","05/07/24","YES","I_8582_1","metershoge netels",NA,"EcoWat","Lotisch",NA,"West-Vlaanderen","Avelgem",8582,2,5258,NA,"West-Vlaanderen",NA,NA,241,1021,294,"34003","Avelgem",1976-01-23,"1975123003",36046.74,22118849.31,"Avelgem",84674.3241412067,161365.848499442
FALSE,FALSE,"Oude Schelde Kerkhove",NA,NA,NA,"YES","I_8581_1",NA,NA,"EcoWater","Lentisch",NA,"West-Vlaanderen","Avelgem",8581,NA,NA,NA,"Coppens Xavier",NA,"recreatie.wvl.anb@vlaanderen.be",241,1021,294,"34003","Avelgem",1976-01-23,"1975123003",36046.74,22118849.31,"Avelgem",89753.9985482715,165803.215319386
FALSE,FALSE,"Gouden Karper,Trappelstraat","Waarmaardecoupure","ywzmndyy",NA,"YES","I_8581_2",NA,NA,"ANB_Mtp","Lentisch",NA,"West-Vlaanderen","Avelgem",8581,NA,NA,NA,"Coppens Xavier",NA,"recreatie.wvl.anb@vlaanderen.be",241,1021,294,"34003","Avelgem",1976-01-23,"1975123003",36046.74,22118849.31,"Avelgem",87580.9993103674,164169.999804231
FALSE,FALSE,"Oude Schelde - Kerkhove, Heye,thv kerkhof",NA,"ywzmndyy",NA,"YES","I_8581_3",NA,NA,"ANB_Mtp","Lentisch",NA,"West-Vlaanderen","Avelgem",8581,NA,NA,NA,"Coppens Xavier",NA,"recreatie.wvl.anb@vlaanderen.be",241,1021,294,"34003","Avelgem",1976-01-23,"1975123003",36046.74,22118849.31,"Avelgem",89815.9965940407,165912.993918111
FALSE,FALSE,"Brecht, Schoordijk, overbroekstraat opw weg en zijbeek","Kleine Aa of Weerijsbeek",NA,NA,"YES","I_2960_1","bij voorkeur tussen 20/07 - 01/09",NA,"VMM_Mtp","Lotisch",NA,"Antwerpen","Brecht",2960,2,9503,NA,"Antwerpen",NA,"hans.vanloy@provincieantwerpen.be",178,998,70,"11009","Brecht",1976-01-23,"1975123003",45748.24,91465876.38,"Brecht",167108.999082719,226546.000988864
FALSE,FALSE,"Wuustwezel; zijweg Schietveldweg; 120m afw brug beginnen","Kleine Aa of Weerijsbeek",NA,NA,"YES","I_2960_2","bij voorkeur tussen 20/07 - 01/09",NA,"VMM_Mtp","Lotisch",NA,"Antwerpen","Brecht",2960,2,9503,NA,"Antwerpen",NA,"hans.vanloy@provincieantwerpen.be",178,998,70,"11009","Brecht",1976-01-23,"1975123003",45748.24,91465876.38,"Brecht",166859.999903186,227939.998906735
FALSE,FALSE,"Brecht; Overbroek; Overbroekstraat; 20m opw brug mtp 68000","Kleine Aa of Weerijsbeek",NA,NA,"YES","I_2960_3","bij voorkeur tussen 20/07 - 01/09",NA,"VMM_Mtp","Lotisch",NA,"Antwerpen","Brecht",2960,2,9503,NA,"Antwerpen",NA,"hans.vanloy@provincieantwerpen.be",178,998,70,"11009","Brecht",1976-01-23,"1975123003",45748.24,91465876.38,"Brecht",167132.999902739,226520.998907159
TRUE,TRUE,NA,"Kanaal Dessel-Schoten","mdq4mmy1","8/9/24","YES","I_2960_4",NA,NA,NA,NA,NA,"Antwerpen","Brecht",2960,NA,NA,NA,NA,NA,NA,178,998,70,"11009","Brecht",1976-01-23,"1975123003",45748.24,91465876.38,"Brecht",169849.194933274,225176.645112496
FALSE,FALSE,"Rotem, Klaverstr/Veesteeg, opw weg","Retselbeek",NA,NA,"YES","I_3650_1",NA,NA,"VMM_Mtp","Lotisch",NA,"Limburg","Dilsen-Stokkem",3650,2,9882,NA,"Limburg",NA,"christel.bouchet@limburg.be",180,999,23,"72041","Dilsen-Stokkem",1971-04-21,"1971040901",48269.17,65885186.23,"Dilsen-Stokkem",244469.999868756,195005.998915682
FALSE,FALSE,"Dilsen/Stokkem, afw steenweg N78","Vrietselbeek",NA,NA,"YES","I_3650_2",NA,NA,"VMM_Mtp","Lotisch",NA,"Limburg","Dilsen-Stokkem",3650,2,9629,NA,"Limburg",NA,"christel.bouchet@limburg.be",180,999,23,"72041","Dilsen-Stokkem",1971-04-21,"1971040901",48269.17,65885186.23,"Dilsen-Stokkem",245287.999867505,191174.998916876
FALSE,FALSE,"Oude Maas Stokkem","Oude Maas Dilsen Noord",NA,NA,"YES","I_3650_3",NA,NA,"EcoWater","Lentisch",NA,"Limburg","Dilsen-Stokkem",3650,2,0,NA,"Limburg",NA,"christel.bouchet@limburg.be",180,999,23,"72041","Dilsen-Stokkem",1971-04-21,"1971040901",48269.17,65885186.23,"Dilsen-Stokkem",246008.638461007,192394.695264503
FALSE,FALSE,"Grindplas Bichterweert","Grindplas Bichterweert",NA,NA,"YES","I_3650_4","afstemmen met Jemp Peeters",NA,"EcoWater","Lentisch",NA,"Limburg","Dilsen-Stokkem",3650,NA,NA,NA,NA,NA,NA,180,999,23,"72041","Dilsen-Stokkem",1971-04-21,"1971040901",48269.17,65885186.23,"Dilsen-Stokkem",248009.693927243,194154.885955607
FALSE,FALSE,"Grindplas Negenoord West","Grindplas Negenoord West",NA,NA,"YES","I_3650_5",NA,NA,"EcoWater","Lentisch",NA,"Limburg","Dilsen-Stokkem",3650,NA,NA,NA,NA,NA,NA,180,999,23,"72041","Dilsen-Stokkem",1971-04-21,"1971040901",48269.17,65885186.23,"Dilsen-Stokkem",247039.283795403,191760.941969633
FALSE,FALSE,"Grindplas Negenoord Oost","Grindplas Negenoord Oost",NA,NA,"YES","I_3650_6",NA,NA,"EcoWater","Lentisch",NA,"Limburg","Dilsen-Stokkem",3650,NA,NA,NA,NA,NA,NA,180,999,23,"72041","Dilsen-Stokkem",1971-04-21,"1971040901",48269.17,65885186.23,"Dilsen-Stokkem",247817.477464097,191611.833756161
FALSE,FALSE,NA,"Kleine Plas",NA,NA,"YES","I_3650_7",NA,NA,"Scheers","Lentisch",NA,"Limburg","Dilsen-Stokkem",3650,NA,NA,NA,NA,NA,NA,180,999,23,"72041","Dilsen-Stokkem",1971-04-21,"1971040901",48269.17,65885186.23,"Dilsen-Stokkem",243288.863444963,189348.305978109
FALSE,FALSE,"F. limosus","Oude Maas Stokkem",NA,NA,"YES","I_3650_8",NA,NA,"Scheers","Lentisch",NA,"Limburg","Dilsen-Stokkem",3650,NA,NA,NA,NA,NA,NA,180,999,23,"72041","Dilsen-Stokkem",1971-04-21,"1971040901",48269.17,65885186.23,"Dilsen-Stokkem",247383.457083004,190825.03340874
FALSE,FALSE,"f. limosus high densities",NA,NA,NA,"YES","I_3650_9",NA,NA,"Scheers","Lentisch",NA,"Limburg","Dilsen-Stokkem",3650,NA,NA,NA,NA,NA,NA,180,999,23,"72041","Dilsen-Stokkem",1971-04-21,"1971040901",48269.17,65885186.23,"Dilsen-Stokkem",247119.719816262,191280.414654703
FALSE,FALSE,NA,"Grindplas Negenoord Oost",NA,NA,"YES","I_3650_10",NA,NA,"Scheers","Lentisch",NA,"Limburg","Dilsen-Stokkem",3650,NA,NA,NA,NA,NA,NA,180,999,23,"72041","Dilsen-Stokkem",1971-04-21,"1971040901",48269.17,65885186.23,"Dilsen-Stokkem",248129.093809671,191212.988639641
FALSE,FALSE,NA,"Schaapskuil",NA,NA,"YES","I_3650_12",NA,NA,"Scheers","Lentisch",NA,"Limburg","Dilsen-Stokkem",3650,NA,NA,NA,NA,NA,NA,180,999,23,"72041","Dilsen-Stokkem",1971-04-21,"1971040901",48269.17,65885186.23,"Dilsen-Stokkem",246924.755067393,192970.870916286
FALSE,FALSE,NA,NA,NA,NA,"YES","I_3650_13",NA,NA,"Scheers","Lentisch",NA,"Limburg","Dilsen-Stokkem",3650,NA,NA,NA,NA,NA,NA,180,999,23,"72041","Dilsen-Stokkem",1971-04-21,"1971040901",48269.17,65885186.23,"Dilsen-Stokkem",246491.49896757,193080.805516263
TRUE,TRUE,NA,"De Broeken","ngrkywmz",NA,"NO","V_3650_14","danny.klingeleers verwittigen",NA,NA,NA,NA,"Limburg","Dilsen-Stokkem",3650,NA,NA,NA,NA,NA,NA,180,999,23,"72041","Dilsen-Stokkem",1971-04-21,"1971040901",48269.17,65885186.23,"Dilsen-Stokkem",245797.99997586,196221.847717838
TRUE,TRUE,"Zanderbeek","Zanderbeek","ngrkywmz","tbd","NO","V_3650_15",NA,NA,NA,NA,NA,"Limburg","Dilsen-Stokkem",3650,NA,NA,NA,NA,NA,NA,180,999,23,"72041","Dilsen-Stokkem",1971-04-21,"1971040901",48269.17,65885186.23,"Dilsen-Stokkem",245771.466499717,197156.651036846
FALSE,FALSE,NA,"Grindplas Bichterweert",NA,NA,"YES","I_3650_11","afstemmen met Jemp Peeters",NA,"Scheers","Lentisch",NA,"Limburg","Dilsen-Stokkem",3650,NA,NA,NA,NA,NA,NA,180,999,23,"72041","Dilsen-Stokkem",1971-04-21,"1971040901",48269.17,65885186.23,"Dilsen-Stokkem",248227.660207722,194905.913792726
FALSE,FALSE,"Herfelingen, Mollestr, 50 m van bord ""bebouwde kom"", opw weg + zijgrachtjes","Rasbeek",NA,NA,"YES","I_1540_1",NA,NA,"VMM_Mtp","Lotisch",NA,"Vlaams-Brabant","Herne",1540,9,6571,NA,NA,NA,NA,184,1001,57,"23032","Herne",1976-01-23,"1975123003",37152.43,44662590.23,"Herne",131249.9998975,159543.998928545
FALSE,FALSE,"St-Pieters-Kapelle,Roosbroekstraat,einde veldweg,achterzijde boerderij,afw molen","Mark",NA,NA,"YES","I_1541_1",NA,NA,"VMM_Mtp","Lotisch",NA,"Vlaams-Brabant","Herne",1541,1,5952,NA,"VMM",NA,"d.slootmaekers@vmm.be",184,1001,57,"23032","Herne",1976-01-23,"1975123003",37152.43,44662590.23,"Herne",124876.999898237,154325.998930296
FALSE,FALSE,"Herfelingen,Raseveldstraat,opw monding in Waterblokbeek","Waterblokbeek",NA,NA,"YES","I_1540_2",NA,NA,"VMM_Mtp","Lotisch",NA,"Vlaams-Brabant","Herne",1540,2,6404,NA,"Vlaams-Brabant",NA,"ingrid.beuls@vlaamsbrabant.be",184,1001,57,"23032","Herne",1976-01-23,"1975123003",37152.43,44662590.23,"Herne",128046.999898709,160215.998928399
FALSE,FALSE,"St Pieters Kapelle, Roosbroekstraat, einde veldweg, achterzijde boerderij, 100m afwaarts 536000","Mark",NA,NA,"YES","I_1541_2",NA,NA,"VMM_Mtp","Lotisch",NA,"Vlaams-Brabant","Herne",1541,1,5952,NA,"VMM",NA,"d.slootmaekers@vmm.be",184,1001,57,"23032","Herne",1976-01-23,"1975123003",37152.43,44662590.23,"Herne",124968.999898218,154367.998930285
FALSE,FALSE,"Zijbeek Laerebeek, Hombeek, Rechtestr, langs afspanning, 15m opw wegje en LP","Laarbeek",NA,NA,"YES","I_2811_1","bij voorkeur tussen 20/07 - 01/09",NA,"VMM_Mtp","Lotisch",NA,"Antwerpen","Mechelen",2811,2,6972,NA,"Antwerpen",NA,"hans.vanloy@provincieantwerpen.be",188,1002,174,"12025","Mechelen",1982-12-29,"1982001920",55150.75,65788193.11,"Mechelen",152663.999897858,188411.998919158
FALSE,FALSE,"Industrie Noord, Zandvoortstr, naast containerpark afw weg","Vrouwvliet",NA,NA,"YES","I_2800_1",NA,NA,"VMM_Mtp","Lotisch",NA,"Antwerpen","Mechelen",2800,1,6553,NA,"VMM",NA,"d.slootmaekers@vmm.be",188,1002,174,"12025","Mechelen",1982-12-29,"1982001920",55150.75,65788193.11,"Mechelen",155834.999898017,193140.998917636
FALSE,FALSE,"Muizen, Stwg Leuven-Mechelen, langs domein Planckendael, opw weg, to kapsalon ZEN","Barebeek",NA,NA,"YES","I_2812_1",NA,NA,"VMM_Mtp","Lotisch",NA,"Antwerpen","Mechelen",2812,1,6560,NA,"VMM",NA,"d.slootmaekers@vmm.be",188,1002,174,"12025","Mechelen",1982-12-29,"1982001920",55150.75,65788193.11,"Mechelen",160449.999895253,188209.99891907
FALSE,FALSE,"Mechelen, 10m opw 370000","Vrouwvliet",NA,NA,"YES","I_2800_2",NA,NA,"VMM_Mtp","Lotisch",NA,"Antwerpen","Mechelen",2800,1,6553,NA,"VMM",NA,"d.slootmaekers@vmm.be",188,1002,174,"12025","Mechelen",1982-12-29,"1982001920",55150.75,65788193.11,"Mechelen",155769.999898043,193161.998917638
FALSE,FALSE,NA,"Aabeek","m2ywngnj",NA,"YES","I_2811_2","bij voorkeur tussen 20/07 - 01/09",NA,"Scheers","Lotisch",NA,"Antwerpen","Mechelen",2811,2,6936,NA,"Polder Willebroek","03/8996317","polderwillebroek@vvpw.be",188,1002,174,"12025","Mechelen",1982-12-29,"1982001920",55150.75,65788193.11,"Mechelen",153334.049781294,192089.695063754
FALSE,FALSE,NA,"Aabeek",NA,NA,"YES","I_2811_3",NA,NA,"Scheers","Lotisch",NA,"Antwerpen","Mechelen",2811,9,40933,NA,NA,NA,NA,188,1002,174,"12025","Mechelen",1982-12-29,"1982001920",55150.75,65788193.11,"Mechelen",152469.371128358,191173.506435293
FALSE,FALSE,NA,"Aabeek",NA,NA,"YES","I_2811_4",NA,NA,"Scheers","Lotisch",NA,"Antwerpen","Mechelen",2811,9,6936,NA,NA,NA,NA,188,1002,174,"12025","Mechelen",1982-12-29,"1982001920",55150.75,65788193.11,"Mechelen",152469.371128358,191173.506435293
FALSE,FALSE,NA,"Aabeek","m2ywngnj",NA,"YES","I_2811_5",NA,NA,"Scheers","Lotisch",NA,"Antwerpen","Mechelen",2811,9,6936,NA,NA,NA,NA,188,1002,174,"12025","Mechelen",1982-12-29,"1982001920",55150.75,65788193.11,"Mechelen",152469.371229742,191173.507516975
FALSE,FALSE,NA,"Aabeek",NA,NA,"YES","I_2811_6","bij voorkeur tussen 20/07 - 01/09",NA,"Scheers","Lotisch",NA,"Antwerpen","Mechelen",2811,2,6936,NA,"Polder Willebroek","03/8996317","polderwillebroek@vvpw.be",188,1002,174,"12025","Mechelen",1982-12-29,"1982001920",55150.75,65788193.11,"Mechelen",151675.355706506,189817.874695258
FALSE,FALSE,"Kleine vijver van Horst","Kleine Vijver",NA,NA,"YES","I_2800_3",NA,NA,"EcoWater","Lentisch",NA,"Antwerpen","Mechelen",2800,NA,NA,NA,"Heyens Veerle",NA,"recreatie.ant.anb@vlaanderen.be",188,1002,174,"12025","Mechelen",1982-12-29,"1982001920",55150.75,65788193.11,"Mechelen",155773.274429457,195174.706919612
FALSE,FALSE,"Walem, Spildorenlaan, kleine vijver","Kleine Vijver",NA,NA,"YES","I_2800_4",NA,NA,"ANB_Mtp","Lentisch",NA,"Antwerpen","Mechelen",2800,NA,NA,NA,"Heyens Veerle",NA,"recreatie.ant.anb@vlaanderen.be",188,1002,174,"12025","Mechelen",1982-12-29,"1982001920",55150.75,65788193.11,"Mechelen",155509.999898591,195019.998917064
FALSE,FALSE,NA,"Grote Vijver",NA,NA,"YES","I_2800_5",NA,NA,"Scheers","Lentisch",NA,"Antwerpen","Mechelen",2800,NA,NA,NA,NA,NA,NA,188,1002,174,"12025","Mechelen",1982-12-29,"1982001920",55150.75,65788193.11,"Mechelen",155238.900324784,194880.018179985
FALSE,FALSE,NA,"Kleine Vijver",NA,NA,"YES","I_2800_6",NA,NA,"Scheers","Lentisch",NA,"Antwerpen","Mechelen",2800,NA,NA,NA,"Heyens Veerle",NA,"recreatie.ant.anb@vlaanderen.be",188,1002,174,"12025","Mechelen",1982-12-29,"1982001920",55150.75,65788193.11,"Mechelen",155539.639162593,194976.339692594
FALSE,FALSE,"recreation area, Eglegemvijver","Eglegemvijver","m2ywngnj",NA,"YES","I_2811_7",NA,NA,"Scheers","Lentisch",NA,"Antwerpen","Mechelen",2811,NA,NA,NA,NA,NA,NA,188,1002,174,"12025","Mechelen",1982-12-29,"1982001920",55150.75,65788193.11,"Mechelen",155382.860103115,188960.00815603
FALSE,FALSE,NA,"Recreatievijver De Nekker","mdm4oge4",NA,"YES","I_2800_7",NA,NA,"Scheers","Lentisch",NA,"Antwerpen","Mechelen",2800,NA,NA,NA,NA,NA,NA,188,1002,174,"12025","Mechelen",1982-12-29,"1982001920",55150.75,65788193.11,"Mechelen",159367.835489999,190029.158761876
FALSE,FALSE,NA,"Dijle","nza0ywi0","15/09/24","NO","V_2800_8",NA,NA,NA,NA,NA,"Antwerpen","Mechelen",2800,NA,NA,NA,NA,NA,NA,188,1002,174,"12025","Mechelen",1982-12-29,"1982001920",55150.75,65788193.11,"Mechelen",157604.360255937,189733.501947341
TRUE,TRUE,NA,NA,"mdm4oge4",NA,"NO","V_2800_9",NA,NA,NA,NA,NA,"Antwerpen","Mechelen",2800,NA,NA,NA,NA,NA,NA,188,1002,174,"12025","Mechelen",1982-12-29,"1982001920",55150.75,65788193.11,"Mechelen",156053.578386667,190283.205060753
TRUE,TRUE,NA,"Dijle","odi5ngi0","TBD","NO","V_2800_10",NA,NA,NA,NA,NA,"Antwerpen","Mechelen",2800,NA,NA,NA,NA,NA,NA,188,1002,174,"12025","Mechelen",1982-12-29,"1982001920",55150.75,65788193.11,"Mechelen",159340.195574547,189948.299212568
FALSE,FALSE,"Zilverenhoek,Gageltjes, opw zandweg","Zilveren Loop",NA,NA,"YES","I_2920_1","bij voorkeur tussen 20/07 - 01/09",NA,"VMM_Mtp","Lotisch",NA,"Antwerpen","Kalmthout",2920,2,9860,NA,"Antwerpen",NA,"hans.vanloy@provincieantwerpen.be",191,1004,64,"11022","Kalmthout",1982-12-29,"1982001920",43990.24,59410097.54,"Kalmthout",157907.000346523,234437.002613465
FALSE,FALSE,"Nieuwmoer, natuurreservaat 'De Gaatjes', opw brug","Broekloop",NA,NA,"YES","I_2920_2","bij voorkeur tussen 20/07 - 01/09",NA,"VMM_Mtp","Lotisch",NA,"Antwerpen","Kalmthout",2920,2,9845,NA,"Antwerpen",NA,"hans.vanloy@provincieantwerpen.be",191,1004,64,"11022","Kalmthout",1982-12-29,"1982001920",43990.24,59410097.54,"Kalmthout",161211.002063769,234726.004425135
FALSE,FALSE,"Kalmthout; Achterbroek; Leyterstraat; begin 200m afw mtp 65000.","Kleine Aa",NA,NA,"YES","I_2920_3","bij voorkeur tussen 20/07 - 01/09",NA,"VMM_Mtp","Lotisch",NA,"Antwerpen","Kalmthout",2920,2,9514,NA,"Antwerpen",NA,"hans.vanloy@provincieantwerpen.be",191,1004,64,"11022","Kalmthout",1982-12-29,"1982001920",43990.24,59410097.54,"Kalmthout",158048.999907129,232225.998905607
TRUE,TRUE,NA,"Marijneloop","yjqxzmiz","12/8/24","YES","I_2920_4","bij voorkeur tussen 20/07 - 01/09",NA,"Scheers","Lotisch",NA,"Antwerpen","Kalmthout",2920,2,9918,NA,"Antwerpen",NA,"hans.vanloy@provincieantwerpen.be",191,1004,64,"11022","Kalmthout",1982-12-29,"1982001920",43990.24,59410097.54,"Kalmthout",159849.639687628,235204.11221103
FALSE,FALSE,NA,"Broekloop",NA,NA,"YES","I_2920_5","bij voorkeur tussen 20/07 - 01/09",NA,"Scheers","Lotisch",NA,"Antwerpen","Kalmthout",2920,2,9845,NA,"Antwerpen",NA,"hans.vanloy@provincieantwerpen.be",191,1004,64,"11022","Kalmthout",1982-12-29,"1982001920",43990.24,59410097.54,"Kalmthout",160788.446620765,234624.928140482
FALSE,FALSE,NA,"Darmloop",NA,NA,"YES","I_2920_6","bij voorkeur tussen 20/07 - 01/09",NA,"Scheers","Lotisch",NA,"Antwerpen","Kalmthout",2920,2,9880,NA,"Antwerpen",NA,"hans.vanloy@provincieantwerpen.be",191,1004,64,"11022","Kalmthout",1982-12-29,"1982001920",43990.24,59410097.54,"Kalmthout",160141.300254624,234322.796857045
FALSE,FALSE,NA,"Broekloop",NA,NA,"YES","I_2920_7","bij voorkeur tussen 20/07 - 01/09",NA,"Scheers","Lotisch",NA,"Antwerpen","Kalmthout",2920,2,9845,NA,"Antwerpen",NA,"hans.vanloy@provincieantwerpen.be",191,1004,64,"11022","Kalmthout",1982-12-29,"1982001920",43990.24,59410097.54,"Kalmthout",161333.867933453,234942.782161844
FALSE,FALSE,"prive, visvijver, medewerking eigenaar?",NA,NA,NA,"YES","I_2920_8",NA,NA,"Scheers","Lentisch",NA,"Antwerpen","Kalmthout",2920,NA,NA,NA,NA,NA,NA,191,1004,64,"11022","Kalmthout",1982-12-29,"1982001920",43990.24,59410097.54,"Kalmthout",161015.243307557,234754.753817584
FALSE,FALSE,"gestreepte Amerikaanse rivierkreeft aanwezig (sinds 2015?)",NA,"ywyxmtey",NA,"YES","I_2920_9",NA,NA,"Scheers","Lentisch",NA,"Antwerpen","Kalmthout",2920,NA,NA,NA,NA,NA,NA,191,1004,64,"11022","Kalmthout",1982-12-29,"1982001920",43990.24,59410097.54,"Kalmthout",160856.101214696,235467.210684343
TRUE,TRUE,NA,NA,"ywyxmtey",NA,"YES","I_2920_10",NA,NA,"Scheers","Lentisch",NA,"Antwerpen","Kalmthout",2920,NA,NA,NA,NA,NA,NA,191,1004,64,"11022","Kalmthout",1982-12-29,"1982001920",43990.24,59410097.54,"Kalmthout",158678.029756658,228786.926306023
FALSE,FALSE,"Rokalseidestraat, voor mnd in Schipdonkk.","Ede","ztg1zti4",NA,"YES","I_9990_1",NA,NA,"VMM_Mtp","Lotisch",NA,"Oost-Vlaanderen","Maldegem",9990,2,620,NA,"Polder van Maldegem","0473/350437","info@poldervanmaldegem.be",248,1023,93,"43010","Maldegem",1982-12-29,"1982001920",52965.86,95626986.65,"Maldegem",85251.1646912291,214188.042866936
FALSE,FALSE,"Moerhuizestraat","Noordbroekwatergang","ztg1zti4",NA,"YES","I_9990_2",NA,NA,"VMM_Mtp","Lotisch",NA,"Oost-Vlaanderen","Maldegem",9990,2,2143,NA,"Polder van Maldegem","0473/350437","info@poldervanmaldegem.be",248,1023,93,"43010","Maldegem",1982-12-29,"1982001920",52965.86,95626986.65,"Maldegem",85404.8631643838,214141.332698759
FALSE,FALSE,"Koningin Astridlaan, spoorweg","Ede","nzkwmjiy",NA,"YES","I_9990_3",NA,NA,"VMM_Mtp","Lotisch",NA,"Oost-Vlaanderen","Maldegem",9990,2,620,NA,"Oost-Vlaanderen",NA,"waterbeleid@oost-vlaanderen.be",248,1023,93,"43010","Maldegem",1982-12-29,"1982001920",52965.86,95626986.65,"Maldegem",85059.9992014804,210899.997471117
FALSE,FALSE,"Kleit, Pot en Zuidhoutstraat, Maasbone","Ede",NA,NA,"YES","I_9990_4",NA,NA,"VMM_Mtp","Lotisch",NA,"Oost-Vlaanderen","Maldegem",9990,2,620,NA,"Oost-Vlaanderen",NA,"waterbeleid@oost-vlaanderen.be",248,1023,93,"43010","Maldegem",1982-12-29,"1982001920",52965.86,95626986.65,"Maldegem",87244.99992371,207609.998914828
FALSE,FALSE,"Kleine Burkel, Goebilkstraat - zijweg","Leegakkerbeek","nzkwmjiy",NA,"YES","I_9990_5",NA,NA,"VMM_Mtp","Lotisch",NA,"Oost-Vlaanderen","Maldegem",9990,2,874,NA,"Oost-Vlaanderen",NA,"waterbeleid@oost-vlaanderen.be",248,1023,93,"43010","Maldegem",1982-12-29,"1982001920",52965.86,95626986.65,"Maldegem",83098.0007897016,208203.998126422
FALSE,FALSE,"Adegem, Akker","Watergang van de grote leegte",NA,NA,"YES","I_9991_1",NA,NA,"VMM_Mtp","Lotisch",NA,"Oost-Vlaanderen","Maldegem",9991,2,79,NA,"Oost-Vlaanderen",NA,"waterbeleid@oost-vlaanderen.be",248,1023,93,"43010","Maldegem",1982-12-29,"1982001920",52965.86,95626986.65,"Maldegem",90398.9999229117,208397.998914503
FALSE,FALSE,"Adegem, Heulendonk","Watergang van de grote leegte","nzkwmjiy",NA,"YES","I_9991_2",NA,NA,"VMM_Mtp","Lotisch",NA,"Oost-Vlaanderen","Maldegem",9991,2,79,NA,"Oost-Vlaanderen",NA,"waterbeleid@oost-vlaanderen.be",248,1023,93,"43010","Maldegem",1982-12-29,"1982001920",52965.86,95626986.65,"Maldegem",89131.8222387256,208855.906506076
FALSE,FALSE,NA,"Leopoldkanaal","ztg1zti4",NA,"YES","I_9990_6",NA,NA,"Scheers","Lotisch",NA,"Oost-Vlaanderen","Maldegem",9990,0,2121,NA,NA,NA,NA,248,1023,93,"43010","Maldegem",1982-12-29,"1982001920",52965.86,95626986.65,"Maldegem",88194.8438342594,214848.11449567
FALSE,FALSE,NA,NA,"mda4ntq1",NA,"YES","I_9991_3",NA,NA,NA,NA,NA,"Oost-Vlaanderen","Maldegem",9991,NA,NA,NA,NA,NA,NA,248,1023,93,"43010","Maldegem",1982-12-29,"1982001920",52965.86,95626986.65,"Maldegem",91117.6785534841,209455.08813572
FALSE,FALSE,"Overijse, Fr. Verbeekstr, opw brugje thv huisnr 124","Ijse",NA,NA,"YES","I_3090_1",NA,NA,"VMM_Mtp","Lotisch",NA,"Vlaams-Brabant","Overijse",3090,2,6556,NA,"Vlaams-Brabant",NA,"ingrid.beuls@vlaamsbrabant.be",266,1027,299,"23062","Overijse",1982-12-29,"1982001920",52757.13,44988248.42,"Overijse",159938.999888765,162044.99892719
FALSE,FALSE,"Zijbeek IJsse, Hoeilaart, Overijsesteenweg, 2m opw weg en LP","Beek",NA,NA,"YES","I_3090_2",NA,NA,"VMM_Mtp","Lotisch",NA,"Vlaams-Brabant","Overijse",3090,2,6611,NA,"Vlaams-Brabant",NA,"ingrid.beuls@vlaamsbrabant.be",266,1027,299,"23062","Overijse",1982-12-29,"1982001920",52757.13,44988248.42,"Overijse",158350.999889306,162087.998927208
FALSE,FALSE,"Tombeek, Lanestr., naast huis nr 126, opw brug","Laan",NA,NA,"YES","I_3090_3",NA,NA,"VMM_Mtp","Lotisch",NA,"Vlaams-Brabant","Overijse",3090,1,6691,NA,"VMM",NA,"d.slootmaekers@vmm.be",266,1027,299,"23062","Overijse",1982-12-29,"1982001920",52757.13,44988248.42,"Overijse",164179.99988693,160299.998927659
FALSE,FALSE,"St-Agatha-Rode/Overijse, Molenstr, einde traj 10m afw brug en 488400","Laan",NA,NA,"YES","I_3090_4",NA,NA,"VMM_Mtp","Lotisch",NA,"Vlaams-Brabant","Overijse",3090,1,6691,NA,"VMM",NA,"d.slootmaekers@vmm.be",266,1027,299,"23062","Overijse",1982-12-29,"1982001920",52757.13,44988248.42,"Overijse",166670.99988657,162110.99892705
FALSE,FALSE,"Overijse",NA,NA,NA,"YES","I_3090_5",NA,NA,"Scheers","Lentisch",NA,"Vlaams-Brabant","Overijse",3090,NA,NA,NA,NA,NA,NA,266,1027,299,"23062","Overijse",1982-12-29,"1982001920",52757.13,44988248.42,"Overijse",161556.470088283,162236.437027109
FALSE,FALSE,NA,NA,NA,NA,"YES","I_3090_6",NA,NA,"Scheers","Lentisch",NA,"Vlaams-Brabant","Overijse",3090,NA,NA,NA,NA,NA,NA,266,1027,299,"23062","Overijse",1982-12-29,"1982001920",52757.13,44988248.42,"Overijse",160569.647888559,162042.100727181
FALSE,FALSE,"Overijse","Grote Mariavijver",NA,NA,"YES","I_3090_7",NA,NA,"Scheers","Lentisch",NA,"Vlaams-Brabant","Overijse",3090,NA,NA,NA,NA,NA,NA,266,1027,299,"23062","Overijse",1982-12-29,"1982001920",52757.13,44988248.42,"Overijse",162001.998888142,162274.530127086
FALSE,FALSE,NA,"Ijsebroeken",NA,NA,"YES","I_3090_8",NA,NA,"Scheers","Lentisch",NA,"Vlaams-Brabant","Overijse",3090,NA,NA,NA,NA,NA,NA,266,1027,299,"23062","Overijse",1982-12-29,"1982001920",52757.13,44988248.42,"Overijse",163103.229788025,163220.986526765
FALSE,FALSE,"Westhoek, zijweg van N364","Grote Beverdijkvaart",NA,NA,"YES","I_8690_1",NA,NA,"VMM_Mtp","Lotisch",NA,"West-Vlaanderen","Alveringem",8690,2,1205,NA,"Westkustpolder","058/314653","info@westkustpolder.be",269,1029,182,"38002","Alveringem",1976-01-23,"1975123003",64901.82,80709188.83,"Alveringem",31970.9999354785,185895.998923076
FALSE,FALSE,"Elzendammestraat","Grote Beverdijkvaart",NA,NA,"YES","I_8691_1",NA,NA,"VMM_Mtp","Lotisch",NA,"West-Vlaanderen","Alveringem",8691,2,1205,NA,"Westkustpolder","058/314653","info@westkustpolder.be",269,1029,182,"38002","Alveringem",1976-01-23,"1975123003",64901.82,80709188.83,"Alveringem",31244.9995356611,185672.998723172
FALSE,FALSE,"Beveren, Lindestraat, afw","Neerloopbeek",NA,NA,"YES","I_8691_2",NA,NA,"VMM_Mtp","Lotisch",NA,"West-Vlaanderen","Alveringem",8691,2,1891,NA,"Zuidijzerpolder","057/401104","info@zuidijzerpolder.be",269,1029,182,"38002","Alveringem",1976-01-23,"1975123003",64901.82,80709188.83,"Alveringem",30339.9999354396,183740.998923784
FALSE,FALSE,"Stavele, Lindestraat, afw","Lepkenbeek",NA,NA,"YES","I_8691_3",NA,NA,"VMM_Mtp","Lotisch",NA,"West-Vlaanderen","Alveringem",8691,2,1920,NA,"Zuidijzerpolder","057/401104","info@zuidijzerpolder.be",269,1029,182,"38002","Alveringem",1976-01-23,"1975123003",64901.82,80709188.83,"Alveringem",31015.99993532,184088.998923664
FALSE,FALSE,"Westvleteren, Stavelestraat, Evershamhoeve","Poperingevaart",NA,NA,"YES","I_8691_4",NA,NA,"VMM_Mtp","Lotisch",NA,"West-Vlaanderen","Alveringem",8691,1,1203,NA,"VMM",NA,"d.slootmaekers@vmm.be",269,1029,182,"38002","Alveringem",1976-01-23,"1975123003",64901.82,80709188.83,"Alveringem",33940.9999342063,183230.998923834
FALSE,FALSE,NA,"IJzer",NA,NA,"YES","I_8691_5",NA,NA,NA,"Lotisch",NA,"West-Vlaanderen","Alveringem",8691,NA,NA,NA,NA,NA,NA,269,1029,182,"38002","Alveringem",1976-01-23,"1975123003",64901.82,80709188.83,"Alveringem",29966.8280416997,182774.096455261
FALSE,FALSE,NA,"Lovaart",NA,NA,"YES","I_8690_2",NA,NA,NA,"Lotisch",NA,"West-Vlaanderen","Alveringem",8690,0,0,NA,NA,NA,NA,269,1029,182,"38002","Alveringem",1976-01-23,"1975123003",64901.82,80709188.83,"Alveringem",34482.977536034,191195.906721381
FALSE,FALSE,"Laar, Humbeeksebaan, weg naar KWZI, 10 m OPW lozing KWZI","Laarbeek",NA,NA,"YES","I_1980_1",NA,NA,"VMM_Mtp","Lotisch",NA,"Vlaams-Brabant","Zemst",1980,2,6966,NA,"Vlaams-Brabant",NA,"ingrid.beuls@vlaamsbrabant.be",270,1030,310,"23096","Zemst",1998-04-24,"1998000040",45726.09,43229265.64,"Zemst",152685.9998973,186267.998919824
FALSE,FALSE,"Zijbeek, Tangebeek, Eppegem, Dorentstraat, afw weg, opw houten dam","Beek",NA,NA,"YES","I_1980_2",NA,NA,"VMM_Mtp","Lotisch",NA,"Vlaams-Brabant","Zemst",1980,2,6996,NA,"Heyens Veerle",NA,"recreatie.vbr.anb@vlaanderen.be",270,1030,310,"23096","Zemst",1998-04-24,"1998000040",45726.09,43229265.64,"Zemst",155150.99989556,182588.998920911
FALSE,FALSE,"Hofstade, Vijverlaan, afw brug","Barebeek",NA,NA,"YES","I_1981_1",NA,NA,"VMM_Mtp","Lotisch",NA,"Vlaams-Brabant","Zemst",1981,1,6560,NA,"VMM",NA,"d.slootmaekers@vmm.be",270,1030,310,"23096","Zemst",1998-04-24,"1998000040",45726.09,43229265.64,"Zemst",159985.999895234,187556.998919275
FALSE,FALSE,"Hofstade, onverharde zijweg v Bordekensstr langs spoorwegbrug, afw brugje","Barebeek",NA,NA,"YES","I_1981_2",NA,NA,"VMM_Mtp","Lotisch",NA,"Vlaams-Brabant","Zemst",1981,1,6560,NA,"VMM",NA,"d.slootmaekers@vmm.be",270,1030,310,"23096","Zemst",1998-04-24,"1998000040",45726.09,43229265.64,"Zemst",158519.999895421,186368.998919685
FALSE,FALSE,"Elewijt, Broekstr, afw brugje","Barebeek",NA,NA,"YES","I_1982_1",NA,NA,"VMM_Mtp","Lotisch",NA,"Vlaams-Brabant","Zemst",1982,1,6560,NA,"VMM",NA,"d.slootmaekers@vmm.be",270,1030,310,"23096","Zemst",1998-04-24,"1998000040",45726.09,43229265.64,"Zemst",158919.901573826,185249.440316407
FALSE,FALSE,NA,"Barebeek Oude Arm",NA,NA,"YES","I_1982_2",NA,NA,"Scheers","Lotisch",NA,"Vlaams-Brabant","Zemst",1982,2,6794,NA,"Vlaams-Brabant",NA,"ingrid.beuls@vlaamsbrabant.be",270,1030,310,"23096","Zemst",1998-04-24,"1998000040",45726.09,43229265.64,"Zemst",157686.458014275,183416.439388209
FALSE,FALSE,NA,"Broekgracht",NA,NA,"YES","I_1982_3",NA,NA,"Scheers","Lotisch",NA,"Vlaams-Brabant","Zemst",1982,2,6873,NA,"Vlaams-Brabant",NA,"ingrid.beuls@vlaamsbrabant.be",270,1030,310,"23096","Zemst",1998-04-24,"1998000040",45726.09,43229265.64,"Zemst",157686.458014275,183416.439388209
FALSE,FALSE,NA,"Barebeek Oude Arm",NA,NA,"YES","I_1982_4",NA,NA,"Scheers","Lotisch",NA,"Vlaams-Brabant","Zemst",1982,2,6794,NA,"Vlaams-Brabant",NA,"ingrid.beuls@vlaamsbrabant.be",270,1030,310,"23096","Zemst",1998-04-24,"1998000040",45726.09,43229265.64,"Zemst",157686.458014275,183416.439388209
FALSE,FALSE,NA,"Watering der Barebeek",NA,NA,"YES","I_1982_5",NA,NA,"Scheers","Lotisch",NA,"Vlaams-Brabant","Zemst",1982,2,16593,NA,"Vlaams-Brabant",NA,"ingrid.beuls@vlaamsbrabant.be",270,1030,310,"23096","Zemst",1998-04-24,"1998000040",45726.09,43229265.64,"Zemst",157686.458014275,183416.439388209
FALSE,FALSE,NA,"Barebeek",NA,NA,"YES","I_1982_6",NA,NA,"Scheers","Lotisch",NA,"Vlaams-Brabant","Zemst",1982,1,6560,NA,"VMM",NA,"d.slootmaekers@vmm.be",270,1030,310,"23096","Zemst",1998-04-24,"1998000040",45726.09,43229265.64,"Zemst",158630.885761107,184724.885440254
FALSE,FALSE,NA,"Barebeek",NA,NA,"YES","I_1982_7",NA,NA,"Scheers","Lotisch",NA,"Vlaams-Brabant","Zemst",1982,2,6560,NA,"Vlaams-Brabant",NA,"ingrid.beuls@vlaamsbrabant.be",270,1030,310,"23096","Zemst",1998-04-24,"1998000040",45726.09,43229265.64,"Zemst",158542.561508727,183386.385838743
FALSE,FALSE,"Zenne 1","Zenne",NA,NA,"YES","I_1980_3",NA,NA,"EcoWat","Lotisch",NA,"Vlaams-Brabant","Zemst",1980,0,6552,NA,NA,NA,NA,270,1030,310,"23096","Zemst",1998-04-24,"1998000040",45726.09,43229265.64,"Zemst",157162.695223724,183924.499957112
FALSE,FALSE,"Zenne 2","Zenne-Afleiding",NA,NA,"YES","I_1980_4",NA,NA,"EcoWat","Lotisch",NA,"Vlaams-Brabant","Zemst",1980,0,6609,NA,NA,NA,NA,270,1030,310,"23096","Zemst",1998-04-24,"1998000040",45726.09,43229265.64,"Zemst",156388.236790151,184536.790625822
FALSE,FALSE,"Zenne 3","Zenne",NA,NA,"YES","I_1982_8",NA,NA,"EcoWat","Lotisch",NA,"Vlaams-Brabant","Zemst",1982,0,6552,NA,NA,NA,NA,270,1030,310,"23096","Zemst",1998-04-24,"1998000040",45726.09,43229265.64,"Zemst",158457.97536787,185495.997905809
FALSE,FALSE,"Zenne 4","Zenne",NA,NA,"YES","I_1980_5",NA,NA,"EcoWat","Lotisch",NA,"Vlaams-Brabant","Zemst",1980,9,6552,NA,NA,NA,NA,270,1030,310,"23096","Zemst",1998-04-24,"1998000040",45726.09,43229265.64,"Zemst",156268.971741603,187936.829177695
FALSE,FALSE,"Zenne 4","Geerdegembroekloop",NA,NA,"YES","I_1980_6",NA,NA,"EcoWat","Lotisch",NA,"Vlaams-Brabant","Zemst",1980,9,6681,NA,NA,NA,NA,270,1030,310,"23096","Zemst",1998-04-24,"1998000040",45726.09,43229265.64,"Zemst",156268.971741603,187936.829177695
FALSE,FALSE,"Zenne 4","Zenne",NA,NA,"YES","I_1980_7",NA,NA,"EcoWat","Lotisch",NA,"Vlaams-Brabant","Zemst",1980,9,6552,NA,NA,NA,NA,270,1030,310,"23096","Zemst",1998-04-24,"1998000040",45726.09,43229265.64,"Zemst",156268.971741603,187936.829177695
FALSE,FALSE,"MEER VAN WEERDE, Weerde, Kleinveld, noordzijde van meer",NA,NA,NA,"YES","I_1982_9",NA,NA,"ANB_Mtp","Lentisch",NA,"Vlaams-Brabant","Zemst",1982,NA,NA,NA,"Heyens Veerle",NA,"recreatie.vbr.anb@vlaanderen.be",270,1030,310,"23096","Zemst",1998-04-24,"1998000040",45726.09,43229265.64,"Zemst",157887.000007612,185637.002204122
FALSE,FALSE,"weerdse visvijver (gemeente?)",NA,NA,NA,"YES","I_1982_10",NA,NA,"Scheers","Lentisch",NA,"Vlaams-Brabant","Zemst",1982,NA,NA,NA,"Heyens Veerle",NA,"recreatie.vbr.anb@vlaanderen.be",270,1030,310,"23096","Zemst",1998-04-24,"1998000040",45726.09,43229265.64,"Zemst",157937.481342235,185606.986337331
FALSE,FALSE,"recreation area, toestemming vragen bij Sport Vlaanderen, P. clarkii & F. limosus",NA,NA,NA,"YES","I_1981_3",NA,NA,"Scheers","Lentisch",NA,"Vlaams-Brabant","Zemst",1981,NA,NA,NA,NA,NA,NA,270,1030,310,"23096","Zemst",1998-04-24,"1998000040",45726.09,43229265.64,"Zemst",159595.513533126,186385.448589993
FALSE,FALSE,"recreation area, Eglegemvijver","Eglegemvijver",NA,NA,"YES","I_1980_8",NA,NA,"Scheers","Lentisch",NA,"Vlaams-Brabant","Zemst",1980,NA,NA,NA,"Heyens Veerle",NA,"recreatie.ant.anb@vlaanderen.be",270,1030,310,"23096","Zemst",1998-04-24,"1998000040",45726.09,43229265.64,"Zemst",155818.159540746,188160.996982455
FALSE,FALSE,"Rijselseweg - zijweg langs spoorweg - stroomopw stuw","Ieperlee",NA,NA,"YES","I_8900_1",NA,NA,"VMM_Mtp","Lotisch",NA,"West-Vlaanderen","Ieper",8900,1,1206,NA,"VMM",NA,"d.slootmaekers@vmm.be",272,1031,239,"33011","Ieper",1982-12-29,"1982001920",74036.52,131457532.08,"Ieper",45946.9999273099,170515.998927342
FALSE,FALSE,"Rijselseweg, landweg lgs spoorweg","Ieperlee",NA,NA,"YES","I_8900_2",NA,NA,"VMM_Mtp","Lotisch",NA,"West-Vlaanderen","Ieper",8900,1,1206,NA,"VMM",NA,"d.slootmaekers@vmm.be",272,1031,239,"33011","Ieper",1982-12-29,"1982001920",74036.52,131457532.08,"Ieper",45952.999927302,170489.998927357
FALSE,FALSE,"Elverdinge, Steenstraat, recht over huisnr 30","Kemmelbeek",NA,NA,"YES","I_8904_1",NA,NA,"VMM_Mtp","Lotisch",NA,"West-Vlaanderen","Ieper",8904,1,1204,NA,"VMM",NA,"d.slootmaekers@vmm.be",272,1031,239,"33011","Ieper",1982-12-29,"1982001920",74036.52,131457532.08,"Ieper",40600.9999308723,178117.998925176
FALSE,FALSE,"Vlamertinge","Kemmelbeek",NA,NA,"YES","I_8908_1",NA,NA,"VMM_Mtp","Lotisch",NA,"West-Vlaanderen","Ieper",8908,2,1204,NA,"West-Vlaanderen",NA,NA,272,1031,239,"33011","Ieper",1982-12-29,"1982001920",74036.52,131457532.08,"Ieper",40781.9999293343,172183.998926987
FALSE,FALSE,"Kanaal Ieper - Komen 1","Kanaal van Ieper naar Komen",NA,NA,"YES","I_8902_1",NA,NA,"EcoWat","Lotisch",NA,"West-Vlaanderen","Ieper",8902,0,33,NA,"Dewulf Evy",NA,"recreatie.wvl.anb@vlaanderen.be",272,1031,239,"33011","Ieper",1982-12-29,"1982001920",74036.52,131457532.08,"Ieper",49749.8435267484,166977.918508995
FALSE,FALSE,"Hommelhofstraat","Kanaal Ieper-Komen",NA,NA,"YES","I_8900_3",NA,NA,"ANB_Mtp","Lentisch",NA,"West-Vlaanderen","Ieper",8900,0,0,NA,"Dewulf Evy",NA,"recreatie.wvl.anb@vlaanderen.be",272,1031,239,"33011","Ieper",1982-12-29,"1982001920",74036.52,131457532.08,"Ieper",44902.9999278566,171402.998927102
FALSE,FALSE,"Poperingseweg, weg lgs kanaal","Oude vaart Ieper-Komen","ymjmzjzk",NA,"YES","I_8900_4",NA,NA,"ANB_Mtp","Lentisch",NA,"West-Vlaanderen","Ieper",8900,0,0,NA,"Dewulf Evy",NA,"recreatie.wvl.anb@vlaanderen.be",272,1031,239,"33011","Ieper",1982-12-29,"1982001920",74036.52,131457532.08,"Ieper",44964.6103171833,172611.369037215
FALSE,FALSE,"Ieper","Kasteelgracht","ymjmzjzk",NA,"YES","I_8900_5",NA,NA,"Scheers","Lentisch",NA,"West-Vlaanderen","Ieper",8900,1,NA,NA,"VMM",NA,"d.slootmaekers@vmm.be",272,1031,239,"33011","Ieper",1982-12-29,"1982001920",74036.52,131457532.08,"Ieper",45953.3974380013,171385.002909669
FALSE,FALSE,NA,"Dikkebusvijver",NA,NA,"YES","I_8900_6",NA,NA,"Scheers","Lentisch",NA,"West-Vlaanderen","Ieper",8900,NA,NA,NA,NA,NA,NA,272,1031,239,"33011","Ieper",1982-12-29,"1982001920",74036.52,131457532.08,"Ieper",42235.0689278852,168242.434528146
FALSE,FALSE,NA,"Zillebekevijver",NA,NA,"YES","I_8902_2",NA,NA,"Scheers","Lentisch",NA,"West-Vlaanderen","Ieper",8902,NA,NA,NA,NA,NA,NA,272,1031,239,"33011","Ieper",1982-12-29,"1982001920",74036.52,131457532.08,"Ieper",46963.579427124,171039.072727154
FALSE,FALSE,NA,NA,"zgqwyjrm","TBD","NO","V_8902_3","Aanvraag indienen en mail naar Tom Desodt",NA,NA,NA,NA,"West-Vlaanderen","Ieper",8902,NA,NA,NA,NA,NA,NA,272,1031,239,"33011","Ieper",1982-12-29,"1982001920",74036.52,131457532.08,"Ieper",48711.7584745102,167865.553102893
FALSE,FALSE,NA,NA,"ymjmzjzk",NA,"YES","I_8900_7",NA,NA,NA,NA,NA,"West-Vlaanderen","Ieper",8900,NA,NA,NA,NA,NA,NA,272,1031,239,"33011","Ieper",1982-12-29,"1982001920",74036.52,131457532.08,"Ieper",45348.9870367711,173339.447729518
FALSE,FALSE,"Boekhout  onverhard verlengde Walenstr, in bocht, 3 m afw weg","Melsterbeek",NA,NA,"YES","I_3890_1",NA,NA,"VMM_Mtp","Lotisch",NA,"Limburg","Gingelom",3890,2,7154,NA,"Limburg",NA,"christel.bouchet@limburg.be",274,1032,56,"71017","Gingelom",1976-01-23,"1975123003",44803.43,56343293.05,"Gingelom",210856.999871122,159439.9989272
FALSE,FALSE,"Muizen, Kaneelstraat, opw. brug en riool","Cicindria",NA,NA,"YES","I_3891_1",NA,NA,"VMM_Mtp","Lotisch",NA,"Limburg","Gingelom",3891,2,7229,NA,"Limburg",NA,"christel.bouchet@limburg.be",274,1032,56,"71017","Gingelom",1976-01-23,"1975123003",44803.43,56343293.05,"Gingelom",207013.999872914,161398.998926641
FALSE,FALSE,"Kaulille, Broekerheide, oude hostieweg, dan zandpad inrijden, opw brug","Warmbeek",NA,NA,"YES","I_3950_1",NA,NA,"VMM_Mtp","Lotisch",NA,"Limburg","Bocholt",3950,2,9508,NA,"Limburg",NA,"christel.bouchet@limburg.be",293,1038,10,"72003","Bocholt",1982-07-17,"1982001074",42246.09,59288918.46,"Bocholt",228749.999878013,210245.998911152
FALSE,FALSE,"Goolderheideweg, opw weg","Balkenloop",NA,NA,"YES","I_3950_2",NA,NA,"VMM_Mtp","Lotisch",NA,"Limburg","Bocholt",3950,2,473,NA,"Limburg",NA,"christel.bouchet@limburg.be",293,1038,10,"72003","Bocholt",1982-07-17,"1982001074",42246.09,59288918.46,"Bocholt",231652.999876425,207914.998911836
FALSE,FALSE,"onverhard verlengde Goosweg, opw weg","Rieterheideloop",NA,NA,"YES","I_3950_3",NA,NA,"VMM_Mtp","Lotisch",NA,"Limburg","Bocholt",3950,2,332,NA,"Limburg",NA,"christel.bouchet@limburg.be",293,1038,10,"72003","Bocholt",1982-07-17,"1982001074",42246.09,59288918.46,"Bocholt",232051.999876669,209377.998911374
FALSE,FALSE,"Stramproyerweg, aan grenspaal 160, opw onderkokering aan Abeek (stuw)","Abeek",NA,NA,"YES","I_3950_4",NA,NA,"VMM_Mtp","Lotisch",NA,"Limburg","Bocholt",3950,1,9505,NA,"VMM",NA,"d.slootmaekers@vmm.be",293,1038,10,"72003","Bocholt",1982-07-17,"1982001074",42246.09,59288918.46,"Bocholt",240131.999873836,209086.998911368
FALSE,FALSE,"Bocholt, Kreylerstraat, onverharde weg naast huisnr. 29, opw brug","Abeek",NA,NA,"YES","I_3950_5",NA,NA,"VMM_Mtp","Lotisch",NA,"Limburg","Bocholt",3950,1,9505,NA,"VMM",NA,"d.slootmaekers@vmm.be",293,1038,10,"72003","Bocholt",1982-07-17,"1982001074",42246.09,59288918.46,"Bocholt",236317.999474777,207657.998711846
FALSE,FALSE,"Kaulille, 5m opw brug en 102500","Warmbeek",NA,NA,"YES","I_3950_6",NA,NA,"VMM_Mtp","Lotisch",NA,"Limburg","Bocholt",3950,2,9508,NA,"Limburg",NA,"christel.bouchet@limburg.be",293,1038,10,"72003","Bocholt",1982-07-17,"1982001074",42246.09,59288918.46,"Bocholt",228749.999878013,210245.998911152
FALSE,FALSE,"Kaulille; verlengde Molenstraat; einde traject 5m afw brug","Warmbeek","mdflzwm0","31/08/24","YES","I_3950_7","NIET GEBRUIKEN, net elektrisch afgevist",NA,"VMM_Mtp","Lotisch",NA,"Limburg","Bocholt",3950,2,9508,NA,"Limburg",NA,"christel.bouchet@limburg.be",293,1038,10,"72003","Bocholt",1982-07-17,"1982001074",42246.09,59288918.46,"Bocholt",229182.003167687,208777.997872879
FALSE,FALSE,"Bocholt; begin MF-traject 300m afw MP 128000","Abeek",NA,NA,"YES","I_3950_8",NA,NA,"VMM_Mtp","Lotisch",NA,"Limburg","Bocholt",3950,1,9505,NA,"VMM",NA,"d.slootmaekers@vmm.be",293,1038,10,"72003","Bocholt",1982-07-17,"1982001074",42246.09,59288918.46,"Bocholt",238315.999874298,208492.998911566
FALSE,FALSE,"Oud Kanaal, Bocholt?",NA,"mdflzwm0",NA,"YES","I_3950_9",NA,NA,"EcoWater","Lentisch",NA,"Limburg","Bocholt",3950,NA,NA,NA,NA,NA,NA,293,1038,10,"72003","Bocholt",1982-07-17,"1982001074",42246.09,59288918.46,"Bocholt",235465.826314846,207380.700644872
FALSE,FALSE,NA,NA,NA,NA,"YES","I_8660_1",NA,NA,NA,"Lotisch",NA,"West-Vlaanderen","De Panne",8660,NA,NA,NA,NA,NA,NA,303,1041,152,"38008","De Panne",1976-01-23,"1975123003",24093.96,26628226.66,"De Panne",23767.0663490134,197193.316352141
FALSE,FALSE,"Wijtschate, Klijtputstraat","Wambeek",NA,NA,"YES","I_8953_1",NA,NA,"VMM_Mtp","Lotisch",NA,"West-Vlaanderen","Heuvelland",8953,2,4534,NA,"West-Vlaanderen",NA,NA,308,1043,288,"33039","Heuvelland",1982-12-29,"2982001920",72249.46,94791565.55,"Heuvelland",49296.9995246463,164054.998729234
FALSE,FALSE,"Wulvergem, Vrooilandstraat zijweg","Stuiversbeek",NA,NA,"YES","I_8953_2",NA,NA,"VMM_Mtp","Lotisch",NA,"West-Vlaanderen","Heuvelland",8953,2,4764,NA,"West-Vlaanderen",NA,NA,308,1043,288,"33039","Heuvelland",1982-12-29,"2982001920",72249.46,94791565.55,"Heuvelland",43339.9999261586,162729.998929808
FALSE,FALSE,"Voormezele, Armentierseweg","Diependaalbeek",NA,NA,"YES","I_8953_3",NA,NA,"VMM_Mtp","Lotisch",NA,"West-Vlaanderen","Heuvelland",8953,2,1376,NA,"West-Vlaanderen",NA,NA,308,1043,288,"33039","Heuvelland",1982-12-29,"2982001920",72249.46,94791565.55,"Heuvelland",45785.9999264158,166760.998928495
FALSE,FALSE,"Wijtschate, Kroonaardstraat","Ieperlee",NA,NA,"YES","I_8953_4",NA,NA,"VMM_Mtp","Lotisch",NA,"West-Vlaanderen","Heuvelland",8953,2,1206,NA,"West-Vlaanderen",NA,NA,308,1043,288,"33039","Heuvelland",1982-12-29,"2982001920",72249.46,94791565.55,"Heuvelland",44286.9999265409,165412.998928954
FALSE,FALSE,"Kemmel, Kriekstraat, afwaarts","Willebeek",NA,NA,"YES","I_8956_1",NA,NA,"VMM_Mtp","Lotisch",NA,"West-Vlaanderen","Heuvelland",8956,2,2019,NA,"West-Vlaanderen",NA,NA,308,1043,288,"33039","Heuvelland",1982-12-29,"2982001920",72249.46,94791565.55,"Heuvelland",41529.9999276143,166290.998928779
FALSE,FALSE,"Kemmel, Willebeek, speelplein-wandelpad","Willebeek",NA,NA,"YES","I_8956_2",NA,NA,"VMM_Mtp","Lotisch",NA,"West-Vlaanderen","Heuvelland",8956,2,2031,NA,"West-Vlaanderen",NA,NA,308,1043,288,"33039","Heuvelland",1982-12-29,"2982001920",72249.46,94791565.55,"Heuvelland",41311.9995274004,165169.998729123
